"id","name","bn_name","code","hrms_code","city","phone","email","routing_no","address","recommended_manpower","description","parent_id","type","created_at","updated_at"
112,"Babuganj Branch, Barishal","বাবুগঞ্জ শাখা, বরিশাল","0205","BR02",NULL,NULL,NULL,NULL,NULL,0,NULL,NULL,"BR","2022-12-20 07:39:53","2022-12-20 11:25:35"
113,"Baishari Branch, Barishal","বাইশারী শাখা, বরিশাল","0223","BR03",NULL,NULL,NULL,NULL,NULL,0,NULL,NULL,"BR","2022-12-20 07:39:53","2022-12-20 11:26:26"
114,"Bakerganj Branch, Barishal","বাকেরগঞ্জ শাখা, বরিশাল","0202","BR04",NULL,NULL,NULL,NULL,NULL,0,NULL,NULL,"BR","2022-12-20 07:39:53","2022-12-20 11:26:42"
115,"Banaripara Branch, Barishal","বানারীপাড়া শাখা, বরিশাল","0222","BR05",NULL,NULL,NULL,NULL,NULL,0,NULL,NULL,"BR","2022-12-20 07:39:53","2022-12-20 11:27:02"
116,"Barishal Branch, Barishal","বরিশাল শাখা, বরিশাল","0201","BR06",NULL,NULL,NULL,NULL,NULL,0,NULL,NULL,"BR","2022-12-20 07:39:53","2022-12-20 11:27:22"
117,"Bhashanchar Branch, Barishal","ভাষানচর শাখা, বরিশাল","0212","BR07",NULL,NULL,NULL,NULL,NULL,0,NULL,NULL,"BR","2022-12-20 07:39:53","2022-12-20 11:27:35"
118,"Choygram Bazar Branch, Barishal","ছয়গ্রাম বাজার শাখা, বরিশাল","0228","BR08",NULL,NULL,NULL,NULL,NULL,0,NULL,NULL,"BR","2022-12-20 07:39:53","2022-12-20 11:27:50"
120,"Habibpur Bazar Branch, Barishal","হাবিবপুর বাজার শাখা, বরিশাল","0224","BR10",NULL,NULL,NULL,NULL,NULL,0,NULL,NULL,"BR","2022-12-20 07:39:53","2022-12-20 11:28:02"
121,"Harta Bandar Branch, Barishal","হারতা বন্দর শাখা, বরিশাল","0229","BR11",NULL,NULL,NULL,NULL,NULL,0,NULL,NULL,"BR","2022-12-20 07:39:53","2022-12-20 11:28:28"
119,"Gouranadi Branch, Barishal","গৌরনদী শাখা, বরিশাল","0208","BR09",NULL,NULL,NULL,NULL,NULL,0,NULL,NULL,"BR","2022-12-20 07:39:53","2022-12-20 11:28:39"
122,"Hizla Branch, Barishal","হিজলা শাখা, বরিশাল","0216","BR12",NULL,NULL,NULL,NULL,NULL,0,NULL,NULL,"BR","2022-12-20 07:39:53","2022-12-20 11:28:54"
123,"Karfa Bazar Branch, Barishal","কারফা বাজার শাখা, বরিশাল","0225","BR13",NULL,NULL,NULL,NULL,NULL,0,NULL,NULL,"BR","2022-12-20 07:39:53","2022-12-20 11:29:08"
124,"Kazirhat Branch, Barishal","কাজীরহাট শাখা, বরিশাল","0219","BR14",NULL,NULL,NULL,NULL,NULL,0,NULL,NULL,"BR","2022-12-20 07:39:53","2022-12-20 11:29:31"
125,"Khasherhat Branch, Barishal","খাসেরহাট শাখা, বরিশাল","0215","BR15",NULL,NULL,NULL,NULL,NULL,0,NULL,NULL,"BR","2022-12-20 07:39:53","2022-12-20 11:29:48"
127,"Moheshpur Bazar Branch, Barishal","মহেশপুর বাজার শাখা, বরিশাল","0227","BR17",NULL,NULL,NULL,NULL,NULL,0,NULL,NULL,"BR","2022-12-20 07:39:53","2022-12-20 11:30:24"
128,"Mahilara Branch, Barishal","মাহিলাড়া শাখা, বরিশাল","0203","BR18",NULL,NULL,NULL,NULL,NULL,0,NULL,NULL,"BR","2022-12-20 07:39:53","2022-12-20 11:30:37"
129,"Moulvir Hat Branch, Barishal","মৌলভীরহাট শাখা, বরিশাল","0220","BR19",NULL,NULL,NULL,NULL,NULL,0,NULL,NULL,"BR","2022-12-20 07:39:53","2022-12-20 11:30:50"
130,"Muladi  Branch, Barishal","মুলাদী শাখা, বরিশাল","0214","BR20",NULL,NULL,NULL,NULL,NULL,0,NULL,NULL,"BR","2022-12-20 07:39:53","2022-12-20 11:32:26"
131,"Patarhat Branch, Barishal","পাতারহাট শাখা, বরিশাল","0210","BR21",NULL,NULL,NULL,NULL,NULL,0,NULL,NULL,"BR","2022-12-20 07:39:53","2022-12-20 11:32:01"
132,"Raipasha Branch, Barishal","রায়পাশা শাখা, বরিশাল","0213","BR22",NULL,NULL,NULL,NULL,NULL,0,NULL,NULL,"BR","2022-12-20 07:39:53","2022-12-20 11:32:42"
133,"Ratanpur Branch, Barishal","রতনপুর শাখা, বরিশাল","0218","BR23",NULL,NULL,NULL,NULL,NULL,0,NULL,NULL,"BR","2022-12-20 07:39:53","2022-12-20 11:33:23"
134,"Senerhat Branch, Barishal","সেনেরহাট শাখা, বরিশাল","0204","BR24",NULL,NULL,NULL,NULL,NULL,0,NULL,NULL,"BR","2022-12-20 07:39:53","2022-12-20 11:33:33"
135,"Sholak Branch, Barishal","শোলক শাখা, বরিশাল","0207","BR25",NULL,NULL,NULL,NULL,NULL,0,NULL,NULL,"BR","2022-12-20 07:39:53","2022-12-20 11:33:46"
136,"Sukhinilganj Branch, Barishal","সুখিনীলগঞ্জ শাখা, বরিশাল","0221","BR26",NULL,NULL,NULL,NULL,NULL,0,NULL,NULL,"BR","2022-12-20 07:39:53","2022-12-20 11:34:22"
137,"Taltali Branch, Barishal","তালতলী শাখা, বরিশাল","0217","BR27",NULL,NULL,NULL,NULL,NULL,0,NULL,NULL,"BR","2022-12-20 07:39:53","2022-12-20 11:34:38"
138,"Ulania Bazar Branch, Barishal","উলানিয়া বাজার শাখা, বরিশাল","0211","BR28",NULL,NULL,NULL,NULL,NULL,0,NULL,NULL,"BR","2022-12-20 07:39:53","2022-12-20 11:34:50"
139,"Uzirpur Branch, Barishal","উজিরপুর শাখা, বরিশাল","0206","BR29",NULL,NULL,NULL,NULL,NULL,0,NULL,NULL,"BR","2022-12-20 07:39:53","2022-12-20 11:35:31"
140,"Amtali Branch, Barguna","আমতলী শাখা, বরগুনা","0606","BR30",NULL,NULL,NULL,NULL,NULL,0,NULL,NULL,"BR","2022-12-20 07:39:53","2022-12-20 11:39:08"
141,"Ayla Bazar Branch, Barguna","আয়লা বাজার শাখা, বরগুনা","0612","BR31",NULL,NULL,NULL,NULL,NULL,0,NULL,NULL,"BR","2022-12-20 07:39:53","2022-12-20 11:39:19"
142,"Bamna Branch, Barguna","বামনা শাখা, বরগুনা","0609","BR32",NULL,NULL,NULL,NULL,NULL,0,NULL,NULL,"BR","2022-12-20 07:39:53","2022-12-20 11:39:27"
143,"Barguna Branch, Barguna","বরগুনা শাখা, বরগুনা","0601","BR33",NULL,NULL,NULL,NULL,NULL,0,NULL,NULL,"BR","2022-12-20 07:39:53","2022-12-20 11:39:37"
144,"Betagi Branch, Barguna","বেতাগী শাখা, বরগুনা","0603","BR34",NULL,NULL,NULL,NULL,NULL,0,NULL,NULL,"BR","2022-12-20 07:39:53","2022-12-20 11:39:47"
145,"Chandkhali Branch, Barguna","চান্দখালী শাখা, বরগুনা","0604","BR35",NULL,NULL,NULL,NULL,NULL,0,NULL,NULL,"BR","2022-12-20 07:39:53","2022-12-20 11:39:58"
146,"Charduani Bazar Branch, Barguna","চরদুয়ানী বাজার শাখা, বরগুনা","0611","BR36",NULL,NULL,NULL,NULL,NULL,0,NULL,NULL,"BR","2022-12-20 07:39:53","2022-12-20 11:40:12"
147,"Dowatala Branch, Barguna","ডৌয়াতলা শাখা, বরগুনা","0615","BR37",NULL,NULL,NULL,NULL,NULL,0,NULL,NULL,"BR","2022-12-20 07:39:53","2022-12-20 11:40:24"
148,"Fuljhury Bazar Branch, Barguna","ফুলঝুড়ি বাজার শাখা, বরগুনা","0610","BR38",NULL,NULL,NULL,NULL,NULL,0,NULL,NULL,"BR","2022-12-20 07:39:53","2022-12-20 11:40:34"
149,"Gourichanna Branch, Barguna","গৌরিচন্না শাখা, বরগুনা","0616","BR39",NULL,NULL,NULL,NULL,NULL,0,NULL,NULL,"BR","2022-12-20 07:39:53","2022-12-20 11:40:42"
150,"Hosnabad Branch, Barguna","হোসনাবাদ শাখা, বরগুনা","0613","BR40",NULL,NULL,NULL,NULL,NULL,0,NULL,NULL,"BR","2022-12-20 07:39:53","2022-12-20 11:40:51"
151,"Kukua Branch, Barguna","কুকুয়া শাখা, বরগুনা","0608","BR41",NULL,NULL,NULL,NULL,NULL,0,NULL,NULL,"BR","2022-12-20 07:39:53","2022-12-20 11:41:03"
152,"Lemua Branch, Barguna","লেমুয়া শাখা, বরগুনা","0614","BR42",NULL,NULL,NULL,NULL,NULL,0,NULL,NULL,"BR","2022-12-20 07:39:53","2022-12-20 11:41:13"
155,"Taltali Branch, Barguna","তালতলী শাখা, বরগুনা","0607","BR45",NULL,NULL,NULL,NULL,NULL,0,NULL,NULL,"BR","2022-12-20 07:39:53","2022-12-20 11:41:39"
156,"Bhola Branch, Bhola","ভোলা শাখা, ভোলা","0301","BR46",NULL,NULL,NULL,NULL,NULL,0,NULL,NULL,"BR","2022-12-20 07:39:53","2022-12-20 11:42:41"
157,"Borhanganj Bazar Branch, Bhola","বোরহানগঞ্জ বাজার শাখা, ভোলা","0315","BR47",NULL,NULL,NULL,NULL,NULL,0,NULL,NULL,"BR","2022-12-20 07:39:53","2022-12-20 11:42:52"
158,"Borhanuddin Branch, Bhola","বোরহানউদ্দিন শাখা, ভোলা","0305","BR48",NULL,NULL,NULL,NULL,NULL,0,NULL,NULL,"BR","2022-12-20 07:39:53","2022-12-20 11:43:01"
159,"Char Fashion Branch, Bhola","চর ফ্যাশন শাখা, ভোলা","0308","BR49",NULL,NULL,NULL,NULL,NULL,0,NULL,NULL,"BR","2022-12-20 07:39:53","2022-12-20 11:43:13"
160,"Dakkhin Aicha Bazar Branch, Bhola","দক্ষিন আইচা বাজার শাখা, ভোলা","0316","BR50",NULL,NULL,NULL,NULL,NULL,0,NULL,NULL,"BR","2022-12-20 07:39:53","2022-12-20 11:43:26"
161,"Daulatkhan Branch, Bhola","দৌলতখান শাখা, ভোলা","0304","BR51",NULL,NULL,NULL,NULL,NULL,0,NULL,NULL,"BR","2022-12-20 07:39:53","2022-12-20 11:43:35"
162,"Dularhat Branch, Bhola","দুলারহাট শাখা, ভোলা","0309","BR52",NULL,NULL,NULL,NULL,NULL,0,NULL,NULL,"BR","2022-12-20 07:39:53","2022-12-20 11:43:42"
163,"Ilishahat Branch, Bhola","ইলিশাহাট শাখা, ভোলা","0302","BR53",NULL,NULL,NULL,NULL,NULL,0,NULL,NULL,"BR","2022-12-20 07:39:53","2022-12-20 11:43:55"
164,"Janata Bazar Branch, Bhola","জনতা বাজার শাখা, ভোলা","0313","BR54",NULL,NULL,NULL,NULL,NULL,0,NULL,NULL,"BR","2022-12-20 07:39:53","2022-12-20 11:44:05"
165,"Keramatganj Bazar Branch, Bhola","কেরামতগঞ্জ বাজার শাখা, ভোলা","0314","BR55",NULL,NULL,NULL,NULL,NULL,0,NULL,NULL,"BR","2022-12-20 07:39:53","2022-12-20 11:44:13"
166,"Kunjer Hat Branch, Bhola","কুঞ্জের হাট শাখা, ভোলা","0311","BR56",NULL,NULL,NULL,NULL,NULL,0,NULL,NULL,"BR","2022-12-20 07:39:53","2022-12-20 11:44:23"
167,"Lalmohan Branch, Bhola","লালমোহন শাখা, ভোলা","0306","BR57",NULL,NULL,NULL,NULL,NULL,0,NULL,NULL,"BR","2022-12-20 07:39:53","2022-12-20 11:44:32"
168,"Letra Bazar Branch, Bhola","লেতরা বাজার শাখা, ভোলা","0310","BR58",NULL,NULL,NULL,NULL,NULL,0,NULL,NULL,"BR","2022-12-20 07:39:53","2022-12-20 11:44:46"
169,"Manpura Branch, Bhola","মনপুরা শাখা, ভোলা","0318","BR59",NULL,NULL,NULL,NULL,NULL,0,NULL,NULL,"BR","2022-12-20 07:39:53","2022-12-20 11:44:56"
171,"Raichand Branch, Bhola","রায়চাঁদ শাখা, ভোলা","0312","BR61",NULL,NULL,NULL,NULL,NULL,0,NULL,NULL,"BR","2022-12-20 07:39:53","2022-12-20 11:45:15"
172,"Tazumuddin Branch, Bhola","তজুমদ্দিন শাখা, ভোলা","0303","BR62",NULL,NULL,NULL,NULL,NULL,0,NULL,NULL,"BR","2022-12-20 07:39:53","2022-12-20 11:45:23"
173,"Amua Branch, Jhalakathi","আমুয়া শাখা, ঝালকাঠি","0408","BR63",NULL,NULL,NULL,NULL,NULL,0,NULL,NULL,"BR","2022-12-20 07:39:53","2022-12-20 11:46:04"
174,"Badurtola Bazar Branch, Jhalakathi","বাদুরতলা বাজার শাখা, ঝালকাঠি","0412","BR64",NULL,NULL,NULL,NULL,NULL,0,NULL,NULL,"BR","2022-12-20 07:39:53","2022-12-20 11:46:32"
175,"Basanda Branch, Jhalakathi","বাসন্ডা শাখা, ঝালকাঠি","0411","BR65",NULL,NULL,NULL,NULL,NULL,0,NULL,NULL,"BR","2022-12-20 07:39:53","2022-12-20 11:46:40"
176,"Binoykati Branch, Jhalakathi","বিনয়কাঠী শাখা, ঝালকাঠি","0402","BR66",NULL,NULL,NULL,NULL,NULL,0,NULL,NULL,"BR","2022-12-20 07:39:53","2022-12-20 11:46:48"
177,"Chitki Bazar Branch, Jhalakathi","ছিটকী বাজার শাখা, ঝালকাঠি","0414","BR67",NULL,NULL,NULL,NULL,NULL,0,NULL,NULL,"BR","2022-12-20 07:39:53","2022-12-20 11:46:55"
178,"Galua Bazar Branch, Jhalakathi","গালুয়া বাজার শাখা, ঝালকাঠি","0403","BR68",NULL,NULL,NULL,NULL,NULL,0,NULL,NULL,"BR","2022-12-20 07:39:53","2022-12-20 11:47:05"
179,"Jhalakathi Branch, Jhalakathi","ঝালকাঠি শাখা, ঝালকাঠি","0401","BR69",NULL,NULL,NULL,NULL,NULL,0,NULL,NULL,"BR","2022-12-20 07:39:53","2022-12-20 11:47:15"
180,"Kaikhali Branch, Jhalakathi","কৈখালী শাখা, ঝালকাঠি","0410","BR70",NULL,NULL,NULL,NULL,NULL,0,NULL,NULL,"BR","2022-12-20 07:39:53","2022-12-20 11:47:23"
181,"Kathalia Branch, Jhalakathi","কাঠালিয়া শাখা, ঝালকাঠি","0407","BR71",NULL,NULL,NULL,NULL,NULL,0,NULL,NULL,"BR","2022-12-20 07:39:53","2022-12-20 11:47:32"
182,"Nabagram Branch, Jhalakathi","নবগ্রাম শাখা, ঝালকাঠি","0413","BR72",NULL,NULL,NULL,NULL,NULL,0,NULL,NULL,"BR","2022-12-20 07:39:53","2022-12-20 11:47:45"
183,"Nalchity Branch, Jhalakathi","নলছিটি শাখা, ঝালকাঠি","0404","BR73",NULL,NULL,NULL,NULL,NULL,0,NULL,NULL,"BR","2022-12-20 07:39:53","2022-12-20 11:47:59"
184,"Nizamia Bazar Branch, Jhalakathi","নিজামিয়া বাজার শাখা, ঝালকাঠি","0417","BR74",NULL,NULL,NULL,NULL,NULL,0,NULL,NULL,"BR","2022-12-20 07:39:53","2022-12-20 11:48:06"
185,"Rajapur Branch, Jhalakathi","রাজাপুর শাখা, ঝালকাঠি","0406","BR75",NULL,NULL,NULL,NULL,NULL,0,NULL,NULL,"BR","2022-12-20 07:39:53","2022-12-20 11:48:15"
186,"Ramchandrapur Branch, Jhalakathi","রামচন্দ্রপুর শাখা, ঝালকাঠি","0416","BR76",NULL,NULL,NULL,NULL,NULL,0,NULL,NULL,"BR","2022-12-20 07:39:53","2022-12-20 11:48:25"
187,"Taltala Bazar Branch, Jhalakathi","তালতলা বাজার শাখা, ঝালকাঠি","0405","BR77",NULL,NULL,NULL,NULL,NULL,0,NULL,NULL,"BR","2022-12-20 07:39:53","2022-12-20 11:48:32"
188,"Amkhola Branch, Patuakhali","আমখোলা শাখা, পটুয়াখালী","0724","BR78",NULL,NULL,NULL,NULL,NULL,0,NULL,NULL,"BR","2022-12-20 07:39:53","2022-12-20 11:50:01"
189,"Awliapur Branch, Patuakhali","আউলিয়াপুর শাখা, পটুয়াখালী","0710","BR79",NULL,NULL,NULL,NULL,NULL,0,NULL,NULL,"BR","2022-12-20 07:39:53","2022-12-20 11:50:44"
190,"Baherchar Bandar Branch, Patuakhali","বাহেরচর বন্দর শাখা, পটুয়াখালী","0708","BR80",NULL,NULL,NULL,NULL,NULL,0,NULL,NULL,"BR","2022-12-20 07:39:53","2022-12-20 11:50:53"
191,"Bauphal Branch, Patuakhali","বাউফল শাখা, পটুয়াখালী","0705","BR81",NULL,NULL,NULL,NULL,NULL,0,NULL,NULL,"BR","2022-12-20 07:39:53","2022-12-20 11:51:03"
192,"Chandpura Bandar Branch, Patuakhali","চাঁদপুরা বন্দর শাখা, পটুয়াখালী","0720","BR82",NULL,NULL,NULL,NULL,NULL,0,NULL,NULL,"BR","2022-12-20 07:39:53","2022-12-20 11:51:30"
193,"Charkajal Branch, Patuakhali","চরকাজল শাখা, পটুয়াখালী","0704","BR83",NULL,NULL,NULL,NULL,NULL,0,NULL,NULL,"BR","2022-12-20 07:39:53","2022-12-20 11:51:41"
194,"Chiknikandi Bazar Branch, Patuakhali","চিকনিকান্দি বাজার শাখা, পটুয়াখালী","0716","BR84",NULL,NULL,NULL,NULL,NULL,0,NULL,NULL,"BR","2022-12-20 07:39:53","2022-12-20 11:51:50"
195,"Choto Bighai Branch, Patuakhali","ছোট বিঘাই শাখা, পটুয়াখালী","0718","BR85",NULL,NULL,NULL,NULL,NULL,0,NULL,NULL,"BR","2022-12-20 07:39:53","2022-12-20 11:51:59"
196,"Dashmina Branch, Patuakhali","দশমিনা শাখা, পটুয়াখালী","0709","BR86",NULL,NULL,NULL,NULL,NULL,0,NULL,NULL,"BR","2022-12-20 07:39:53","2022-12-20 11:52:38"
197,"Dumki Branch, Patuakhali","দুমকী শাখা, পটুয়াখালী","0715","BR87",NULL,NULL,NULL,NULL,NULL,0,NULL,NULL,"BR","2022-12-20 07:39:53","2022-12-20 11:52:46"
198,"Gabua Bazar Branch, Patuakhali","গাবুয়া বাজার শাখা, পটুয়াখালী","0719","BR88",NULL,NULL,NULL,NULL,NULL,0,NULL,NULL,"BR","2022-12-20 07:39:53","2022-12-20 11:52:55"
199,"Galachipa Branch, Patuakhali","গলাচিপা শাখা, পটুয়াখালী","0707","BR89",NULL,NULL,NULL,NULL,NULL,0,NULL,NULL,"BR","2022-12-20 07:39:53","2022-12-20 11:53:03"
200,"Kalaiya Bandar Branch, Patuakhali","কালাইয়া বন্দর শাখা, পটুয়াখালী","0726","BR90",NULL,NULL,NULL,NULL,NULL,0,NULL,NULL,"BR","2022-12-20 07:39:53","2022-12-20 11:53:16"
202,"Karkhana Branch, Patuakhali","কারখানা শাখা, পটুয়াখালী","0721","BR92",NULL,NULL,NULL,NULL,NULL,0,NULL,NULL,"BR","2022-12-20 07:39:53","2022-12-20 11:54:10"
203,"Keshobpur Branch, Patuakhali","কেশবপুর শাখা, পটুয়াখালী","0714","BR93",NULL,NULL,NULL,NULL,NULL,0,NULL,NULL,"BR","2022-12-20 07:39:53","2022-12-20 11:54:23"
204,"Kuakata Branch, Patuakhali","কুয়াকাটা শাখা, পটুয়াখালী","0723","BR94",NULL,NULL,NULL,NULL,NULL,0,NULL,NULL,"BR","2022-12-20 07:39:53","2022-12-20 11:54:33"
205,"Lamna Boro Bazar Branch, Patuakhali","লামনা বড় বাজার শাখা, পটুয়াখালী","0725","BR95",NULL,NULL,NULL,NULL,NULL,0,NULL,NULL,"BR","2022-12-20 07:39:53","2022-12-20 11:54:51"
206,"Mohipur Branch, Patuakhali","মহিপুর শাখা, পটুয়াখালী","0713","BR96",NULL,NULL,NULL,NULL,NULL,0,NULL,NULL,"BR","2022-12-20 07:39:53","2022-12-20 11:55:12"
207,"Muradia Branch, Patuakhali","মুরাদিয়া শাখা, পটুয়াখালী","0702","BR97",NULL,NULL,NULL,NULL,NULL,0,NULL,NULL,"BR","2022-12-20 07:39:53","2022-12-20 11:55:24"
208,"Nagarer Hat Branch, Patuakhali","নগরের হাট শাখা, পটুয়াখালী","0706","BR98",NULL,NULL,NULL,NULL,NULL,0,NULL,NULL,"BR","2022-12-20 07:39:53","2022-12-20 11:55:36"
209,"Panpatti Branch, Patuakhali","পানপট্টি শাখা, পটুয়াখালী","0717","BR99",NULL,NULL,NULL,NULL,NULL,0,NULL,NULL,"BR","2022-12-20 07:39:53","2022-12-20 11:55:47"
210,"Patuakhali Branch, Patuakhali","পটুয়াখালী শাখা, পটুয়াখালী","0701","BR100",NULL,NULL,NULL,NULL,NULL,0,NULL,NULL,"BR","2022-12-20 07:39:53","2022-12-20 11:56:20"
212,"Subidkhali Branch, Patuakhali","সুবিদখালী শাখা, পটুয়াখালী","0711","BR102",NULL,NULL,NULL,NULL,NULL,0,NULL,NULL,"BR","2022-12-20 07:39:53","2022-12-20 11:56:47"
213,"Baitakata Branch, Pirojpur","বৈঠাকাটা শাখা, পিরোজপুর","0505","BR103",NULL,NULL,NULL,NULL,NULL,0,NULL,NULL,"BR","2022-12-20 07:39:53","2022-12-20 11:58:48"
214,"Baldia Branch, Pirojpur","বলদিয়া শাখা, পিরোজপুর","0510","BR104",NULL,NULL,NULL,NULL,NULL,0,NULL,NULL,"BR","2022-12-20 07:39:53","2022-12-20 11:58:56"
216,"Bhandaria Branch, Pirojpur","ভান্ডারিয়া শাখা, পিরোজপুর","0511","BR106",NULL,NULL,NULL,NULL,NULL,0,NULL,NULL,"BR","2022-12-20 07:39:53","2022-12-20 11:59:47"
215,"Bara Masua Branch, Pirojpur","বড় মাছুয়া শাখা, পিরোজপুর","0526","BR105",NULL,NULL,NULL,NULL,NULL,0,NULL,NULL,"BR","2022-12-20 07:39:53","2022-12-20 11:59:37"
217,"Chandipur Branch, Pirojpur","চন্ডিপুর শাখা, পিরোজপুর","0508","BR107",NULL,NULL,NULL,NULL,NULL,0,NULL,NULL,"BR","2022-12-20 07:39:53","2022-12-20 11:59:55"
218,"Chiltala Bazar Branch, Pirojpur","চিলতলা বাজার শাখা, পিরোজপুর","0521","BR108",NULL,NULL,NULL,NULL,NULL,0,NULL,NULL,"BR","2022-12-20 07:39:53","2022-12-20 12:04:17"
219,"Dhanishafa Branch, Pirojpur","ধানীসাফা শাখা, পিরোজপুর","0514","BR109",NULL,NULL,NULL,NULL,NULL,0,NULL,NULL,"BR","2022-12-20 07:39:53","2022-12-20 12:04:31"
220,"Durgapur Branch, Pirojpur","দূর্গাপুর শাখা, পিরোজপুর","0522","BR110",NULL,NULL,NULL,NULL,NULL,0,NULL,NULL,"BR","2022-12-20 07:39:53","2022-12-20 12:05:31"
221,"Ikri Bazar Branch, Pirojpur","ইকড়ি বাজার শাখা, পিরোজপুর","0520","BR111",NULL,NULL,NULL,NULL,NULL,0,NULL,NULL,"BR","2022-12-20 07:39:53","2022-12-20 12:05:46"
222,"Gulishakhali Branch, Pirojpur","গুলিশাখালী শাখা, পিরোজপুর","0515","BR112",NULL,NULL,NULL,NULL,NULL,0,NULL,NULL,"BR","2022-12-20 07:39:53","2022-12-20 12:05:56"
223,"Kalakhali Branch, Pirojpur","কলাখালী শাখা, পিরোজপুর","0524","BR113",NULL,NULL,NULL,NULL,NULL,0,NULL,NULL,"BR","2022-12-20 07:39:53","2022-12-20 12:06:15"
224,"Kaukhali Branch, Pirojpur","কাউখালী শাখা, পিরোজপুর","0504","BR114",NULL,NULL,NULL,NULL,NULL,0,NULL,NULL,"BR","2022-12-20 07:39:53","2022-12-20 12:06:28"
225,"Kouri Khara Branch, Pirojpur","কৌড়িখাড়া শাখা, পিরোজপুর","0509","BR115",NULL,NULL,NULL,NULL,NULL,0,NULL,NULL,"BR","2022-12-20 07:39:53","2022-12-20 12:06:39"
226,"Kuriana Branch, Pirojpur","কুড়িয়ানা শাখা, পিরোজপুর","0523","BR116",NULL,NULL,NULL,NULL,NULL,0,NULL,NULL,"BR","2022-12-20 07:39:53","2022-12-20 12:06:48"
227,"Mathbaria Branch, Pirojpur","মঠবাড়িয়া শাখা, পিরোজপুর","0513","BR117",NULL,NULL,NULL,NULL,NULL,0,NULL,NULL,"BR","2022-12-20 07:39:53","2022-12-20 12:06:57"
228,"Matibhanga Branch, Pirojpur","মাটিভাঙ্গা শাখা, পিরোজপুর","0519","BR118",NULL,NULL,NULL,NULL,NULL,0,NULL,NULL,"BR","2022-12-20 07:39:53","2022-12-20 12:07:06"
229,"Mulgram Hat Branch, Pirojpur","মুলগ্রাম হাট শাখা, পিরোজপুর","0502","BR119",NULL,NULL,NULL,NULL,NULL,0,NULL,NULL,"BR","2022-12-20 07:39:53","2022-12-20 12:07:19"
230,"Nazirpur Branch, Pirojpur","নাজিরপুর শাখা, পিরোজপুর","0505","BR120",NULL,NULL,NULL,NULL,NULL,0,NULL,NULL,"BR","2022-12-20 07:39:53","2022-12-20 12:07:40"
231,"Pirojpur Branch, Pirojpur","পিরোজপুর শাখা, পিরোজপুর","0501","BR121",NULL,NULL,NULL,NULL,NULL,0,NULL,NULL,"BR","2022-12-20 07:39:53","2022-12-20 12:08:04"
232,"Shankarpasha Branch, Pirojpur","শংকরপাশা শাখা, পিরোজপুর","0525","BR122",NULL,NULL,NULL,NULL,NULL,0,NULL,NULL,"BR","2022-12-20 07:39:53","2022-12-20 12:08:16"
233,"Shapleja Bazar Branch, Pirojpur","সাপলেজা বাজার শাখা, পিরোজপুর","0517","BR123",NULL,NULL,NULL,NULL,NULL,0,NULL,NULL,"BR","2022-12-20 07:39:53","2022-12-20 12:08:31"
234,"Swarupkati Branch, Pirojpur","স্বরুপকাঠী শাখা, পিরোজপুর","0518","BR124",NULL,NULL,NULL,NULL,NULL,0,NULL,NULL,"BR","2022-12-20 07:39:53","2022-12-20 12:11:05"
235,"Telikhali Branch, Pirojpur","তেলিখালী শাখা, পিরোজপুর","0512","BR125",NULL,NULL,NULL,NULL,NULL,0,NULL,NULL,"BR","2022-12-20 07:39:53","2022-12-20 12:11:14"
236,"Indurkani Branch, Pirojpur","ইন্দুরকানী শাখা, পিরোজপুর","0507","BR126",NULL,NULL,NULL,NULL,NULL,0,NULL,NULL,"BR","2022-12-20 07:39:53","2022-12-20 12:11:33"
237,"Alam Shah Para Madrasha Branch,Chattogram (East)","আলম শাহ পাড়া মাদ্রাসা শাখা, চট্টগ্রাম(পূর্ব)","3308","BR127",NULL,NULL,NULL,NULL,NULL,0,NULL,NULL,"BR","2022-12-20 07:39:53","2022-12-20 12:12:37"
238,"Ashraf ali chowdhury hat Branch,Chattogram (East)","আশরাফ আলী চৌধুরী হাট শাখা, চট্টগ্রাম(পূর্ব)","5501","BR128",NULL,NULL,NULL,NULL,NULL,0,NULL,NULL,"BR","2022-12-20 07:39:53","2022-12-20 12:13:30"
239,"Azadi Bazar Branch,Chattogram (East)","আজাদী বাজার শাখা, চট্টগ্রাম(পূর্ব)","2908","BR129",NULL,NULL,NULL,NULL,NULL,0,NULL,NULL,"BR","2022-12-20 07:39:53","2022-12-20 12:13:45"
240,"Fatikchari Branch,Chattogram (East)","ফটিকছড়ি শাখা, চট্টগ্রাম(পূর্ব)","2906","BR130",NULL,NULL,NULL,NULL,NULL,0,NULL,NULL,"BR","2022-12-20 07:39:53","2022-12-20 12:13:54"
241,"Hathazari Branch,Chattogram (East)","হাটহাজারী শাখা, চট্টগ্রাম(পূর্ব)","2919","BR131",NULL,NULL,NULL,NULL,NULL,0,NULL,NULL,"BR","2022-12-20 07:39:53","2022-12-20 12:14:06"
242,"Heako Branch,Chattogram (East)","হেঁয়াকো শাখা, চট্টগ্রাম(পূর্ব)","2907","BR132",NULL,NULL,NULL,NULL,NULL,0,NULL,NULL,"BR","2022-12-20 07:39:53","2022-12-20 12:14:15"
243,"Katirhat Branch,Chattogram (East)","কাটিরহাট শাখা, চট্টগ্রাম(পূর্ব)","2927","BR133",NULL,NULL,NULL,NULL,NULL,0,NULL,NULL,"BR","2022-12-20 07:39:53","2022-12-20 12:14:26"
244,"Madanhat Branch,Chattogram (East)","মদনহাট শাখা, চট্টগ্রাম(পূর্ব)","2920","BR134",NULL,NULL,NULL,NULL,NULL,0,NULL,NULL,"BR","2022-12-20 07:39:53","2022-12-20 12:14:35"
246,"Narayan Hat Branch,Chattogram (East)","নারায়ণ হাট শাখা, চট্টগ্রাম(পূর্ব)","2909","BR136",NULL,NULL,NULL,NULL,NULL,0,NULL,NULL,"BR","2022-12-20 07:39:53","2022-12-20 12:16:41"
247,"Nazirhat Branch,Chattogram (East)","নাজিরহাট শাখা, চট্টগ্রাম(পূর্ব)","2910","BR137",NULL,NULL,NULL,NULL,NULL,0,NULL,NULL,"BR","2022-12-20 07:39:53","2022-12-20 12:16:55"
248,"Nazumeah Hat Branch,Chattogram (East)","নজুমিয়া হাট  শাখা, চট্টগ্রাম(পূর্ব)","2921","BR138",NULL,NULL,NULL,NULL,NULL,0,NULL,NULL,"BR","2022-12-20 07:39:53","2022-12-20 12:17:17"
249,"Pahartali Chowmohoni Branch,Chattogram (East)","পাহাড়তলী চৌমুহনী শাখা, চট্টগ্রাম(পূর্ব)","3307","BR139",NULL,NULL,NULL,NULL,NULL,0,NULL,NULL,"BR","2022-12-20 07:39:53","2022-12-20 12:17:32"
250,"Patherhat Branch,Chattogram (East)","পথেরহাট শাখা, চট্টগ্রাম(পূর্ব)","2922","BR140",NULL,NULL,NULL,NULL,NULL,0,NULL,NULL,"BR","2022-12-20 07:39:53","2022-12-20 12:17:43"
251,"Pomra Branch,Chattogram (East)","পোমরা শাখা, চট্টগ্রাম(পূর্ব)","3306","BR141",NULL,NULL,NULL,NULL,NULL,0,NULL,NULL,"BR","2022-12-20 07:39:53","2022-12-20 12:17:56"
252,"Rangunia Branch,Chattogram (East)","রাঙ্গুনিয়া শাখা, চট্টগ্রাম(পূর্ব)","3305","BR142",NULL,NULL,NULL,NULL,NULL,0,NULL,NULL,"BR","2022-12-20 07:39:53","2022-12-20 12:18:10"
253,"Rangunia College Branch,Chattogram (East)","রাঙ্গুনিয়া কলেজ শাখা, চট্টগ্রাম(পূর্ব)","2934","BR143",NULL,NULL,NULL,NULL,NULL,0,NULL,NULL,"BR","2022-12-20 07:39:53","2022-12-20 12:18:25"
254,"Raozan Branch,Chattogram (East)","রাউজান শাখা, চট্টগ্রাম(পূর্ব)","2923","BR144",NULL,NULL,NULL,NULL,NULL,0,NULL,NULL,"BR","2022-12-20 07:39:53","2022-12-20 12:18:37"
255,"Abu Torab Bazar Branch,Chattogram (West)","আবু তোরাব বাজার শাখা, চট্টগ্রাম(পশ্চিম)","2918","BR145",NULL,NULL,NULL,NULL,NULL,0,NULL,NULL,"BR","2022-12-20 07:39:53","2022-12-20 12:19:39"
256,"Aburhat Branch,Chattogram (West)","আবুরহাট শাখা, চট্টগ্রাম(পশ্চিম)","2915","BR146",NULL,NULL,NULL,NULL,NULL,0,NULL,NULL,"BR","2022-12-20 07:39:53","2022-12-20 12:20:00"
257,"Bamansundar Daroga Hat Branch,Chattogram(West)","বামনসুন্দর দারোগা হাট শাখা, চট্টগ্রাম(পশ্চিম)","2917","BR147",NULL,NULL,NULL,NULL,NULL,0,NULL,NULL,"BR","2022-12-20 07:39:53","2022-12-20 12:21:33"
259,"Baraiadhala Branch,Chattogram (West)","বারৈয়াঢালা শাখা, চট্টগ্রাম(পশ্চিম)","2926","BR149",NULL,NULL,NULL,NULL,NULL,0,NULL,NULL,"BR","2022-12-20 07:39:53","2022-12-20 12:22:10"
258,"Baraiarhat Branch,Chattogram (West)","বারৈয়ারহাট শাখা, চট্টগ্রাম(পশ্চিম)","2916","BR148",NULL,NULL,NULL,NULL,NULL,0,NULL,NULL,"BR","2022-12-20 07:39:53","2022-12-20 12:22:52"
260,"Chaitonnerhat Branch,Chattogram (West)","চৈতন্যেরহাট শাখা, চট্টগ্রাম(পশ্চিম)","2935","BR150",NULL,NULL,NULL,NULL,NULL,0,NULL,NULL,"BR","2022-12-20 07:39:53","2022-12-20 12:23:12"
261,"Chaktai Branch,Chattogram (West)","চাক্তাই শাখা, চট্টগ্রাম(পশ্চিম)","2902","BR151",NULL,NULL,NULL,NULL,NULL,0,NULL,NULL,"BR","2022-12-20 07:39:53","2022-12-20 12:23:27"
262,"Dhoparhat Branch,Chattogram (West)","ধোপার হাট শাখা, চট্টগ্রাম(পশ্চিম)","2930","BR152",NULL,NULL,NULL,NULL,NULL,0,NULL,NULL,"BR","2022-12-20 07:39:53","2022-12-20 12:23:41"
263,"Gasua Branch, Chattogram (West)","গাছুয়া শাখা, চট্টগ্রাম(পশ্চিম)","2912","BR153",NULL,NULL,NULL,NULL,NULL,0,NULL,NULL,"BR","2022-12-20 07:39:53","2022-12-20 12:24:04"
264,"Kamal Bazar Branch,Chattogram (West)","কামাল বাজার শাখা, চট্টগ্রাম(পশ্চিম)","2904","BR154",NULL,NULL,NULL,NULL,NULL,0,NULL,NULL,"BR","2022-12-20 07:39:53","2022-12-20 12:24:17"
265,"Khatunganj Branch,Chattogram (West)","খাতুনগঞ্জ শাখা, চট্টগ্রাম(পশ্চিম)","2929","BR155",NULL,NULL,NULL,NULL,NULL,0,NULL,NULL,"BR","2022-12-20 07:39:53","2022-12-20 12:24:32"
266,"Kumira Branch,Chattogram (West)","কুমিরা শাখা, চট্টগ্রাম(পশ্চিম)","2925","BR156",NULL,NULL,NULL,NULL,NULL,0,NULL,NULL,"BR","2022-12-20 07:39:53","2022-12-20 12:24:43"
268,"Sandwip Branch,Chattogram (West)","সন্দ্বীপ  শাখা, চট্টগ্রাম(পশ্চিম)","2911","BR158",NULL,NULL,NULL,NULL,NULL,0,NULL,NULL,"BR","2022-12-20 07:39:53","2022-12-20 12:25:02"
267,"Mirsarai Branch,Chattogram (West)","মিরসরাই শাখা, চট্টগ্রাম(পশ্চিম)","2913","BR157",NULL,NULL,NULL,NULL,NULL,0,NULL,NULL,"BR","2022-12-20 07:39:53","2022-12-20 12:25:34"
269,"Shiberhat Branch,Chattogram (West)","শিবের হাট শাখা, চট্টগ্রাম(পশ্চিম)","2936","BR159",NULL,NULL,NULL,NULL,NULL,0,NULL,NULL,"BR","2022-12-20 07:39:53","2022-12-20 12:25:47"
270,"Shola Shahar Branch,Chattogram (West)","ষোল শহর শাখা, চট্টগ্রাম(পশ্চিম)","2931","BR160",NULL,NULL,NULL,NULL,NULL,0,NULL,NULL,"BR","2022-12-20 07:39:53","2022-12-20 12:26:05"
271,"Sitakunda Branch,Chattogram (West)","সীতাকুন্ড শাখা, চট্টগ্রাম(পশ্চিম)","2924","BR161",NULL,NULL,NULL,NULL,NULL,0,NULL,NULL,"BR","2022-12-20 07:39:53","2022-12-20 12:26:17"
272,"Tea Board Branch,Chattogram (West)","টি বোর্ড শাখা, চট্টগ্রাম(পশ্চিম)","2905","BR162",NULL,NULL,NULL,NULL,NULL,0,NULL,NULL,"BR","2022-12-20 07:39:53","2022-12-20 12:26:36"
273,"Wahedpur Branch,Chattogram (West)","ওয়াহেদপুর শাখা, চট্টগ্রাম(পশ্চিম)","2914","BR163",NULL,NULL,NULL,NULL,NULL,0,NULL,NULL,"BR","2022-12-20 07:39:53","2022-12-20 12:27:55"
274,"Alikadam Branch,Bandarban","আলীকদম শাখা, বান্দরবান","3119","BR164",NULL,NULL,NULL,NULL,NULL,0,NULL,NULL,"BR","2022-12-20 07:39:53","2022-12-20 12:29:00"
275,"Aziz Nagar Branch,Bandarban","আজিজনগর শাখা, বান্দরবান","3118","BR165",NULL,NULL,NULL,NULL,NULL,0,NULL,NULL,"BR","2022-12-20 07:39:53","2022-12-20 12:29:10"
276,"Baishari Branch,Bandarban","বাইশারী শাখা, বান্দরবান","3121","BR166",NULL,NULL,NULL,NULL,NULL,0,NULL,NULL,"BR","2022-12-20 07:39:53","2022-12-20 12:29:18"
277,"Bandarban Branch,Bandarban","বান্দরবান শাখা, বান্দরবান","3201","BR167",NULL,NULL,NULL,NULL,NULL,0,NULL,NULL,"BR","2022-12-20 07:39:53","2022-12-20 12:29:28"
278,"Lama Branch,Bandarban","লামা শাখা, বান্দরবান","3117","BR168",NULL,NULL,NULL,NULL,NULL,0,NULL,NULL,"BR","2022-12-20 07:39:53","2022-12-20 12:29:40"
279,"Naikkongchari Branch,Bandarban","নাইক্ষ্যংছড়ি শাখা, বান্দরবান","3120","BR169",NULL,NULL,NULL,NULL,NULL,0,NULL,NULL,"BR","2022-12-20 07:39:53","2022-12-20 12:29:49"
280,"Rowangchari Branch, Bandarban","রোয়াংছড়ি শাখা, বান্দরবান","3202","BR170",NULL,NULL,NULL,NULL,NULL,0,NULL,NULL,"BR","2022-12-20 07:39:53","2022-12-20 12:29:57"
281,"Ruma Branch,Bandarban","রুমা শাখা, বান্দরবান","3204","BR171",NULL,NULL,NULL,NULL,NULL,0,NULL,NULL,"BR","2022-12-20 07:39:53","2022-12-20 12:30:07"
282,"Thanchi Branch, Bandarban","থানচি শাখা, বান্দরবান","3203","BR172",NULL,NULL,NULL,NULL,NULL,0,NULL,NULL,"BR","2022-12-20 07:39:53","2022-12-20 12:30:18"
283,"Bangla Bazar Branch,Cox's Bazar","বাংলা বাজার শাখা, কক্সবাজার","3111","BR173",NULL,NULL,NULL,NULL,NULL,0,NULL,NULL,"BR","2022-12-20 07:39:53","2022-12-20 12:31:17"
284,"Bara Moheshkhali Branch,Cox's Bazar","বড় মহেশখালী শাখা, কক্সবাজার","3110","BR174",NULL,NULL,NULL,NULL,NULL,0,NULL,NULL,"BR","2022-12-20 07:39:53","2022-12-20 12:31:26"
286,"Cox's Bazar  Branch,Cox's Bazar","কক্সবাজার শাখা, কক্সবাজার","3101","BR176",NULL,NULL,NULL,NULL,NULL,0,NULL,NULL,"BR","2022-12-20 07:39:53","2022-12-20 12:31:46"
287,"Dhurong Bazar Branch,Cox's Bazar","ধুরুং বাজার শাখা, কক্সবাজার","3123","BR177",NULL,NULL,NULL,NULL,NULL,0,NULL,NULL,"BR","2022-12-20 07:39:53","2022-12-20 12:31:56"
288,"Dulahazra Branch,Cox's Bazar","ডুলাহাজারা শাখা, কক্সবাজার","3104","BR178",NULL,NULL,NULL,NULL,NULL,0,NULL,NULL,"BR","2022-12-20 07:39:53","2022-12-20 12:32:09"
289,"Gorzania Bazar Branch,Cox's Bazar","গর্জনিয়া বাজার শাখা, কক্সবাজার","3116","BR179",NULL,NULL,NULL,NULL,NULL,0,NULL,NULL,"BR","2022-12-20 07:39:53","2022-12-20 12:32:28"
290,"Gorakghata Branch,Cox's Bazar","গোরকঘাটা শাখা, কক্সবাজার","3107","BR180",NULL,NULL,NULL,NULL,NULL,0,NULL,NULL,"BR","2022-12-20 07:39:53","2022-12-20 12:32:38"
291,"Harbung Branch,Cox's Bazar","হারবাং শাখা, কক্সবাজার","3105","BR181",NULL,NULL,NULL,NULL,NULL,0,NULL,NULL,"BR","2022-12-20 07:39:53","2022-12-20 12:32:46"
292,"Hnila Branch,Cox's Bazar","হ্নীলা শাখা, কক্সবাজার","3113","BR182",NULL,NULL,NULL,NULL,NULL,0,NULL,NULL,"BR","2022-12-20 07:39:53","2022-12-20 12:32:59"
293,"Hoanak Branch,Cox's Bazar","হোয়ানক শাখা, কক্সবাজার","3123","BR183",NULL,NULL,NULL,NULL,NULL,0,NULL,NULL,"BR","2022-12-20 07:39:53","2022-12-20 12:33:10"
294,"Eidgaon Branch,Cox's Bazar","ঈদগাঁও শাখা, কক্সবাজার","3102","BR184",NULL,NULL,NULL,NULL,NULL,0,NULL,NULL,"BR","2022-12-20 07:39:53","2022-12-20 12:33:43"
296,"Kutubdia Branch,Cox's Bazar","কুতুবদিয়া শাখা, কক্সবাজার","3106","BR186",NULL,NULL,NULL,NULL,NULL,0,NULL,NULL,"BR","2022-12-20 07:39:53","2022-12-20 12:34:13"
297,"Matarbari Branch,Cox's Bazar","মাতারবাড়ী শাখা, কক্সবাজার","3108","BR187",NULL,NULL,NULL,NULL,NULL,0,NULL,NULL,"BR","2022-12-20 07:39:53","2022-12-20 12:34:21"
298,"Pekua Branch,Cox's Bazar","পেকুয়া শাখা, কক্সবাজার","3125","BR188",NULL,NULL,NULL,NULL,NULL,0,NULL,NULL,"BR","2022-12-20 07:39:53","2022-12-20 12:34:31"
299,"Ramu Branch,Cox's Bazar","রামু শাখা, কক্সবাজার","3115","BR189",NULL,NULL,NULL,NULL,NULL,0,NULL,NULL,"BR","2022-12-20 07:39:53","2022-12-20 12:34:43"
300,"Teknaf Branch,Cox's Bazar","টেকনাফ শাখা, কক্সবাজার","3112","BR190",NULL,NULL,NULL,NULL,NULL,0,NULL,NULL,"BR","2022-12-20 07:39:53","2022-12-20 12:34:54"
301,"Ukhiya Branch,Cox's Bazar","উখিয়া শাখা, কক্সবাজার","3114","BR191",NULL,NULL,NULL,NULL,NULL,0,NULL,NULL,"BR","2022-12-20 07:39:53","2022-12-20 12:35:05"
302,"Dighinala Branch,Khagrachari","দিঘীনালা শাখা, খাগড়াছড়ি","3404","BR192",NULL,NULL,NULL,NULL,NULL,0,NULL,NULL,"BR","2022-12-20 07:39:53","2022-12-20 12:36:08"
303,"Khagrachari Branch,Khagrachari","খাগড়াছড়ি  শাখা, খাগড়াছড়ি","3401","BR193",NULL,NULL,NULL,NULL,NULL,0,NULL,NULL,"BR","2022-12-20 07:39:53","2022-12-20 12:36:22"
304,"Lakshmichari Branch,Khagrachari","লক্ষ্মীছড়ি শাখা, খাগড়াছড়ি","3409","BR194",NULL,NULL,NULL,NULL,NULL,0,NULL,NULL,"BR","2022-12-20 07:39:53","2022-12-20 12:36:29"
305,"Manikchari Branch,Khagrachari","মানিকছড়ি  শাখা, খাগড়াছড়ি","3408","BR195",NULL,NULL,NULL,NULL,NULL,0,NULL,NULL,"BR","2022-12-20 07:39:53","2022-12-20 12:36:39"
306,"Matiranga Branch,Khagrachari","মাটিরাঙ্গা  শাখা, খাগড়াছড়ি","3406","BR196",NULL,NULL,NULL,NULL,NULL,0,NULL,NULL,"BR","2022-12-20 07:39:53","2022-12-20 12:36:52"
307,"Mohalchari Branch,Khagrachari","মহালছড়ি  শাখা, খাগড়াছড়ি","3402","BR197",NULL,NULL,NULL,NULL,NULL,0,NULL,NULL,"BR","2022-12-20 07:39:53","2022-12-20 12:37:09"
308,"Panchari Branch,Khagrachari","পানছড়ি  শাখা, খাগড়াছড়ি","3403","BR198",NULL,NULL,NULL,NULL,NULL,0,NULL,NULL,"BR","2022-12-20 07:39:53","2022-12-20 12:37:17"
309,"Ramgorh Branch,Khagrachari","রামগড়  শাখা, খাগড়াছড়ি","3405","BR199",NULL,NULL,NULL,NULL,NULL,0,NULL,NULL,"BR","2022-12-20 07:39:53","2022-12-20 12:37:28"
310,"Anowara Branch,Patia","আনোয়ারা শাখা, পটিয়া","3008","BR200",NULL,NULL,NULL,NULL,NULL,0,NULL,NULL,"BR","2022-12-20 07:39:53","2022-12-20 12:38:03"
311,"Badamtali Branch,Patia","বাদামতলী শাখা, পটিয়া","2928","BR201",NULL,NULL,NULL,NULL,NULL,0,NULL,NULL,"BR","2022-12-20 07:39:53","2022-12-20 12:38:11"
312,"Banshkhali Branch,Patia","বাঁশখালী শাখা, পটিয়া","3208","BR202",NULL,NULL,NULL,NULL,NULL,0,NULL,NULL,"BR","2022-12-20 07:39:53","2022-12-20 12:38:19"
313,"Boalkhali Branch,Patia","বোয়ালখালী শাখা, পটিয়া","3007","BR203",NULL,NULL,NULL,NULL,NULL,0,NULL,NULL,"BR","2022-12-20 07:39:53","2022-12-20 12:38:28"
314,"Bomanghat Branch,Patia","বোমাংহাট শাখা, পটিয়া","3206","BR204",NULL,NULL,NULL,NULL,NULL,0,NULL,NULL,"BR","2022-12-20 07:39:53","2022-12-20 12:38:40"
315,"Budhpura Hat Branch,Patia","বুধপুরাহাট শাখা, পটিয়া","3009","BR205",NULL,NULL,NULL,NULL,NULL,0,NULL,NULL,"BR","2022-12-20 07:39:53","2022-12-20 12:39:57"
316,"Chandanaish Branch,Patia","চন্দনাইশ শাখা, পটিয়া","3005","BR206",NULL,NULL,NULL,NULL,NULL,0,NULL,NULL,"BR","2022-12-20 07:39:53","2022-12-20 12:40:09"
317,"Chatari Branch,Patia","চাতরী শাখা, পটিয়া","3010","BR207",NULL,NULL,NULL,NULL,NULL,0,NULL,NULL,"BR","2022-12-20 07:39:53","2022-12-20 12:40:16"
318,"College Bazar Branch,Patia","কলেজ বাজার শাখা, পটিয়া","3003","BR208",NULL,NULL,NULL,NULL,NULL,0,NULL,NULL,"BR","2022-12-20 07:39:53","2022-12-20 12:40:29"
319,"Dohazari Branch,Patia","দোহাজারী শাখা, পটিয়া","3002","BR209",NULL,NULL,NULL,NULL,NULL,0,NULL,NULL,"BR","2022-12-20 07:39:53","2022-12-20 12:40:36"
320,"Fazilkharhat Branch,Patia","ফাজিলখারহাট শাখা, পটিয়া","3011","BR210",NULL,NULL,NULL,NULL,NULL,0,NULL,NULL,"BR","2022-12-20 07:39:53","2022-12-20 12:40:48"
321,"Kalipur Branch,Patia","কালীপুর শাখা, পটিয়া","3210","BR211",NULL,NULL,NULL,NULL,NULL,0,NULL,NULL,"BR","2022-12-20 07:39:53","2022-12-20 12:40:55"
322,"Keranihat Branch,Patia","কেরানীহাট শাখা, পটিয়া","3207","BR212",NULL,NULL,NULL,NULL,NULL,0,NULL,NULL,"BR","2022-12-20 07:39:53","2022-12-20 12:41:04"
323,"Khodarhat Branch,Patia","খোদারহাট শাখা, পটিয়া","3006","BR213",NULL,NULL,NULL,NULL,NULL,0,NULL,NULL,"BR","2022-12-20 07:39:53","2022-12-20 12:41:13"
324,"Lohagara Branch,Patia","লোহাগাড়া শাখা, পটিয়া","3211","BR214",NULL,NULL,NULL,NULL,NULL,0,NULL,NULL,"BR","2022-12-20 07:39:53","2022-12-20 12:41:22"
325,"Naporabazar Branch,Patia","নাপোড়াবাজার শাখা, পটিয়া","3209","BR215",NULL,NULL,NULL,NULL,NULL,0,NULL,NULL,"BR","2022-12-20 07:39:53","2022-12-20 12:41:32"
326,"Pachuria Digirpar Branch,Patia","পাঁচুরিয়া দিঘীরপাড়  শাখা, পটিয়া","3004","BR216",NULL,NULL,NULL,NULL,NULL,0,NULL,NULL,"BR","2022-12-20 07:39:53","2022-12-20 12:41:41"
327,"Patia Branch,Patia","পটিয়া  শাখা, পটিয়া","3001","BR217",NULL,NULL,NULL,NULL,NULL,0,NULL,NULL,"BR","2022-12-20 07:39:53","2022-12-20 12:41:49"
328,"Satkania Branch, Patia","সাতকানিয়া শাখা, পটিয়া","3205","BR218",NULL,NULL,NULL,NULL,NULL,0,NULL,NULL,"BR","2022-12-20 07:39:53","2022-12-20 12:41:57"
330,"Borkol Branch, Rangamati","বরকল শাখা, রাঙ্গামাটি","3503","BR220",NULL,NULL,NULL,NULL,NULL,0,NULL,NULL,"BR","2022-12-20 07:39:53","2022-12-20 12:42:43"
331,"Bilaichari Branch, Rangamati","বিলাইছড়ি শাখা, রাঙ্গামাটি","3303","BR221",NULL,NULL,NULL,NULL,NULL,0,NULL,NULL,"BR","2022-12-20 07:39:53","2022-12-20 12:42:53"
329,"Baghaichari Branch, Rangamati","বাঘাইছড়ি শাখা, রাঙ্গামাটি","3507","BR219",NULL,NULL,NULL,NULL,NULL,0,NULL,NULL,"BR","2022-12-20 07:39:53","2022-12-20 12:43:02"
333,"Kaptai Branch, Rangamati","কাপ্তাই শাখা, রাঙ্গামাটি","3301","BR223",NULL,NULL,NULL,NULL,NULL,0,NULL,NULL,"BR","2022-12-20 07:39:53","2022-12-20 12:43:34"
334,"Longodu Branch, Rangamati","লংগদু শাখা, রাঙ্গামাটি","3504","BR225",NULL,NULL,NULL,NULL,NULL,0,NULL,NULL,"BR","2022-12-20 07:39:53","2022-12-20 12:43:45"
335,"Naniarchor Branch, Rangamati","নানিয়ারচর শাখা, রাঙ্গামাটি","3502","BR226",NULL,NULL,NULL,NULL,NULL,0,NULL,NULL,"BR","2022-12-20 07:39:53","2022-12-20 12:43:57"
337,"Rajstholi Branch, Rangamati","রাজস্থলী শাখা, রাঙ্গামাটি","3304","BR228",NULL,NULL,NULL,NULL,NULL,0,NULL,NULL,"BR","2022-12-20 07:39:53","2022-12-20 12:44:16"
338,"Rangamati Branch, Rangamati","রাঙ্গামাটি শাখা, রাঙ্গামাটি","3501","BR229",NULL,NULL,NULL,NULL,NULL,0,NULL,NULL,"BR","2022-12-20 07:39:53","2022-12-20 12:44:28"
339,"Amratali Branch, Cumilla","আমড়াতলী শাখা, কুমিল্লা","2304","BR230",NULL,NULL,NULL,NULL,NULL,0,NULL,NULL,"BR","2022-12-20 07:39:53","2022-12-20 12:45:37"
340,"Asmania Bazar Branch, Cumilla","আসমানিয়া বাজার শাখা, কুমিল্লা","2342","BR231",NULL,NULL,NULL,NULL,NULL,0,NULL,NULL,"BR","2022-12-20 07:39:53","2022-12-20 12:45:46"
341,"Badarpur Bazar Branch, Cumilla","বদরপুর বাজার শাখা, কুমিল্লা","2330","BR232",NULL,NULL,NULL,NULL,NULL,0,NULL,NULL,"BR","2022-12-20 07:39:53","2022-12-20 12:45:57"
342,"Barashalghar Branch, Cumilla","বড়শালঘর শাখা, কুমিল্লা","2325","BR233",NULL,NULL,NULL,NULL,NULL,0,NULL,NULL,"BR","2022-12-20 07:39:53","2022-12-20 12:46:06"
343,"Brahmanpara Branch, Cumilla","ব্রাক্ষণপাড়া শাখা, কুমিল্লা","2328","BR234",NULL,NULL,NULL,NULL,NULL,0,NULL,NULL,"BR","2022-12-20 07:39:53","2022-12-20 12:46:19"
344,"Burichang Branch, Cumilla","বুড়িচং শাখা, কুমিল্লা","2306","BR235",NULL,NULL,NULL,NULL,NULL,0,NULL,NULL,"BR","2022-12-20 07:39:53","2022-12-20 12:46:27"
346,"Chandina Branch, Cumilla","চান্দিনা শাখা, কুমিল্লা","2320","BR237",NULL,NULL,NULL,NULL,NULL,0,NULL,NULL,"BR","2022-12-20 07:39:53","2022-12-20 12:46:44"
345,"Chalia Kandi Branch, Cumilla","ছালিয়া কান্দি শাখা, কুমিল্লা","2338","BR236",NULL,NULL,NULL,NULL,NULL,0,NULL,NULL,"BR","2022-12-20 07:39:53","2022-12-20 12:46:56"
347,"Chandla Branch, Cumilla","চান্দলা শাখা, কুমিল্লা","2335","BR238",NULL,NULL,NULL,NULL,NULL,0,NULL,NULL,"BR","2022-12-20 07:39:53","2022-12-20 12:47:05"
348,"Cumilla Branch, Cumilla","কুমিল্লা শাখা, কুমিল্লা","2301","BR239",NULL,NULL,NULL,NULL,NULL,0,NULL,NULL,"BR","2022-12-20 07:39:53","2022-12-20 12:47:17"
349,"Darora Bazar Branch, Cumilla","দারোরা বাজার শাখা, কুমিল্লা","2327","BR240",NULL,NULL,NULL,NULL,NULL,0,NULL,NULL,"BR","2022-12-20 07:39:53","2022-12-20 12:47:26"
350,"Daudkandi Branch, Cumilla","দাউদকান্দি শাখা, কুমিল্লা","2322","BR241",NULL,NULL,NULL,NULL,NULL,0,NULL,NULL,"BR","2022-12-20 07:39:53","2022-12-20 12:47:34"
351,"Debidwar Branch, Cumilla","দেবিদ্বার শাখা, কুমিল্লা","2324","BR242",NULL,NULL,NULL,NULL,NULL,0,NULL,NULL,"BR","2022-12-20 07:39:53","2022-12-20 12:47:44"
352,"Dhamti Madrasa Branch, Cumilla","ধামতী মাদ্রাসা শাখা, কুমিল্লা","2340","BR243",NULL,NULL,NULL,NULL,NULL,0,NULL,NULL,"BR","2022-12-20 07:39:53","2022-12-20 12:47:55"
353,"Dollai Nababpur Dhaksin Bazar Branch, Cumilla","দোল্লাই নবাবপুর (দঃ) বাজার শাখা, কুমিল্লা","2339","BR244",NULL,NULL,NULL,NULL,NULL,0,NULL,NULL,"BR","2022-12-20 07:39:53","2022-12-20 12:48:07"
354,"Gaiyarbhanga Bazar Branch, Cumilla","গৈয়ারভাঙ্গা বাজার শাখা, কুমিল্লা","2313","BR245",NULL,NULL,NULL,NULL,NULL,0,NULL,NULL,"BR","2022-12-20 07:39:53","2022-12-20 12:48:20"
355,"Galiara Branch, Cumilla","গলিয়ারা শাখা, কুমিল্লা","2347","BR246",NULL,NULL,NULL,NULL,NULL,0,NULL,NULL,"BR","2022-12-20 07:39:53","2022-12-20 12:48:29"
356,"Homna Branch, Cumilla","হোমনা শাখা, কুমিল্লা","2321","BR247",NULL,NULL,NULL,NULL,NULL,0,NULL,NULL,"BR","2022-12-20 07:39:53","2022-12-20 12:48:38"
357,"Hydrabad Branch, Cumilla","হায়দ্রাবাদ শাখা, কুমিল্লা","2336","BR248",NULL,NULL,NULL,NULL,NULL,0,NULL,NULL,"BR","2022-12-20 07:39:53","2022-12-20 12:48:46"
358,"Joyag Bazar Branch, Cumilla","জোয়াগবাজার শাখা, কুমিল্লা","2350","BR249",NULL,NULL,NULL,NULL,NULL,0,NULL,NULL,"BR","2022-12-20 07:39:53","2022-12-20 12:48:57"
359,"Juranpur Branch, Cumilla","জুরানপুর শাখা, কুমিল্লা","2333","BR250",NULL,NULL,NULL,NULL,NULL,0,NULL,NULL,"BR","2022-12-20 07:39:53","2022-12-20 12:49:06"
360,"Machimpur Branch, Cumilla","মাছিমপুর শাখা, কুমিল্লা","2331","BR251",NULL,NULL,NULL,NULL,NULL,0,NULL,NULL,"BR","2022-12-20 07:39:53","2022-12-20 12:49:16"
361,"Meghna Branch, Cumilla","মেঘনা শাখা, কুমিল্লা","2349","BR252",NULL,NULL,NULL,NULL,NULL,0,NULL,NULL,"BR","2022-12-20 07:39:53","2022-12-20 12:49:24"
362,"Mohichail Branch, Cumilla","মহিচাইল শাখা, কুমিল্লা","2346","BR253",NULL,NULL,NULL,NULL,NULL,0,NULL,NULL,"BR","2022-12-20 07:39:53","2022-12-20 12:49:35"
363,"Murad Nagar Branch, Cumilla","মুরাদ নগর শাখা, কুমিল্লা","2326","BR254",NULL,NULL,NULL,NULL,NULL,0,NULL,NULL,"BR","2022-12-20 07:39:53","2022-12-20 12:49:52"
364,"Naiyer Bazar Branch, Cumilla","নৈয়ার বাজার শাখা, কুমিল্লা","2323","BR255",NULL,NULL,NULL,NULL,NULL,0,NULL,NULL,"BR","2022-12-20 07:39:53","2022-12-20 12:50:03"
365,"Nimsar Bazar Branch, Cumilla","নিমসার বাজার শাখা, কুমিল্লা","2348","BR256",NULL,NULL,NULL,NULL,NULL,0,NULL,NULL,"BR","2022-12-20 07:39:53","2022-12-20 12:50:23"
366,"Police Line Branch, Cumilla","পুলিশ লাইন শাখা, কুমিল্লা","2302","BR257",NULL,NULL,NULL,NULL,NULL,0,NULL,NULL,"BR","2022-12-20 07:39:53","2022-12-20 12:53:09"
367,"Shidlai Branch, Cumilla","শিদলাই শাখা, কুমিল্লা","2343","BR258",NULL,NULL,NULL,NULL,NULL,0,NULL,NULL,"BR","2022-12-20 07:39:53","2022-12-20 12:53:20"
368,"Akhaura Branch, Brahmanbaria","আখাউড়া শাখা, ব্রাহ্মণবাড়িয়া","2421","BR259",NULL,NULL,NULL,NULL,NULL,0,NULL,NULL,"BR","2022-12-20 07:39:53","2022-12-20 12:56:10"
369,"Ashuganj Branch, Brahmanbaria","আশুগঞ্জ শাখা, ব্রাহ্মণবাড়িয়া","2423","BR260",NULL,NULL,NULL,NULL,NULL,0,NULL,NULL,"BR","2022-12-20 07:39:53","2022-12-20 12:56:20"
370,"Astagram Branch, Brahmanbaria","অষ্টগ্রাম  শাখা, ব্রাহ্মণবাড়িয়া","2407","BR261",NULL,NULL,NULL,NULL,NULL,0,NULL,NULL,"BR","2022-12-20 07:39:53","2022-12-20 12:56:30"
371,"Awlia Bazar Branch, Brahmanbaria","আউলিয়া বাজার শাখা, ব্রাহ্মণবাড়িয়া","2409","BR262",NULL,NULL,NULL,NULL,NULL,0,NULL,NULL,"BR","2022-12-20 07:39:53","2022-12-20 12:56:47"
372,"Baishmouza Bazar Branch, Brahmanbaria","বাইশমৌজা বাজার শাখা, ব্রাহ্মণবাড়িয়া","2418","BR263",NULL,NULL,NULL,NULL,NULL,0,NULL,NULL,"BR","2022-12-20 07:39:53","2022-12-20 12:56:59"
373,"Bancharampur Branch, Brahmanbaria","বাঞ্ছারামপুর শাখা, ব্রাহ্মণবাড়িয়া","2428","BR264",NULL,NULL,NULL,NULL,NULL,0,NULL,NULL,"BR","2022-12-20 07:39:53","2022-12-20 12:57:08"
374,"Bishwaroad Branch, Brahmanbaria","বিশ্বরোড শাখা, ব্রাহ্মণবাড়িয়া","2424","BR265",NULL,NULL,NULL,NULL,NULL,0,NULL,NULL,"BR","2022-12-20 07:39:53","2022-12-20 12:57:16"
375,"Brahmanbaria Branch, Brahmanbaria","ব্রাহ্মণবাড়িয়া শাখা, ব্রাহ্মণবাড়িয়া","2401","BR266",NULL,NULL,NULL,NULL,NULL,0,NULL,NULL,"BR","2022-12-20 07:39:53","2022-12-20 12:57:30"
377,"Chargach Bazar Branch, Brahmanbaria","চারগাছ বাজার শাখা, ব্রাহ্মণবাড়িয়া","2433","BR268",NULL,NULL,NULL,NULL,NULL,0,NULL,NULL,"BR","2022-12-20 07:39:53","2022-12-20 12:57:52"
378,"Chatalpar Branch, Brahmanbaria","চাতলপাড় শাখা, ব্রাহ্মণবাড়িয়া","2420","BR269",NULL,NULL,NULL,NULL,NULL,0,NULL,NULL,"BR","2022-12-20 07:39:53","2022-12-20 12:58:04"
379,"Chaiarkuri Bazar Branch, Brahmanbaria","চৈয়ারকুড়ি বাজার শাখা, ব্রাহ্মণবাড়িয়া","2425","BR270",NULL,NULL,NULL,NULL,NULL,0,NULL,NULL,"BR","2022-12-20 07:39:53","2022-12-20 12:58:32"
380,"Gopinathpur Bazar Branch, Brahmanbaria","গোপীনাথপুর বাজার শাখা, ব্রাহ্মণবাড়িয়া","2435","BR271",NULL,NULL,NULL,NULL,NULL,0,NULL,NULL,"BR","2022-12-20 07:39:53","2022-12-20 12:58:55"
381,"Goshaipur Branch, Brahmanbaria","গোসাইপুর শাখা, ব্রাহ্মণবাড়িয়া","2416","BR272",NULL,NULL,NULL,NULL,NULL,0,NULL,NULL,"BR","2022-12-20 07:39:53","2022-12-20 13:02:16"
382,"Jibanganj Bazar Branch, Brahmanbaria","জীবনগঞ্জ বাজার শাখা, ব্রাহ্মণবাড়িয়া","2430","BR273",NULL,NULL,NULL,NULL,NULL,0,NULL,NULL,"BR","2022-12-20 07:39:53","2022-12-20 13:02:30"
383,"Kaitala Branch, Brahmanbaria","কাইতলা শাখা, ব্রাহ্মণবাড়িয়া","2432","BR274",NULL,NULL,NULL,NULL,NULL,0,NULL,NULL,"BR","2022-12-20 07:39:53","2022-12-20 13:02:43"
384,"Kalikatcha Branch, Brahmanbaria","কালিকচ্ছ শাখা, ব্রাহ্মণবাড়িয়া","2412","BR275",NULL,NULL,NULL,NULL,NULL,0,NULL,NULL,"BR","2022-12-20 07:39:53","2022-12-20 13:02:53"
385,"Kasba Branch, Brahmanbaria","কসবা শাখা, ব্রাহ্মণবাড়িয়া","2422","BR276",NULL,NULL,NULL,NULL,NULL,0,NULL,NULL,"BR","2022-12-20 07:39:53","2022-12-20 13:03:03"
386,"Kuti Bazar Branch, Brahmanbaria","কুটি বাজার শাখা, ব্রাহ্মণবাড়িয়া","2434","BR277",NULL,NULL,NULL,NULL,NULL,0,NULL,NULL,"BR","2022-12-20 07:39:53","2022-12-20 13:03:13"
387,"Lalpur Bazar Branch, Brahmanbaria","লালপুর বাজার শাখা, ব্রাহ্মণবাড়িয়া","2404","BR278",NULL,NULL,NULL,NULL,NULL,0,NULL,NULL,"BR","2022-12-20 07:39:53","2022-12-20 13:03:26"
388,"Laurfatepur Branch, Brahmanbaria","লাউরফতেপুর শাখা, ব্রাহ্মণবাড়িয়া","2426","BR279",NULL,NULL,NULL,NULL,NULL,0,NULL,NULL,"BR","2022-12-20 07:39:53","2022-12-20 13:03:35"
389,"Nabinagar Branch, Brahmanbaria","নবীনগর শাখা, ব্রাহ্মণবাড়িয়া","2415","BR280",NULL,NULL,NULL,NULL,NULL,0,NULL,NULL,"BR","2022-12-20 07:39:53","2022-12-20 13:03:46"
390,"Nasir Nagar Branch, Brahmanbaria","নাসির নগর শাখা, ব্রাহ্মণবাড়িয়া","2419","BR281",NULL,NULL,NULL,NULL,NULL,0,NULL,NULL,"BR","2022-12-20 07:39:53","2022-12-20 13:03:57"
391,"Nurpur Bazar Branch, Brahmanbaria","নুরপুর বাজার শাখা, ব্রাহ্মণবাড়িয়া","2405","BR282",NULL,NULL,NULL,NULL,NULL,0,NULL,NULL,"BR","2022-12-20 07:39:53","2022-12-20 13:04:13"
392,"Sarail Branch, Brahmanbaria","সরাইল শাখা, ব্রাহ্মণবাড়িয়া","2410","BR283",NULL,NULL,NULL,NULL,NULL,0,NULL,NULL,"BR","2022-12-20 07:39:53","2022-12-20 13:04:23"
393,"Satborga Bazar Branch, Brahmanbaria","সাতবর্গ বাজার শাখা, ব্রাহ্মণবাড়িয়া","2403","BR284",NULL,NULL,NULL,NULL,NULL,0,NULL,NULL,"BR","2022-12-20 07:39:53","2022-12-20 13:04:37"
394,"Satmora Bazar Branch, Brahmanbaria","সাতমোড়া বাজার শাখা, ব্রাহ্মণবাড়িয়া","2436","BR285",NULL,NULL,NULL,NULL,NULL,0,NULL,NULL,"BR","2022-12-20 07:39:53","2022-12-20 13:04:47"
397,"Ashikati Branch, Chandpur","আশিকাটি শাখা, চাঁদপুর","2526","BR288",NULL,NULL,NULL,NULL,NULL,0,NULL,NULL,"BR","2022-12-20 07:39:53","2022-12-20 13:06:56"
396,"Aynatali Bazar Branch, Chandpur","আয়নাতলী বাজার শাখা, চাঁদপুর","2521","BR287",NULL,NULL,NULL,NULL,NULL,0,NULL,NULL,"BR","2022-12-20 07:39:53","2022-12-20 13:06:37"
398,"Bagra Bazar Branch, Chandpur","বাগড়া বাজার শাখা, চাঁদপুর","2515","BR289",NULL,NULL,NULL,NULL,NULL,0,NULL,NULL,"BR","2022-12-20 07:39:53","2022-12-20 13:07:05"
399,"Bakila Bazar Branch, Chandpur","বাকিলা বাজার শাখা, চাঁদপুর","2518","BR290",NULL,NULL,NULL,NULL,NULL,0,NULL,NULL,"BR","2022-12-20 07:39:53","2022-12-20 13:07:15"
401,"Chandpur Branch, Chandpur","চাঁদপুর শাখা, চাঁদপুর","2501","BR292",NULL,NULL,NULL,NULL,NULL,0,NULL,NULL,"BR","2022-12-20 07:39:53","2022-12-20 13:07:30"
402,"Chandra Bazar Branch, Chandpur","চান্দ্রা বাজার শাখা, চাঁদপুর","2508","BR293",NULL,NULL,NULL,NULL,NULL,0,NULL,NULL,"BR","2022-12-20 07:39:53","2022-12-20 13:07:50"
404,"Charbhairabi Bazar Branch, Chandpur","চরভৈরবী বাজার শাখা, চাঁদপুর","2517","BR295",NULL,NULL,NULL,NULL,NULL,0,NULL,NULL,"BR","2022-12-20 07:39:53","2022-12-20 13:08:25"
400,"Puran Bazar Branch, Chandpur","পুরান বাজার শাখা, চাঁদপুর","2502","BR291",NULL,NULL,NULL,NULL,NULL,0,NULL,NULL,"BR","2022-12-20 07:39:53","2022-12-20 13:08:39"
403,"Changarchar Branch, Chandpur","ছেঙ্গারচর শাখা, চাঁদপুর","2510","BR294",NULL,NULL,NULL,NULL,NULL,0,NULL,NULL,"BR","2022-12-20 07:39:53","2022-12-20 13:08:50"
405,"Chotosundar Bazar Branch, Chandpur","ছোটসুন্দর বাজার শাখা, চাঁদপুর","2503","BR296",NULL,NULL,NULL,NULL,NULL,0,NULL,NULL,"BR","2022-12-20 07:39:53","2022-12-20 13:09:14"
406,"Faridganj Branch, Chandpur","ফরিদগঞ্জ শাখা, চাঁদপুর","2507","BR297",NULL,NULL,NULL,NULL,NULL,0,NULL,NULL,"BR","2022-12-20 07:39:53","2022-12-20 13:10:46"
407,"Gajra Bazar Branch, Chandpur","গজরা বাজার শাখা, চাঁদপুর","2525","BR298",NULL,NULL,NULL,NULL,NULL,0,NULL,NULL,"BR","2022-12-20 07:39:53","2022-12-20 13:11:01"
408,"Gulbahar Branch, Chandpur","গুলবাহার শাখা, চাঁদপুর","2524","BR299",NULL,NULL,NULL,NULL,NULL,0,NULL,NULL,"BR","2022-12-20 07:39:53","2022-12-20 13:11:14"
409,"Haimchar Branch, Chandpur","হাইমচর শাখা, চাঁদপুর","2504","BR300",NULL,NULL,NULL,NULL,NULL,0,NULL,NULL,"BR","2022-12-20 07:39:53","2022-12-20 13:11:25"
410,"Hajiganj Branch, Chandpur","হাজীগঞ্জ শাখা, চাঁদপুর","2511","BR301",NULL,NULL,NULL,NULL,NULL,0,NULL,NULL,"BR","2022-12-20 07:39:53","2022-12-20 13:11:47"
411,"Kachua Branch, Chandpur","কচুয়া শাখা, চাঁদপুর","2512","BR302",NULL,NULL,NULL,NULL,NULL,0,NULL,NULL,"BR","2022-12-20 07:39:53","2022-12-20 13:12:03"
412,"Kakairtala Bazar Branch, Chandpur","কাকৈরতলা বাজার শাখা, চাঁদপুর","2514","BR303",NULL,NULL,NULL,NULL,NULL,0,NULL,NULL,"BR","2022-12-20 07:39:53","2022-12-20 13:12:14"
413,"Kalir Bazar Branch, Chandpur","কালির বাজার শাখা, চাঁদপুর","2507","BR304",NULL,NULL,NULL,NULL,NULL,0,NULL,NULL,"BR","2022-12-20 07:39:53","2022-12-20 13:12:25"
414,"Majhigacha Bazar Branch, Chandpur","মাঝিগাছা বাজার শাখা, চাঁদপুর","2528","BR305",NULL,NULL,NULL,NULL,NULL,0,NULL,NULL,"BR","2022-12-20 07:39:53","2022-12-20 13:12:38"
415,"Master Bazar Branch, Chandpur","মাষ্টার বাজার শাখা, চাঁদপুর","2523","BR306",NULL,NULL,NULL,NULL,NULL,0,NULL,NULL,"BR","2022-12-20 07:39:53","2022-12-20 13:12:56"
416,"Matlab Branch, Chandpur","মতলব শাখা, চাঁদপুর","2509","BR307",NULL,NULL,NULL,NULL,NULL,0,NULL,NULL,"BR","2022-12-20 07:39:53","2022-12-20 13:13:08"
417,"Munshirhat Branch, Chandpur","মুন্সীরহাট শাখা, চাঁদপুর","2506","BR308",NULL,NULL,NULL,NULL,NULL,0,NULL,NULL,"BR","2022-12-20 07:39:53","2022-12-20 13:13:25"
419,"Pirojpur Bazar Branch, Chandpur","পিরোজপুর বাজার শাখা,চাঁদপুর","2527","BR310",NULL,NULL,NULL,NULL,NULL,0,NULL,NULL,"BR","2022-12-20 07:39:53","2022-12-20 13:14:18"
420,"Sachar Bazar Branch, Chandpur","সাচার বাজার শাখা, চাঁদপুর","2522","BR311",NULL,NULL,NULL,NULL,NULL,0,NULL,NULL,"BR","2022-12-20 07:39:53","2022-12-20 13:14:32"
421,"Saheb Bazar Branch, Chandpur","সাহেব বাজার শাখা, চাঁদপুর","2520","BR312",NULL,NULL,NULL,NULL,NULL,0,NULL,NULL,"BR","2022-12-20 07:39:53","2022-12-20 13:14:47"
422,"Shaharpar Branch, Chandpur","সাহারপাড় শাখা, চাঁদপুর","2529","BR313",NULL,NULL,NULL,NULL,NULL,0,NULL,NULL,"BR","2022-12-20 07:39:53","2022-12-20 13:15:01"
423,"Shahrasti Branch, Chandpur","শাহরাস্তি শাখা, চাঁদপুর","2513","BR314",NULL,NULL,NULL,NULL,NULL,0,NULL,NULL,"BR","2022-12-20 07:39:53","2022-12-20 13:15:23"
425,"Amzadhat Branch, Feni","আমজাদহাট শাখা, ফেনী","2706","BR316",NULL,NULL,NULL,NULL,NULL,0,NULL,NULL,"BR","2022-12-20 07:39:53","2022-12-21 04:31:12"
442,"Adda Bazar Branch, Laksam","আড্ডা বাজার শাখা, লাকসাম","5305","BR333",NULL,NULL,NULL,NULL,NULL,0,NULL,NULL,"BR","2022-12-20 07:39:53","2022-12-21 04:33:17"
426,"Box Mahmud Bazar Branch, Feni","বক্সমাহমুদ বাজার শাখা, ফেনী","2710","BR317",NULL,NULL,NULL,NULL,NULL,0,NULL,NULL,"BR","2022-12-20 07:39:53","2022-12-21 04:27:19"
427,"Chagalnaiya Branch, Feni","ছাগলনাইয়া শাখা, ফেনী","2705","BR318",NULL,NULL,NULL,NULL,NULL,0,NULL,NULL,"BR","2022-12-20 07:39:53","2022-12-21 04:27:32"
428,"Daganbhuiyan Branch, Feni","দাগনভূঁইয়া শাখা, ফেনী","2704","BR319",NULL,NULL,NULL,NULL,NULL,0,NULL,NULL,"BR","2022-12-20 07:39:53","2022-12-21 04:27:44"
429,"Dudmukha Bazar Branch, Feni","দুধমুখা বাজার শাখা, ফেনী","2703","BR320",NULL,NULL,NULL,NULL,NULL,0,NULL,NULL,"BR","2022-12-20 07:39:53","2022-12-21 04:27:55"
430,"Fazilpur Bazar Branch, Feni","ফাজিলপুর বাজার শাখা, ফেনী","2717","BR321",NULL,NULL,NULL,NULL,NULL,0,NULL,NULL,"BR","2022-12-20 07:39:53","2022-12-21 04:28:03"
431,"Feni Branch, Feni","ফেনী শাখা, ফেনী","2701","BR322",NULL,NULL,NULL,NULL,NULL,0,NULL,NULL,"BR","2022-12-20 07:39:53","2022-12-21 04:28:12"
432,"Fulgazi Branch, Feni","ফুলগাজী শাখা, ফেনী","2711","BR323",NULL,NULL,NULL,NULL,NULL,0,NULL,NULL,"BR","2022-12-20 07:39:53","2022-12-21 04:28:22"
433,"GM Hat Branch, Feni","জিএম হাট শাখা, ফেনী","2708","BR324",NULL,NULL,NULL,NULL,NULL,0,NULL,NULL,"BR","2022-12-20 07:39:53","2022-12-21 04:28:35"
434,"Jaylasker Branch, Feni","জায়লস্কর শাখা, ফেনী","2702","BR325",NULL,NULL,NULL,NULL,NULL,0,NULL,NULL,"BR","2022-12-20 07:39:53","2022-12-21 04:28:46"
435,"Kuhuma Shantir Bazar Branch, Feni","কুহুমা শান্তির বাজার শাখা, ফেনী","2715","BR326",NULL,NULL,NULL,NULL,NULL,0,NULL,NULL,"BR","2022-12-20 07:39:53","2022-12-21 04:28:57"
436,"Kuraish Munshi Bazar Branch, Feni","কুরাইশ মুন্সী বাজার শাখা, ফেনী","2716","BR327",NULL,NULL,NULL,NULL,NULL,0,NULL,NULL,"BR","2022-12-20 07:39:53","2022-12-21 04:29:22"
437,"Kutirhat Branch, Feni","কুটিরহাট শাখা, ফেনী","2713","BR328",NULL,NULL,NULL,NULL,NULL,0,NULL,NULL,"BR","2022-12-20 07:39:53","2022-12-21 04:29:30"
438,"Mukto Bazar Branch, Feni","মুক্ত বাজার শাখা, ফেনী","2718","BR329",NULL,NULL,NULL,NULL,NULL,0,NULL,NULL,"BR","2022-12-20 07:39:53","2022-12-21 04:29:40"
439,"Parshuram Branch, Feni","পরশুরাম শাখা, ফেনী","2709","BR330",NULL,NULL,NULL,NULL,NULL,0,NULL,NULL,"BR","2022-12-20 07:39:53","2022-12-21 04:29:48"
440,"Shuvapur Branch, Feni","শুভপুর শাখা, ফেনী","2707","BR331",NULL,NULL,NULL,NULL,NULL,0,NULL,NULL,"BR","2022-12-20 07:39:53","2022-12-21 04:29:58"
441,"Sonagazi Branch, Feni","সোনাগাজী শাখা, ফেনী","2712","BR332",NULL,NULL,NULL,NULL,NULL,0,NULL,NULL,"BR","2022-12-20 07:39:53","2022-12-21 04:30:13"
424,"Aftab Bibir Hat Branch, Feni","আফতাব বিবির হাট শাখা, ফেনী","2714","BR315",NULL,NULL,NULL,NULL,NULL,0,NULL,NULL,"BR","2022-12-20 07:39:53","2022-12-21 04:30:49"
443,"Alishwar Bazar Branch, Laksam","আলীশ্বর বাজার শাখা, লাকসাম","5304","BR334",NULL,NULL,NULL,NULL,NULL,0,NULL,NULL,"BR","2022-12-20 07:39:53","2022-12-21 04:33:26"
444,"Babuchi Bazar Branch, Laksam","বাবুচি বাজার শাখা, লাকসাম","2332","BR335",NULL,NULL,NULL,NULL,NULL,0,NULL,NULL,"BR","2022-12-20 07:39:53","2022-12-21 04:33:39"
445,"Bagmara Bazar Branch, Laksam","বাগমারা বাজার শাখা, লাকসাম","5303","BR336",NULL,NULL,NULL,NULL,NULL,0,NULL,NULL,"BR","2022-12-20 07:39:53","2022-12-21 04:33:51"
447,"Barura Branch, Laksam","বরুড়া শাখা, লাকসাম","2318","BR338",NULL,NULL,NULL,NULL,NULL,0,NULL,NULL,"BR","2022-12-20 07:39:53","2022-12-21 04:35:35"
448,"Batisha Branch, Laksam","বাতিশা শাখা, লাকসাম","5308","BR339",NULL,NULL,NULL,NULL,NULL,0,NULL,NULL,"BR","2022-12-20 07:39:53","2022-12-21 04:35:43"
449,"Bhaukshar Bazar Branch, Laksam","ভাউকসার বাজার শাখা, লাকসাম","2319","BR340",NULL,NULL,NULL,NULL,NULL,0,NULL,NULL,"BR","2022-12-20 07:39:53","2022-12-21 04:35:53"
450,"Bizra Bazar Branch, Laksam","বিজরা বাজার  শাখা, লাকসাম","2314","BR341",NULL,NULL,NULL,NULL,NULL,0,NULL,NULL,"BR","2022-12-20 07:39:53","2022-12-21 04:35:59"
451,"Chouddagram Branch, Laksam","চৌদ্দগ্রাম শাখা, লাকসাম","2307","BR342",NULL,NULL,NULL,NULL,NULL,0,NULL,NULL,"BR","2022-12-20 07:39:53","2022-12-21 04:36:08"
452,"Chowdhury Bazar Branch, Laksam","চৌধুরী বাজার শাখা, লাকসাম","2311","BR343",NULL,NULL,NULL,NULL,NULL,0,NULL,NULL,"BR","2022-12-20 07:39:53","2022-12-21 04:36:15"
453,"Dhalua Branch, Laksam","ঢালুয়া শাখা, লাকসাম","2309","BR344",NULL,NULL,NULL,NULL,NULL,0,NULL,NULL,"BR","2022-12-20 07:39:53","2022-12-21 04:36:24"
454,"Hasnabad Branch, Laksam","হাসনাবাদ শাখা, লাকসাম","5306","BR345",NULL,NULL,NULL,NULL,NULL,0,NULL,NULL,"BR","2022-12-20 07:39:53","2022-12-21 04:36:32"
455,"Kadair Bazar Branch, Laksam","কাদৈর বাজার শাখা, লাকসাম","5307","BR346",NULL,NULL,NULL,NULL,NULL,0,NULL,NULL,"BR","2022-12-20 07:39:53","2022-12-21 04:36:43"
456,"Kankapaith Branch, Laksam","কনকাপৈত শাখা, লাকসাম","2312","BR347",NULL,NULL,NULL,NULL,NULL,0,NULL,NULL,"BR","2022-12-20 07:39:53","2022-12-21 04:36:52"
457,"Kashinagar Branch, Laksam","কাশিনগর শাখা, লাকসাম","2308","BR348",NULL,NULL,NULL,NULL,NULL,0,NULL,NULL,"BR","2022-12-20 07:39:53","2022-12-21 04:37:04"
458,"Khoshbash Branch, Laksam","খোশবাস শাখা, লাকসাম","5302","BR349",NULL,NULL,NULL,NULL,NULL,0,NULL,NULL,"BR","2022-12-20 07:39:53","2022-12-21 04:37:15"
459,"Lakshanpur Bazar Branch, Laksam","লক্ষণপুর বাজার শাখা, লাকসাম","2341","BR350",NULL,NULL,NULL,NULL,NULL,0,NULL,NULL,"BR","2022-12-20 07:39:53","2022-12-21 04:37:35"
460,"Laksam Branch, Laksam","লাকসাম শাখা, লাকসাম","2315","BR351",NULL,NULL,NULL,NULL,NULL,0,NULL,NULL,"BR","2022-12-20 07:39:54","2022-12-21 04:37:41"
461,"Mawlana Shaheber Bazar Branch, Laksam","মাওলানা সাহেবের বাজার শাখা, লাকসাম","2344","BR352",NULL,NULL,NULL,NULL,NULL,0,NULL,NULL,"BR","2022-12-20 07:39:54","2022-12-21 04:37:50"
462,"Miah Bazar Branch, Laksam","মিয়া বাজার শাখা, লাকসাম","2345","BR353",NULL,NULL,NULL,NULL,NULL,0,NULL,NULL,"BR","2022-12-20 07:39:54","2022-12-21 04:38:01"
463,"Monoharganj Branch, Laksam","মনোহরগঞ্জ শাখা, লাকসাম","2317","BR354",NULL,NULL,NULL,NULL,NULL,0,NULL,NULL,"BR","2022-12-20 07:39:54","2022-12-21 04:38:11"
464,"Nangalkot Branch, Laksam","নাঙ্গলকোট শাখা, লাকসাম","2329","BR355",NULL,NULL,NULL,NULL,NULL,0,NULL,NULL,"BR","2022-12-20 07:39:54","2022-12-21 04:38:22"
466,"Sonaimuri Bazar Branch, Laksam","সোনাইমুড়ী বাজার শাখা, লাকসাম","2337","BR357",NULL,NULL,NULL,NULL,NULL,0,NULL,NULL,"BR","2022-12-20 07:39:54","2022-12-21 04:39:01"
467,"Char Alexandar Branch, Lakshmipur","চর আলেকজান্ডার শাখা, লক্ষ্মীপুর","2807","BR358",NULL,NULL,NULL,NULL,NULL,0,NULL,NULL,"BR","2022-12-20 07:39:54","2022-12-21 04:41:40"
468,"Char Falcon Branch, Lakshmipur","চর ফলকন শাখা, লক্ষ্মীপুর","2809","BR359",NULL,NULL,NULL,NULL,NULL,0,NULL,NULL,"BR","2022-12-20 07:39:54","2022-12-21 04:41:52"
469,"Char Gazi Branch, Lakshmipur","চর গাজী শাখা, লক্ষ্মীপুর","2808","BR360",NULL,NULL,NULL,NULL,NULL,0,NULL,NULL,"BR","2022-12-20 07:39:54","2022-12-21 04:42:06"
470,"Chowdhury Bazar Branch, Lakshmipur","চৌধুরী বাজার শাখা, লক্ষ্মীপুর","2814","BR361",NULL,NULL,NULL,NULL,NULL,0,NULL,NULL,"BR","2022-12-20 07:39:54","2022-12-21 04:42:16"
471,"Dighali Bazar Branch, Lakshmipur","দিঘলী বাজার শাখা, লক্ষ্মীপুর","2818","BR362",NULL,NULL,NULL,NULL,NULL,0,NULL,NULL,"BR","2022-12-20 07:39:54","2022-12-21 04:42:26"
472,"Hajirpara Branch, Lakshmipur","হাজিরপাড়া শাখা, লক্ষ্মীপুর","2802","BR363",NULL,NULL,NULL,NULL,NULL,0,NULL,NULL,"BR","2022-12-20 07:39:54","2022-12-21 04:42:35"
473,"Jaksin Bazar Branch, Lakshmipur","জকসিন বাজার শাখা, লক্ষ্মীপুর","2813","BR364",NULL,NULL,NULL,NULL,NULL,0,NULL,NULL,"BR","2022-12-20 07:39:54","2022-12-21 04:42:49"
474,"Munsirhat Branch, Lakshmipur","মুন্সিরহাট শাখা, লক্ষ্মীপুর","2812","BR365",NULL,NULL,NULL,NULL,NULL,0,NULL,NULL,"BR","2022-12-20 07:39:54","2022-12-21 04:53:39"
476,"Lakshmipur Branch, Lakshmipur","লক্ষ্মীপুর শাখা, লক্ষ্মীপুর","2801","BR367",NULL,NULL,NULL,NULL,NULL,0,NULL,NULL,"BR","2022-12-20 07:39:54","2022-12-21 04:53:55"
477,"Majirgaon Bazar Branch, Lakshmipur","মাঝিরগাঁও বাজার শাখা, লক্ষ্মীপুর","2806","BR368",NULL,NULL,NULL,NULL,NULL,0,NULL,NULL,"BR","2022-12-20 07:39:54","2022-12-21 04:54:05"
478,"Mitali Bazar Branch, Lakshmipur","মিতালী বাজার শাখা, লক্ষ্মীপুর","2816","BR369",NULL,NULL,NULL,NULL,NULL,0,NULL,NULL,"BR","2022-12-20 07:39:54","2022-12-21 04:54:12"
479,"Panpara Bazar Branch, Lakshmipur","পানপাড়া বাজার শাখা, লক্ষ্মীপুর","2811","BR370",NULL,NULL,NULL,NULL,NULL,0,NULL,NULL,"BR","2022-12-20 07:39:54","2022-12-21 05:14:49"
480,"Poddar Bazar Branch, Lakshmipur","পোদ্দার বাজার শাখা, লক্ষ্মীপুর","2817","BR371",NULL,NULL,NULL,NULL,NULL,0,NULL,NULL,"BR","2022-12-20 07:39:54","2022-12-21 05:14:56"
481,"Raipur Branch, Lakshmipur","রায়পুর শাখা, লক্ষ্মীপুর","2803","BR372",NULL,NULL,NULL,NULL,NULL,0,NULL,NULL,"BR","2022-12-20 07:39:54","2022-12-21 05:15:05"
482,"Rakhalia Bazar Branch, Lakshmipur","রাখালিয়া বাজার শাখা, লক্ষ্মীপুর","2804","BR373",NULL,NULL,NULL,NULL,NULL,0,NULL,NULL,"BR","2022-12-20 07:39:54","2022-12-21 05:15:12"
483,"Ramganj Branch, Lakshmipur","রামগঞ্জ শাখা, লক্ষ্মীপুর","2805","BR374",NULL,NULL,NULL,NULL,NULL,0,NULL,NULL,"BR","2022-12-20 07:39:54","2022-12-21 05:15:47"
484,"Torabganj Bazar Branch, Lakshmipur","তোরাবগঞ্জ বাজার শাখা, লক্ষ্মীপুর","2810","BR375",NULL,NULL,NULL,NULL,NULL,0,NULL,NULL,"BR","2022-12-20 07:39:54","2022-12-21 05:15:54"
485,"Abirpara Branch, Noakhali","আবিরপাড়া শাখা, নোয়াখালী","2621","BR376",NULL,NULL,NULL,NULL,NULL,0,NULL,NULL,"BR","2022-12-20 07:39:54","2022-12-21 05:16:47"
486,"Basurhat Branch, Noakhali","বসুরহাট শাখা, নোয়াখালী","2607","BR377",NULL,NULL,NULL,NULL,NULL,0,NULL,NULL,"BR","2022-12-20 07:39:54","2022-12-21 05:16:57"
487,"Battoly Bazar Branch, Noakhali","বটতলী বাজার শাখা, নোয়াখালী","2614","BR378",NULL,NULL,NULL,NULL,NULL,0,NULL,NULL,"BR","2022-12-20 07:39:54","2022-12-21 05:17:05"
488,"Char Fakira Branch, Noakhali","চর ফকিরা শাখা, নোয়াখালী","2620","BR379",NULL,NULL,NULL,NULL,NULL,0,NULL,NULL,"BR","2022-12-20 07:39:54","2022-12-21 05:17:14"
489,"Charishwar Branch, Noakhali","চরঈশ্বর শাখা, নোয়াখালী","2616","BR380",NULL,NULL,NULL,NULL,NULL,0,NULL,NULL,"BR","2022-12-20 07:39:54","2022-12-21 05:17:22"
490,"Chatkhil Branch, Noakhali","চাটখীল শাখা, নোয়াখালী","2609","BR381",NULL,NULL,NULL,NULL,NULL,0,NULL,NULL,"BR","2022-12-20 07:39:54","2022-12-21 05:17:33"
491,"Choumohani Branch, Noakhali","চৌমুহনী শাখা, নোয়াখালী","2604","BR382",NULL,NULL,NULL,NULL,NULL,0,NULL,NULL,"BR","2022-12-20 07:39:54","2022-12-21 05:17:40"
492,"Deoti Bazar Branch, Noakhali","দেউটি বাজার শাখা, নোয়াখালী","2605","BR383",NULL,NULL,NULL,NULL,NULL,0,NULL,NULL,"BR","2022-12-20 07:39:54","2022-12-21 05:17:48"
493,"Hazarihat Branch, Noakhali","হাজারীহাট শাখা, নোয়াখালী","2619","BR384",NULL,NULL,NULL,NULL,NULL,0,NULL,NULL,"BR","2022-12-20 07:39:54","2022-12-21 05:18:01"
494,"Jahajmara Branch, Noakhali","জাহাজমারা  শাখা, নোয়াখালী","2611","BR385",NULL,NULL,NULL,NULL,NULL,0,NULL,NULL,"BR","2022-12-20 07:39:54","2022-12-21 05:18:11"
495,"Kabirhat Branch, Noakhali","কবিরহাট শাখা, নোয়াখালী","2623","BR386",NULL,NULL,NULL,NULL,NULL,0,NULL,NULL,"BR","2022-12-20 07:39:54","2022-12-21 05:18:18"
496,"Kadirpur Branch, Noakhali","কাদিরপুর শাখা, নোয়াখালী","2606","BR387",NULL,NULL,NULL,NULL,NULL,0,NULL,NULL,"BR","2022-12-20 07:39:54","2022-12-21 05:18:27"
497,"Kormullah Bazar Branch, Noakhali","করমুল্যা বাজার শাখা, নোয়াখালী","2622","BR388",NULL,NULL,NULL,NULL,NULL,0,NULL,NULL,"BR","2022-12-20 07:39:54","2022-12-21 05:18:36"
498,"Khasherhat Branch, Noakhali","খাশের হাট শাখা, নোয়াখালী","2602","BR389",NULL,NULL,NULL,NULL,NULL,0,NULL,NULL,"BR","2022-12-20 07:39:54","2022-12-21 05:18:43"
499,"Kotober Hat Branch, Noakhali","কুতুবের হাট শাখা, নোয়াখালী","2613","BR390",NULL,NULL,NULL,NULL,NULL,0,NULL,NULL,"BR","2022-12-20 07:39:54","2022-12-21 05:18:53"
502,"Maijdee Court Branch, Noakhali","মাইজদী কোর্ট শাখা, নোয়াখালী","2601","BR393",NULL,NULL,NULL,NULL,NULL,0,NULL,NULL,"BR","2022-12-20 07:39:54","2022-12-21 05:19:16"
500,"Miarhat Branch, Noakhali","মিয়ারহাট শাখা, নোয়াখালী","2617","BR391",NULL,NULL,NULL,NULL,NULL,0,NULL,NULL,"BR","2022-12-20 07:39:54","2022-12-21 05:19:29"
501,"Neazpur Branch, Noakhali","নেয়াজপুর শাখা, নোয়াখালী","2603","BR392",NULL,NULL,NULL,NULL,NULL,0,NULL,NULL,"BR","2022-12-20 07:39:54","2022-12-21 05:19:36"
503,"Ram Narayanpur Branch, Noakhali","রাম নারায়নপুর শাখা, নোয়াখালী","2618","BR394",NULL,NULL,NULL,NULL,NULL,0,NULL,NULL,"BR","2022-12-20 07:39:54","2022-12-21 05:19:44"
504,"Senbagh Branch, Noakhali","সেনবাগ শাখা, নোয়াখালী","2608","BR395",NULL,NULL,NULL,NULL,NULL,0,NULL,NULL,"BR","2022-12-20 07:39:54","2022-12-21 05:19:54"
505,"Sahebanir Bazar Branch, Noakhali","সাহেবানীর বাজার শাখা, নোয়াখালী","2612","BR396",NULL,NULL,NULL,NULL,NULL,0,NULL,NULL,"BR","2022-12-20 07:39:54","2022-12-21 05:20:04"
506,"Sonapur Branch, Noakhali","সোনাপুর শাখা, নোয়াখালী","2615","BR397",NULL,NULL,NULL,NULL,NULL,0,NULL,NULL,"BR","2022-12-20 07:39:54","2022-12-21 05:20:12"
507,"Yasin Hazirhat Branch, Noakhali","ইয়াছিন হাজিরহাট শাখা, নোয়াখালী","2624","BR398",NULL,NULL,NULL,NULL,NULL,0,NULL,NULL,"BR","2022-12-20 07:39:54","2022-12-21 05:20:20"
508,"Ashulia Bazar Branch, Dhaka","আশুলিয়া বাজার শাখা, ঢাকা","4124","BR399",NULL,NULL,NULL,NULL,NULL,0,NULL,NULL,"BR","2022-12-20 07:39:54","2022-12-21 05:21:09"
510,"Balia Branch, Dhaka","বালিয়া শাখা, ঢাকা","4120","BR401",NULL,NULL,NULL,NULL,NULL,0,NULL,NULL,"BR","2022-12-20 07:39:54","2022-12-21 05:43:09"
511,"Bandurahat Branch, Dhaka","বান্দুরাহাট শাখা, ঢাকা","4110","BR402",NULL,NULL,NULL,NULL,NULL,0,NULL,NULL,"BR","2022-12-20 07:39:54","2022-12-21 05:43:18"
512,"Beleshwar Branch, Dhaka","বেলীশ্বর শাখা, ঢাকা","4119","BR403",NULL,NULL,NULL,NULL,NULL,0,NULL,NULL,"BR","2022-12-20 07:39:54","2022-12-21 05:43:43"
513,"Chawkbazar Branch, Dhaka","চকবাজার শাখা, ঢাকা","4117","BR404",NULL,NULL,NULL,NULL,NULL,0,NULL,NULL,"BR","2022-12-20 07:39:54","2022-12-21 05:43:53"
514,"Demra Bazar Branch, Dhaka","ডেমরা বাজার শাখা, ঢাকা","4125","BR405",NULL,NULL,NULL,NULL,NULL,0,NULL,NULL,"BR","2022-12-20 07:39:54","2022-12-21 05:44:02"
515,"Dhamrai Branch, Dhaka","ধামরাই শাখা, ঢাকা","4118","BR406",NULL,NULL,NULL,NULL,NULL,0,NULL,NULL,"BR","2022-12-20 07:39:54","2022-12-21 05:44:11"
516,"Dohar Branch, Dhaka","দোহার শাখা, ঢাকা","4113","BR407",NULL,NULL,NULL,NULL,NULL,0,NULL,NULL,"BR","2022-12-20 07:39:54","2022-12-21 05:44:18"
517,"Farashganj Branch, Dhaka","ফরাশগঞ্জ শাখা, ঢাকা","4103","BR408",NULL,NULL,NULL,NULL,NULL,0,NULL,NULL,"BR","2022-12-20 07:39:54","2022-12-21 05:44:24"
518,"Hazratpur Branch, Dhaka","হযরতপুর শাখা, ঢাকা","4126","BR409",NULL,NULL,NULL,NULL,NULL,0,NULL,NULL,"BR","2022-12-20 07:39:54","2022-12-21 05:44:36"
519,"Jurain Branch, Dhaka","জুরাইন শাখা, ঢাকা","4107","BR410",NULL,NULL,NULL,NULL,NULL,0,NULL,NULL,"BR","2022-12-20 07:39:54","2022-12-21 05:44:43"
520,"Kamrangirchar Branch, Dhaka","কামরাঙ্গীরচর শাখা, ঢাকা","4122","BR411",NULL,NULL,NULL,NULL,NULL,0,NULL,NULL,"BR","2022-12-20 07:39:54","2022-12-21 05:44:51"
521,"Keraniganj Branch, Dhaka","কেরানীগঞ্জ শাখা, ঢাকা","4108","BR412",NULL,NULL,NULL,NULL,NULL,0,NULL,NULL,"BR","2022-12-20 07:39:54","2022-12-21 05:44:58"
522,"Khamarbari Branch,Dhaka","খামারবাড়ী শাখা,  ঢাকা","4102","BR413",NULL,NULL,NULL,NULL,NULL,0,NULL,NULL,"BR","2022-12-20 07:39:54","2022-12-21 05:45:07"
523,"Komarganj Hat Branch, Dhaka","কোমরগঞ্জ হাট শাখা, ঢাকা","4112","BR414",NULL,NULL,NULL,NULL,NULL,0,NULL,NULL,"BR","2022-12-20 07:39:54","2022-12-21 05:45:22"
524,"Mirpur Branch, Dhaka","মিরপুর শাখা, ঢাকা","4114","BR415",NULL,NULL,NULL,NULL,NULL,0,NULL,NULL,"BR","2022-12-20 07:39:54","2022-12-21 05:45:50"
525,"Nandipara Bazar Branch, Dhaka","নন্দীপাড়া  বাজার শাখা, ঢাকা","4127","BR416",NULL,NULL,NULL,NULL,NULL,0,NULL,NULL,"BR","2022-12-20 07:39:54","2022-12-21 05:45:58"
526,"Nawabganj Branch, Dhaka","নবাবগঞ্জ শাখা, ঢাকা","4109","BR417",NULL,NULL,NULL,NULL,NULL,0,NULL,NULL,"BR","2022-12-20 07:39:54","2022-12-21 05:46:12"
528,"Shanir Akhra Branch, Dhaka","শনির আখড়া শাখা, ঢাকা","4123","BR419",NULL,NULL,NULL,NULL,NULL,0,NULL,NULL,"BR","2022-12-20 07:39:54","2022-12-21 05:46:22"
527,"Savar Branch,Dhaka","সাভার শাখা, ঢাকা","4115","BR418",NULL,NULL,NULL,NULL,NULL,0,NULL,NULL,"BR","2022-12-20 07:39:54","2022-12-21 05:46:28"
530,"Sholla Bazar Branch, Dhaka","শোল্লা বাজার শাখা, ঢাকা","4111","BR421",NULL,NULL,NULL,NULL,NULL,0,NULL,NULL,"BR","2022-12-20 07:39:54","2022-12-21 05:46:37"
529,"Shyamali Branch, Dhaka","শ্যামলী শাখা,  ঢাকা","4104","BR420",NULL,NULL,NULL,NULL,NULL,0,NULL,NULL,"BR","2022-12-20 07:39:54","2022-12-21 05:46:47"
532,"Uttara Branch, Dhaka","উত্তরা শাখা, ঢাকা","4128","BR424",NULL,NULL,NULL,NULL,NULL,0,NULL,NULL,"BR","2022-12-20 07:39:54","2022-12-21 05:46:56"
531,"Staff College Branch, Dhaka","স্টাফ কলেজ শাখা, ঢাকা","4121","BR422",NULL,NULL,NULL,NULL,NULL,0,NULL,NULL,"BR","2022-12-20 07:39:54","2022-12-21 05:47:04"
533,"Amraid Bazar Branch, Gazipur","আমরাইদ বাজার শাখা, গাজীপুর","4204","BR425",NULL,NULL,NULL,NULL,NULL,0,NULL,NULL,"BR","2022-12-20 07:39:54","2022-12-21 05:48:09"
535,"Gazipur Branch, Gazipur","গাজীপুর শাখা, গাজীপুর","4201","BR427",NULL,NULL,NULL,NULL,NULL,0,NULL,NULL,"BR","2022-12-20 07:39:54","2022-12-21 05:48:28"
536,"Jaina Bazar Branch, Gazipur","জৈনা বাজার শাখা, গাজীপুর","4215","BR428",NULL,NULL,NULL,NULL,NULL,0,NULL,NULL,"BR","2022-12-20 07:39:54","2022-12-21 05:48:39"
537,"Kaliakoir Branch, Gazipur","কালিয়াকৈর শাখা, গাজীপুর","4209","BR429",NULL,NULL,NULL,NULL,NULL,0,NULL,NULL,"BR","2022-12-20 07:39:54","2022-12-21 05:48:46"
538,"Kaliganj Branch, Gazipur","কালীগঞ্জ শাখা, গাজীপুর","4206","BR430",NULL,NULL,NULL,NULL,NULL,0,NULL,NULL,"BR","2022-12-20 07:39:54","2022-12-21 05:48:53"
549,"Tongi Branch, Gazipur","টঙ্গী শাখা, গাজীপুর","4208","BR441",NULL,NULL,NULL,NULL,NULL,0,NULL,NULL,"BR","2022-12-20 07:39:54","2022-12-21 05:52:22"
540,"Khirati Bazar Branch, Gazipur","খিরাটি বাজার শাখা, গাজীপুর","4217","BR432",NULL,NULL,NULL,NULL,NULL,0,NULL,NULL,"BR","2022-12-20 07:39:54","2022-12-21 05:49:15"
541,"Konabari Branch, Gazipur","কোনাবাড়ী শাখা, গাজীপুর","4213","BR433",NULL,NULL,NULL,NULL,NULL,0,NULL,NULL,"BR","2022-12-20 07:39:54","2022-12-21 05:49:25"
542,"Mirzapur Branch, Gazipur","মির্জাপুর শাখা, গাজীপুর","4211","BR434",NULL,NULL,NULL,NULL,NULL,0,NULL,NULL,"BR","2022-12-20 07:39:54","2022-12-21 05:49:35"
543,"Fulbaria Bazar Branch, Gazipur","ফুলবাড়িয়া বাজার শাখা, গাজীপুর","4216","BR435",NULL,NULL,NULL,NULL,NULL,0,NULL,NULL,"BR","2022-12-20 07:39:54","2022-12-21 05:49:58"
544,"Raniganj Bazar Branch, Gazipur","রাণীগঞ্জ বাজার শাখা, গাজীপুর","4205","BR436",NULL,NULL,NULL,NULL,NULL,0,NULL,NULL,"BR","2022-12-20 07:39:54","2022-12-21 05:50:19"
545,"Sawraid Bazar Branch, Gazipur","সাওরাইদ বাজার শাখা, গাজীপুর","4212","BR437",NULL,NULL,NULL,NULL,NULL,0,NULL,NULL,"BR","2022-12-20 07:39:54","2022-12-21 05:50:31"
546,"Shafipur Branch, Gazipur","সফিপুর শাখা, গাজীপুর","4210","BR438",NULL,NULL,NULL,NULL,NULL,0,NULL,NULL,"BR","2022-12-20 07:39:54","2022-12-21 05:50:41"
547,"Sreepur Branch, Gazipur","শ্রীপুর শাখা, গাজীপুর","4207","BR439",NULL,NULL,NULL,NULL,NULL,0,NULL,NULL,"BR","2022-12-20 07:39:54","2022-12-21 05:50:50"
548,"Toknayan Bazar Branch, Gazipur","টোকনয়ন বাজার শাখা, গাজীপুর","4203","BR440",NULL,NULL,NULL,NULL,NULL,0,NULL,NULL,"BR","2022-12-20 07:39:54","2022-12-21 05:50:58"
539,"Kapasia Branch, Gazipur","কাপাসিয়া শাখা, গাজীপুর","4202","BR431",NULL,NULL,NULL,NULL,NULL,0,NULL,NULL,"BR","2022-12-20 07:39:54","2022-12-21 05:52:07"
550,"Baniajuri Branch, Manikganj","বানিয়াজুরী শাখা, মানিকগঞ্জ","4308","BR442",NULL,NULL,NULL,NULL,NULL,0,NULL,NULL,"BR","2022-12-20 07:39:54","2022-12-21 05:53:26"
551,"Charigram Branch, Manikganj","চারিগ্রাম শাখা, মানিকগঞ্জ","4305","BR443",NULL,NULL,NULL,NULL,NULL,0,NULL,NULL,"BR","2022-12-20 07:39:54","2022-12-21 05:53:33"
552,"Daulatpur Branch, Manikganj","দৌলতপুর শাখা, মানিকগঞ্জ","4309","BR444",NULL,NULL,NULL,NULL,NULL,0,NULL,NULL,"BR","2022-12-20 07:39:54","2022-12-21 05:53:39"
553,"Ghior Branch, Manikganj","ঘিওর শাখা, মানিকগঞ্জ","4307","BR445",NULL,NULL,NULL,NULL,NULL,0,NULL,NULL,"BR","2022-12-20 07:39:54","2022-12-21 05:53:48"
554,"Hargaj Branch, Manikganj","হরগজ শাখা, মানিকগঞ্জ","4316","BR446",NULL,NULL,NULL,NULL,NULL,0,NULL,NULL,"BR","2022-12-20 07:39:54","2022-12-21 05:53:55"
555,"Harirampur Branch, Manikganj","হরিরামপুর শাখা, মানিকগঞ্জ","4303","BR447",NULL,NULL,NULL,NULL,NULL,0,NULL,NULL,"BR","2022-12-20 07:39:54","2022-12-21 05:54:03"
556,"Jagir Branch, Manikganj","জাগীর শাখা, মানিকগঞ্জ","4315","BR448",NULL,NULL,NULL,NULL,NULL,0,NULL,NULL,"BR","2022-12-20 07:39:54","2022-12-21 05:54:10"
560,"Mohadebpur Branch, Manikganj","মহাদেবপুর শাখা, মানিকগঞ্জ","4310","BR452",NULL,NULL,NULL,NULL,NULL,0,NULL,NULL,"BR","2022-12-20 07:39:54","2022-12-21 05:54:38"
558,"Joymontap Branch, Manikganj","জয়মন্টপ শাখা, মানিকগঞ্জ","4317","BR450",NULL,NULL,NULL,NULL,NULL,0,NULL,NULL,"BR","2022-12-20 07:39:54","2022-12-21 05:54:53"
559,"Manikganj Branch, Manikganj","মানিকগঞ্জ শাখা, মানিকগঞ্জ","4301","BR451",NULL,NULL,NULL,NULL,NULL,0,NULL,NULL,"BR","2022-12-20 07:39:54","2022-12-21 05:55:10"
561,"Saturia Branch, Manikganj","সাটুরিয়া শাখা, মানিকগঞ্জ","4306","BR453",NULL,NULL,NULL,NULL,NULL,0,NULL,NULL,"BR","2022-12-20 07:39:54","2022-12-21 05:55:20"
562,"Shibalay Branch, Manikganj","শিবালয় শাখা, মানিকগঞ্জ","4311","BR454",NULL,NULL,NULL,NULL,NULL,0,NULL,NULL,"BR","2022-12-20 07:39:54","2022-12-21 05:55:41"
563,"Singair Branch, Manikganj","সিংগাইর শাখা, মানিকগঞ্জ","4304","BR455",NULL,NULL,NULL,NULL,NULL,0,NULL,NULL,"BR","2022-12-20 07:39:54","2022-12-21 05:55:51"
564,"Aldi Bazar Branch, Munshiganj","আলদী বাজার শাখা, মুন্সীগঞ্জ","4416","BR456",NULL,NULL,NULL,NULL,NULL,0,NULL,NULL,"BR","2022-12-20 07:39:54","2022-12-21 05:56:42"
565,"Baraikhali Bazar Branch, Munshiganj","বাড়ৈখালী বাজার শাখা, মুন্সীগঞ্জ","4417","BR457",NULL,NULL,NULL,NULL,NULL,0,NULL,NULL,"BR","2022-12-20 07:39:54","2022-12-21 05:56:50"
566,"Betka Branch, Munshiganj","বেতকা শাখা, মুন্সীগঞ্জ","4413","BR458",NULL,NULL,NULL,NULL,NULL,0,NULL,NULL,"BR","2022-12-20 07:39:54","2022-12-21 05:56:57"
567,"Bhaber Char Branch, Munshiganj","ভবের চর শাখা, মুন্সীগঞ্জ","4402","BR459",NULL,NULL,NULL,NULL,NULL,0,NULL,NULL,"BR","2022-12-20 07:39:54","2022-12-21 05:58:33"
568,"Charkewar Branch, Munshiganj","চরকেওয়ার শাখা, মুন্সীগঞ্জ","4415","BR460",NULL,NULL,NULL,NULL,NULL,0,NULL,NULL,"BR","2022-12-20 07:39:54","2022-12-21 05:58:42"
569,"Gazaria Branch, Munshiganj","গজারিয়া শাখা, মুন্সীগঞ্জ","4403","BR461",NULL,NULL,NULL,NULL,NULL,0,NULL,NULL,"BR","2022-12-20 07:39:54","2022-12-21 05:58:50"
570,"Goltali Bazar Branch,  Munshiganj","ঘোলতলী বাজার শাখা, মুন্সীগঞ্জ","4407","BR462",NULL,NULL,NULL,NULL,NULL,0,NULL,NULL,"BR","2022-12-20 07:39:54","2022-12-21 05:59:00"
571,"Hashara Branch,  Munshiganj","হাঁসাড়া শাখা, মুন্সীগঞ্জ","4410","BR463",NULL,NULL,NULL,NULL,NULL,0,NULL,NULL,"BR","2022-12-20 07:39:54","2022-12-21 05:59:07"
572,"Isapura Branch,  Munshiganj","ইছাপুরা শাখা, মুন্সীগঞ্জ","4405","BR464",NULL,NULL,NULL,NULL,NULL,0,NULL,NULL,"BR","2022-12-20 07:39:54","2022-12-21 05:59:14"
573,"Louhajong Branch,  Munshiganj","লৌহজং শাখা, মুন্সীগঞ্জ","4406","BR465",NULL,NULL,NULL,NULL,NULL,0,NULL,NULL,"BR","2022-12-20 07:39:54","2022-12-21 05:59:22"
574,"Medinimandal Branch,  Munshiganj","মেদিনীমন্ডল শাখা, মুন্সীগঞ্জ","4408","BR466",NULL,NULL,NULL,NULL,NULL,0,NULL,NULL,"BR","2022-12-20 07:39:54","2022-12-21 05:59:29"
576,"Rarikhal Branch,  Munshiganj","রাঢ়ীখাল শাখা, মুন্সীগঞ্জ","4411","BR468",NULL,NULL,NULL,NULL,NULL,0,NULL,NULL,"BR","2022-12-20 07:39:54","2022-12-21 05:59:38"
578,"Sholaghar Branch,  Munshiganj","ষোলঘর শাখা, মুন্সীগঞ্জ","4412","BR470",NULL,NULL,NULL,NULL,NULL,0,NULL,NULL,"BR","2022-12-20 07:39:54","2022-12-21 05:59:50"
575,"Munshiganj Branch, Munshiganj","মুন্সীগঞ্জ শাখা, মুন্সীগঞ্জ","4401","BR467",NULL,NULL,NULL,NULL,NULL,0,NULL,NULL,"BR","2022-12-20 07:39:54","2022-12-21 05:59:58"
579,"Sreenagar Branch, Munshiganj","শ্রীনগর শাখা, মুন্সীগঞ্জ","4409","BR471",NULL,NULL,NULL,NULL,NULL,0,NULL,NULL,"BR","2022-12-20 07:39:54","2022-12-21 06:00:14"
580,"Tongi Bari Branch, Munshiganj","টংগী বাড়ী শাখা, মুন্সীগঞ্জ","4414","BR472",NULL,NULL,NULL,NULL,NULL,0,NULL,NULL,"BR","2022-12-20 07:39:54","2022-12-21 06:00:21"
581,"Araihazar Branch, Narayanganj","আড়াইহাজার শাখা, নারায়ণগঞ্জ","4608","BR473",NULL,NULL,NULL,NULL,NULL,0,NULL,NULL,"BR","2022-12-20 07:39:54","2022-12-21 06:01:08"
582,"Bandar Branch, Narayanganj","বন্দর শাখা, নারায়ণগঞ্জ","4603","BR474",NULL,NULL,NULL,NULL,NULL,0,NULL,NULL,"BR","2022-12-20 07:39:54","2022-12-21 06:01:18"
583,"Fatulla Branch, Narayanganj","ফতুল্লা শাখা, নারায়ণগঞ্জ","4602","BR475",NULL,NULL,NULL,NULL,NULL,0,NULL,NULL,"BR","2022-12-20 07:39:54","2022-12-21 06:01:53"
584,"Golakandail Branch, Narayanganj","গোলাকান্দাইল শাখা, নারায়ণগঞ্জ","4612","BR476",NULL,NULL,NULL,NULL,NULL,0,NULL,NULL,"BR","2022-12-20 07:39:54","2022-12-21 06:01:59"
585,"Hossainpur Branch, Narayanganj","হোসেনপুর শাখা, নারায়ণগঞ্জ","4611","BR477",NULL,NULL,NULL,NULL,NULL,0,NULL,NULL,"BR","2022-12-20 07:39:54","2022-12-21 06:02:05"
586,"Jhangalia Bazar Branch, Narayanganj","জাঙ্গালিয়া বাজার শাখা, নারায়ণগঞ্জ","4614","BR479",NULL,NULL,NULL,NULL,NULL,0,NULL,NULL,"BR","2022-12-20 07:39:54","2022-12-21 06:02:14"
587,"Madanpur Branch, Narayanganj","মদনপুর শাখা, নারায়ণগঞ্জ","4604","BR480",NULL,NULL,NULL,NULL,NULL,0,NULL,NULL,"BR","2022-12-20 07:39:54","2022-12-21 06:02:24"
588,"Mohajampur Branch, Narayanganj","মহজমপুর শাখা, নারায়ণগঞ্জ","4606","BR481",NULL,NULL,NULL,NULL,NULL,0,NULL,NULL,"BR","2022-12-20 07:39:54","2022-12-21 06:02:35"
589,"Pouro Market Branch, Narayanganj","পৌর মার্কেট শাখা, নারায়ণগঞ্জ","4615","BR482",NULL,NULL,NULL,NULL,NULL,0,NULL,NULL,"BR","2022-12-20 07:39:54","2022-12-21 06:02:42"
590,"Rupganj Branch, Narayanganj","রূপগঞ্জ শাখা, নারায়ণগঞ্জ","4607","BR483",NULL,NULL,NULL,NULL,NULL,0,NULL,NULL,"BR","2022-12-20 07:39:54","2022-12-21 06:02:53"
591,"Satgaon Branch, Narayanganj","সাতগাঁও শাখা, নারায়ণগঞ্জ","4609","BR484",NULL,NULL,NULL,NULL,NULL,0,NULL,NULL,"BR","2022-12-20 07:39:54","2022-12-21 06:03:00"
592,"Siddhirganj Branch, Narayanganj","সিদ্ধিরগঞ্জ শাখা, নারায়ণগঞ্জ","4610","BR485",NULL,NULL,NULL,NULL,NULL,0,NULL,NULL,"BR","2022-12-20 07:39:54","2022-12-21 06:03:08"
593,"Sonargaon Branch, Narayanganj","সোনারগাঁও শাখা, নারায়ণগঞ্জ","4605","BR486",NULL,NULL,NULL,NULL,NULL,0,NULL,NULL,"BR","2022-12-20 07:39:54","2022-12-21 06:03:15"
594,"Algee Bazar Branch, Narsingdi","আলগী বাজার শাখা, নরসিংদী","4523","BR487",NULL,NULL,NULL,NULL,NULL,0,NULL,NULL,"BR","2022-12-20 07:39:54","2022-12-21 06:04:25"
595,"Bannar Bazar Branch, Narsingdi","বন্যার বাজার শাখা, নরসিংদী","4518","BR489",NULL,NULL,NULL,NULL,NULL,0,NULL,NULL,"BR","2022-12-20 07:39:54","2022-12-21 06:04:32"
596,"Baraicha Bazar Branch, Narsingdi","বারৈচা বাজার শাখা, নরসিংদী","4520","BR490",NULL,NULL,NULL,NULL,NULL,0,NULL,NULL,"BR","2022-12-20 07:39:54","2022-12-21 06:15:27"
597,"Belabo Branch, Narsingdi","বেলাব শাখা, নরসিংদী","4503","BR491",NULL,NULL,NULL,NULL,NULL,0,NULL,NULL,"BR","2022-12-20 07:39:54","2022-12-21 06:15:34"
598,"Charsubuddi Bazar Branch, Narsingdi","চরসুবুদ্ধি বাজার শাখা, নরসিংদী","4519","BR492",NULL,NULL,NULL,NULL,NULL,0,NULL,NULL,"BR","2022-12-20 07:39:54","2022-12-21 06:15:39"
600,"Ghorasal Branch, Narsingdi","ঘোড়াশাল শাখা, নরসিংদী","4511","BR494",NULL,NULL,NULL,NULL,NULL,0,NULL,NULL,"BR","2022-12-20 07:39:54","2022-12-21 06:16:46"
599,"Charanagordi Bazar Branch, Narsingdi","চরনগরদী বাজার শাখা , নরসিংদী","4522","BR493",NULL,NULL,NULL,NULL,NULL,0,NULL,NULL,"BR","2022-12-20 07:39:54","2022-12-21 06:19:56"
602,"Lakhpur Bazar Branch, Narsingdi","লাখপুর বাজার শাখা, নরসিংদী","4509","BR496",NULL,NULL,NULL,NULL,NULL,0,NULL,NULL,"BR","2022-12-20 07:39:54","2022-12-21 06:17:22"
604,"Monohardi Branch, Narsingdi","মনোহরদী শাখা, নরসিংদী","4505","BR498",NULL,NULL,NULL,NULL,NULL,0,NULL,NULL,"BR","2022-12-20 07:39:54","2022-12-21 06:17:32"
603,"Morjal Bazar Branch, Narsingdi","মরজাল বাজার শাখা, নরসিংদী","4516","BR497",NULL,NULL,NULL,NULL,NULL,0,NULL,NULL,"BR","2022-12-20 07:39:54","2022-12-21 06:17:44"
605,"Munsefer Char Branch, Narsingdi","মুন্সেফের চর শাখা, নরসিংদী","4521","BR499",NULL,NULL,NULL,NULL,NULL,0,NULL,NULL,"BR","2022-12-20 07:39:54","2022-12-21 06:17:59"
606,"Narshingdi Branch, Narsingdi","নরসিংদী শাখা, নরসিংদী","4501","BR500",NULL,NULL,NULL,NULL,NULL,0,NULL,NULL,"BR","2022-12-20 07:39:54","2022-12-21 06:18:16"
607,"Paikan Bazar Branch, Narsingdi","পাইকান বাজার শাখা, নরসিংদী","4525","BR501",NULL,NULL,NULL,NULL,NULL,0,NULL,NULL,"BR","2022-12-20 07:39:54","2022-12-21 06:18:27"
608,"Palash Branch, Narsingdi","পলাশ শাখা, নরসিংদী","4510","BR502",NULL,NULL,NULL,NULL,NULL,0,NULL,NULL,"BR","2022-12-20 07:39:54","2022-12-21 06:18:38"
609,"Poradia Bazar Branch, Narsingdi","পোড়াদিয়া বাজার শাখা, নরসিংদী","4506","BR503",NULL,NULL,NULL,NULL,NULL,0,NULL,NULL,"BR","2022-12-20 07:39:54","2022-12-21 06:18:50"
610,"Raipura Branch, Narsingdi","রায়পুরা শাখা, নরসিংদী","4504","BR504",NULL,NULL,NULL,NULL,NULL,0,NULL,NULL,"BR","2022-12-20 07:39:54","2022-12-21 06:19:02"
611,"Shaheprotap Branch, Narsingdi","শাহেপ্রতাপ শাখা, নরসিংদী","4524","BR505",NULL,NULL,NULL,NULL,NULL,0,NULL,NULL,"BR","2022-12-20 07:39:54","2022-12-21 06:19:13"
612,"Sheker Bazar Branch, Narsingdi","শেখের বাজার শাখা, নরসিংদী","4517","BR506",NULL,NULL,NULL,NULL,NULL,0,NULL,NULL,"BR","2022-12-20 07:39:54","2022-12-21 06:19:25"
613,"Shibpur Branch, Narsingdi","শিবপুর শাখা, নরসিংদী","4508","BR507",NULL,NULL,NULL,NULL,NULL,0,NULL,NULL,"BR","2022-12-20 07:39:54","2022-12-21 06:19:35"
614,"Alokdia Branch, Tangail(North)","আলোকদিয়া শাখা, টাঙ্গাইল(উঃ)","5029","BR423",NULL,NULL,NULL,NULL,NULL,0,NULL,NULL,"BR","2022-12-20 07:39:54","2022-12-21 06:21:05"
615,"Awliabad Branch, Tangail(North)","আউলিয়াবাদ শাখা, টাঙ্গাইল(উঃ)","5024","BR509",NULL,NULL,NULL,NULL,NULL,0,NULL,NULL,"BR","2022-12-20 07:39:54","2022-12-21 06:21:14"
616,"Balla Bazar Branch, Tangail(North)","বল্লা বাজার শাখা, টাঙ্গাইল(উঃ)","5026","BR510",NULL,NULL,NULL,NULL,NULL,0,NULL,NULL,"BR","2022-12-20 07:39:54","2022-12-21 06:21:25"
617,"Bangra Branch, Tangail(North)","বাংড়া শাখা, টাঙ্গাইল(উঃ)","5023","BR511",NULL,NULL,NULL,NULL,NULL,0,NULL,NULL,"BR","2022-12-20 07:39:54","2022-12-21 06:21:34"
618,"Bhuanpur Branch, Tangail(North)","ভূঞাপুর শাখা, টাঙ্গাইল(উঃ)","5015","BR512",NULL,NULL,NULL,NULL,NULL,0,NULL,NULL,"BR","2022-12-20 07:39:54","2022-12-21 06:21:49"
619,"Dhan Bari Branch, Tangail(North)","ধন বাড়ি শাখা, টাঙ্গাইল(উঃ)","5033","BR513",NULL,NULL,NULL,NULL,NULL,0,NULL,NULL,"BR","2022-12-20 07:39:54","2022-12-21 06:21:59"
620,"Elenga Branch, Tangail(North)","এলেঙ্গা শাখা, টাঙ্গাইল(উঃ)","5025","BR514",NULL,NULL,NULL,NULL,NULL,0,NULL,NULL,"BR","2022-12-20 07:39:54","2022-12-21 06:22:09"
621,"Ghatail Branch, Tangail(North)","ঘাটাইল শাখা, টাঙ্গাইল(উঃ)","5020","BR515",NULL,NULL,NULL,NULL,NULL,0,NULL,NULL,"BR","2022-12-20 07:39:54","2022-12-21 06:22:19"
622,"Gopalpur Branch, Tangail(North)","গোপালপুর শাখা, টাঙ্গাইল(উঃ)","5016","BR516",NULL,NULL,NULL,NULL,NULL,0,NULL,NULL,"BR","2022-12-20 07:39:54","2022-12-21 06:22:32"
623,"Jhawail Branch, Tangail(North)","ঝাওয়াইল শাখা, টাঙ্গাইল(উঃ)","5019","BR517",NULL,NULL,NULL,NULL,NULL,0,NULL,NULL,"BR","2022-12-20 07:39:54","2022-12-21 06:22:45"
624,"Kakraid Branch, Tangail(North)","কাকরাইদ শাখা, টাঙ্গাইল(উঃ)","5028","BR518",NULL,NULL,NULL,NULL,NULL,0,NULL,NULL,"BR","2022-12-20 07:39:54","2022-12-21 06:22:54"
625,"Kalihati Branch, Tangail(North)","কালিহাতী শাখা, টাঙ্গাইল(উঃ)","5022","BR519",NULL,NULL,NULL,NULL,NULL,0,NULL,NULL,"BR","2022-12-20 07:39:54","2022-12-21 06:23:04"
626,"Madhupur Branch, Tangail(North)","মধুপুর শাখা, টাঙ্গাইল(উঃ)","5027","BR520",NULL,NULL,NULL,NULL,NULL,0,NULL,NULL,"BR","2022-12-20 07:39:54","2022-12-21 06:23:57"
627,"Mogra Bazar Branch, Tangail(North)","মগড়া বাজার শাখা, টাঙ্গাইল(উঃ)","5034","BR521",NULL,NULL,NULL,NULL,NULL,0,NULL,NULL,"BR","2022-12-20 07:39:54","2022-12-21 06:24:06"
628,"Sajanpur Branch, Tangail(North)","সাজানপুর শাখা, টাঙ্গাইল(উঃ)","5017","BR522",NULL,NULL,NULL,NULL,NULL,0,NULL,NULL,"BR","2022-12-20 07:39:54","2022-12-21 06:24:50"
630,"Shimla Bazar Branch, Tangail(North)","শিমলা বাজার শাখা, টাঙ্গাইল(উঃ)","5018","BR524",NULL,NULL,NULL,NULL,NULL,0,NULL,NULL,"BR","2022-12-20 07:39:54","2022-12-21 06:25:09"
631,"Singuria Bazar Branch, Tangail(North)","সিংগুরিয়া বাজার শাখা, টাঙ্গাইল(উঃ)","5021","BR525",NULL,NULL,NULL,NULL,NULL,0,NULL,NULL,"BR","2022-12-20 07:39:54","2022-12-21 06:25:23"
632,"Basail Branch, Tangail (South)","বাসাইল শাখা, টাঙ্গাইল(দঃ)","5014","BR526",NULL,NULL,NULL,NULL,NULL,0,NULL,NULL,"BR","2022-12-20 07:39:54","2022-12-21 06:25:50"
633,"Bathuli Sadi Bazar Branch, Tangail (South)","বাথুলী সাদী বাজার শাখা, টাঙ্গাইল(দঃ)","5601","BR527",NULL,NULL,NULL,NULL,NULL,0,NULL,NULL,"BR","2022-12-20 07:39:54","2022-12-21 06:26:08"
634,"Bhabkhanda Bazar Branch, Tangail (South)","ভাবখন্ড বাজার শাখা, টাঙ্গাইল(দঃ)","5032","BR528",NULL,NULL,NULL,NULL,NULL,0,NULL,NULL,"BR","2022-12-20 07:39:54","2022-12-21 06:26:18"
635,"Bhadra Bazar Branch, Tangail (South)","ভাদ্রা বাজার শাখা, টাঙ্গাইল(দঃ)","5007","BR529",NULL,NULL,NULL,NULL,NULL,0,NULL,NULL,"BR","2022-12-20 07:39:54","2022-12-21 06:26:33"
636,"Charpara Bazar Branch, Tangail (South)","চরপাড়া বাজার শাখা, টাঙ্গাইল(দঃ)","5031","BR530",NULL,NULL,NULL,NULL,NULL,0,NULL,NULL,"BR","2022-12-20 07:39:54","2022-12-21 06:26:46"
637,"Delduar Branch, Tangail (South)","দেলদুয়ার শাখা, টাঙ্গাইল(দঃ)","5013","BR531",NULL,NULL,NULL,NULL,NULL,0,NULL,NULL,"BR","2022-12-20 07:39:54","2022-12-21 06:27:04"
638,"Goyhata Bazar Branch, Tangail (South)","গয়হাটা বাজার শাখা, টাঙ্গাইল(দঃ)","5006","BR532",NULL,NULL,NULL,NULL,NULL,0,NULL,NULL,"BR","2022-12-20 07:39:54","2022-12-21 06:27:49"
639,"Hatubhanga Branch, Tangail (South)","হাটুভাংগা শাখা, টাঙ্গাইল(দঃ)","5010","BR533",NULL,NULL,NULL,NULL,NULL,0,NULL,NULL,"BR","2022-12-20 07:39:54","2022-12-21 06:27:57"
640,"Kachuabazar Branch, Tangail (South)","কচুয়াবাজার শাখা, টাঙ্গাইল(দঃ)","5012","BR534",NULL,NULL,NULL,NULL,NULL,0,NULL,NULL,"BR","2022-12-20 07:39:54","2022-12-21 06:28:10"
641,"Karatia Branch, Tangail (South)","করটিয়া শাখা, টাঙ্গাইল(দঃ)","5002","BR535",NULL,NULL,NULL,NULL,NULL,0,NULL,NULL,"BR","2022-12-20 07:39:54","2022-12-21 06:28:25"
643,"Nagarpur Branch, Tangail (South)","নাগরপুর শাখা, টাঙ্গাইল(দঃ)","5004","BR537",NULL,NULL,NULL,NULL,NULL,0,NULL,NULL,"BR","2022-12-20 07:39:54","2022-12-21 06:29:31"
642,"Mirzapur Branch, Tangail (South)","মির্জাপুর শাখা, টাঙ্গাইল(দঃ)","5009","BR536",NULL,NULL,NULL,NULL,NULL,0,NULL,NULL,"BR","2022-12-20 07:39:54","2022-12-21 06:28:59"
645,"Porabari Branch, Tangail (South)","পোড়াবাড়ী শাখা, টাঙ্গাইল(দঃ)","5003","BR539",NULL,NULL,NULL,NULL,NULL,0,NULL,NULL,"BR","2022-12-20 07:39:54","2022-12-21 06:34:45"
647,"Sakhipur Branch, Tangail (South)","সখিপুর শাখা, টাঙ্গাইল(দঃ)","5011","BR541",NULL,NULL,NULL,NULL,NULL,0,NULL,NULL,"BR","2022-12-20 07:39:54","2022-12-21 06:35:04"
648,"Toktarchala Bazar Branch, Tangail (South)","তক্তারচালা বাজার শাখা, টাঙ্গাইল(দঃ)","5602","BR542",NULL,NULL,NULL,NULL,NULL,0,NULL,NULL,"BR","2022-12-20 07:39:54","2022-12-21 06:35:17"
649,"Tangail Branch, Tangail (South)","টাঙ্গাইল শাখা, টাঙ্গাইল(দঃ)","5001","BR543",NULL,NULL,NULL,NULL,NULL,0,NULL,NULL,"BR","2022-12-20 07:39:54","2022-12-21 06:35:30"
650,"Alfadanga Branch,Faridpur","আলফাডাংগা শাখা,ফরিদপুর","0809","BR544",NULL,NULL,NULL,NULL,NULL,0,NULL,NULL,"BR","2022-12-20 07:39:54","2022-12-21 06:36:10"
651,"Baburchar Branch,Faridpur","বাবুরচর শাখা,ফরিদপুর","0822","BR545",NULL,NULL,NULL,NULL,NULL,0,NULL,NULL,"BR","2022-12-20 07:39:54","2022-12-21 06:36:16"
652,"Bagat Branch,Faridpur","বাগাট শাখা,ফরিদপুর","0823","BR546",NULL,NULL,NULL,NULL,NULL,0,NULL,NULL,"BR","2022-12-20 07:39:54","2022-12-21 06:36:27"
653,"Baitul Aman Branch, Faridpur","বায়তুল আমান শাখা,ফরিদপুর","0804","BR547",NULL,NULL,NULL,NULL,NULL,0,NULL,NULL,"BR","2022-12-20 07:39:54","2022-12-21 06:36:33"
654,"Bakhunda Bazar Branch,Faridpur","বাখুন্ডা বাজার শাখা,ফরিদপুর","0819","BR548",NULL,NULL,NULL,NULL,NULL,0,NULL,NULL,"BR","2022-12-20 07:39:54","2022-12-21 06:36:41"
655,"Bhanga Branch,Faridpur","ভাঙ্গা শাখা,ফরিদপুর","0810","BR549",NULL,NULL,NULL,NULL,NULL,0,NULL,NULL,"BR","2022-12-20 07:39:54","2022-12-21 06:36:49"
656,"Bilgobindapur Branch,Faridpur","বিলগোবিন্দপুর শাখা,ফরিদপুর","0820","BR550",NULL,NULL,NULL,NULL,NULL,0,NULL,NULL,"BR","2022-12-20 07:39:54","2022-12-21 06:37:15"
657,"Boalmari Branch, Faridpur","বোয়ালমারী শাখা,ফরিদপুর","0807","BR551",NULL,NULL,NULL,NULL,NULL,0,NULL,NULL,"BR","2022-12-20 07:39:54","2022-12-21 06:37:21"
658,"Chandhat Branch,Faridpur","চাঁদহাট শাখা,ফরিদপুর","0821","BR552",NULL,NULL,NULL,NULL,NULL,0,NULL,NULL,"BR","2022-12-20 07:39:54","2022-12-21 06:37:32"
659,"Charbhadrasan Branch, Faridpur","চরভদ্রাসন শাখা,ফরিদপুর","0805","BR553",NULL,NULL,NULL,NULL,NULL,0,NULL,NULL,"BR","2022-12-20 07:39:54","2022-12-21 06:37:59"
660,"Faridpur Branch, Faridpur","ফরিদপুর শাখা, ফরিদপুর","0801","BR554",NULL,NULL,NULL,NULL,NULL,0,NULL,NULL,"BR","2022-12-20 07:39:54","2022-12-21 06:38:05"
661,"Gopalpur Bazar Branch,Faridpur","গোপালপুর বাজার শাখা,ফরিদপুর","0826","BR555",NULL,NULL,NULL,NULL,NULL,0,NULL,NULL,"BR","2022-12-20 07:39:54","2022-12-21 06:38:12"
662,"Hajigonj Bazar Branch, Faridpur","হাজীগঞ্জ বাজার শাখা,ফরিদপুর","0806","BR556",NULL,NULL,NULL,NULL,NULL,0,NULL,NULL,"BR","2022-12-20 07:39:54","2022-12-21 06:38:25"
663,"Hat Krishnapur Branch,Faridpur","হাট কৃষ্ণপুর শাখা,ফরিদপুর","0816","BR557",NULL,NULL,NULL,NULL,NULL,0,NULL,NULL,"BR","2022-12-20 07:39:54","2022-12-21 06:38:34"
664,"Ishangopalpur Branch, Faridpur","ঈশানগোপালপুর শাখা,ফরিদপুর","0803","BR558",NULL,NULL,NULL,NULL,NULL,0,NULL,NULL,"BR","2022-12-20 07:39:54","2022-12-21 06:38:44"
665,"Kadirdi Bazar Branch,Faridpur","কাদিরদী বাজার শাখা,ফরিদপুর","0817","BR559",NULL,NULL,NULL,NULL,NULL,0,NULL,NULL,"BR","2022-12-20 07:39:54","2022-12-21 06:38:55"
666,"Kaulibera Branch,Faridpur","কাউলীবেড়া শাখা,ফরিদপুর","0811","BR560",NULL,NULL,NULL,NULL,NULL,0,NULL,NULL,"BR","2022-12-20 07:39:54","2022-12-21 06:39:02"
667,"Khalilpur Bazar Branch, Faridpur","খলিলপুর বাজার শাখা,ফরিদপুর","0802","BR561",NULL,NULL,NULL,NULL,NULL,0,NULL,NULL,"BR","2022-12-20 07:39:54","2022-12-21 06:39:13"
668,"Laskardia Bazar Branch,Faridpur","লস্করদিয়া বাজার শাখা,ফরিদপুর","0827","BR562",NULL,NULL,NULL,NULL,NULL,0,NULL,NULL,"BR","2022-12-20 07:39:54","2022-12-21 06:39:24"
669,"Madhukhali Branch, Faridpur","মধুখালী শাখা,ফরিদপুর","0808","BR563",NULL,NULL,NULL,NULL,NULL,0,NULL,NULL,"BR","2022-12-20 07:39:54","2022-12-21 06:39:31"
670,"Nagarkanda Branch,Faridpur","নগরকান্দা শাখা,ফরিদপুর","0813","BR564",NULL,NULL,NULL,NULL,NULL,0,NULL,NULL,"BR","2022-12-20 07:39:54","2022-12-21 06:39:38"
671,"Pukhuria Branch,Faridpur","পুখুরিয়া শাখা,ফরিদপুর","0812","BR565",NULL,NULL,NULL,NULL,NULL,0,NULL,NULL,"BR","2022-12-20 07:39:54","2022-12-21 06:39:51"
672,"Purapara Bazar Branch,Faridpur","পুরাপাড়া বাজার শাখা,ফরিদপুর","0829","BR566",NULL,NULL,NULL,NULL,NULL,0,NULL,NULL,"BR","2022-12-20 07:39:54","2022-12-21 06:40:02"
673,"Sadarpur Branch,Faridpur","সদরপুর শাখা,ফরিদপুর","0815","BR567",NULL,NULL,NULL,NULL,NULL,0,NULL,NULL,"BR","2022-12-20 07:39:54","2022-12-21 06:40:11"
674,"Salta Bazar Branch,Faridpur","সালথা বাজার শাখা,ফরিদপুর","0818","BR568",NULL,NULL,NULL,NULL,NULL,0,NULL,NULL,"BR","2022-12-20 07:39:54","2022-12-21 06:40:36"
675,"Talma Branch,Faridpur","তালমা শাখা,ফরিদপুর","0814","BR569",NULL,NULL,NULL,NULL,NULL,0,NULL,NULL,"BR","2022-12-20 07:39:54","2022-12-21 06:40:42"
676,"Tambulkhana Bazar Branch,Faridpur","তাম্বুলখানা বাজার শাখা,ফরিদপুর","0828","BR570",NULL,NULL,NULL,NULL,NULL,0,NULL,NULL,"BR","2022-12-20 07:39:54","2022-12-21 06:40:50"
677,"Bashbaria Branch,Gopalganj","বাঁশবাড়িয়া শাখা,গোপালগঞ্জ","0913","BR571",NULL,NULL,NULL,NULL,NULL,0,NULL,NULL,"BR","2022-12-20 07:39:54","2022-12-21 06:41:28"
678,"Batikamari Bazar Branch,Gopalganj","বাটিকামারী বাজার শাখা,গোপালগঞ্জ","0908","BR572",NULL,NULL,NULL,NULL,NULL,0,NULL,NULL,"BR","2022-12-20 07:39:54","2022-12-21 06:41:43"
679,"Bhangarhat Branch,Gopalganj","ভাঙ্গারহাট শাখা,গোপালগঞ্জ","0923","BR573",NULL,NULL,NULL,NULL,NULL,0,NULL,NULL,"BR","2022-12-20 07:39:54","2022-12-21 06:41:52"
680,"Bherarhat Branch,Gopalganj","ভেড়ারহাট শাখা,গোপালগঞ্জ","0902","BR574",NULL,NULL,NULL,NULL,NULL,0,NULL,NULL,"BR","2022-12-20 07:39:54","2022-12-21 06:42:00"
681,"Boultali Branch,Gopalganj","বৌলতলী শাখা,গোপালগঞ্জ","0903","BR575",NULL,NULL,NULL,NULL,NULL,0,NULL,NULL,"BR","2022-12-20 07:39:54","2022-12-21 06:42:13"
682,"Banagram Branch,Gopalganj","বনগ্রাম শাখা,গোপালগঞ্জ","0909","BR576",NULL,NULL,NULL,NULL,NULL,0,NULL,NULL,"BR","2022-12-20 07:39:54","2022-12-21 06:42:22"
683,"Chowdhurirhat Branch,Gopalganj","চৌধুরীরহাট শাখা,গোপালগঞ্জ","0916","BR577",NULL,NULL,NULL,NULL,NULL,0,NULL,NULL,"BR","2022-12-20 07:39:54","2022-12-21 06:42:29"
684,"Goalgram Madrasa Branch,Gopalganj","গোয়ালগ্রাম মাদ্রাসা শাখা,গোপালগঞ্জ","0919","BR578",NULL,NULL,NULL,NULL,NULL,0,NULL,NULL,"BR","2022-12-20 07:39:54","2022-12-21 06:42:38"
685,"Gohala Branch,Gopalganj","গোহালা শাখা,গোপালগঞ্জ","0907","BR579",NULL,NULL,NULL,NULL,NULL,0,NULL,NULL,"BR","2022-12-20 07:39:54","2022-12-21 06:42:47"
686,"Gopalganj Branch,Gopalganj","গোপালগঞ্জ শাখা,গোপালগঞ্জ","0901","BR580",NULL,NULL,NULL,NULL,NULL,0,NULL,NULL,"BR","2022-12-20 07:39:54","2022-12-21 06:42:57"
687,"Gopinathpur Branch,Gopalganj","গোপীনাথপুর শাখা,গোপালগঞ্জ","0917","BR581",NULL,NULL,NULL,NULL,NULL,0,NULL,NULL,"BR","2022-12-20 07:39:54","2022-12-21 06:43:07"
779,"Kalatala Branch, Bagerhat","কলাতলা শাখা, বাগেরহাট","1405","BR673",NULL,NULL,NULL,NULL,NULL,0,NULL,NULL,"BR","2022-12-20 07:39:54","2022-12-21 06:50:43"
689,"Kashiani Branch,Gopalganj","কাশিয়ানী শাখা,গোপালগঞ্জ","0910","BR583",NULL,NULL,NULL,NULL,NULL,0,NULL,NULL,"BR","2022-12-20 07:39:54","2022-12-21 06:43:47"
690,"Kathi Bazar Branch,Gopalganj","কাঠি বাজার শাখা,গোপালগঞ্জ","0920","BR584",NULL,NULL,NULL,NULL,NULL,0,NULL,NULL,"BR","2022-12-20 07:39:54","2022-12-21 06:43:56"
691,"Kotalipara Branch,Gopalganj","কোটালীপাড়া শাখা,গোপালগঞ্জ","0904","BR585",NULL,NULL,NULL,NULL,NULL,0,NULL,NULL,"BR","2022-12-20 07:39:54","2022-12-21 06:44:05"
692,"Muksudpur Branch,Gopalganj","মুকসুদপুর শাখা,গোপালগঞ্জ","0906","BR586",NULL,NULL,NULL,NULL,NULL,0,NULL,NULL,"BR","2022-12-20 07:39:54","2022-12-21 06:44:18"
693,"Nilfa Bazar Branch,Gopalganj","নিলফা বাজার শাখা,গোপালগঞ্জ","0922","BR587",NULL,NULL,NULL,NULL,NULL,0,NULL,NULL,"BR","2022-12-20 07:39:54","2022-12-21 06:44:30"
694,"Radhaganj Bazar Branch,Gopalganj","রাধাগঞ্জ বাজার শাখা,গোপালগঞ্জ","0905","BR588",NULL,NULL,NULL,NULL,NULL,0,NULL,NULL,"BR","2022-12-20 07:39:54","2022-12-21 06:44:39"
695,"Rajpat Branch,Gopalganj","রাজপাট শাখা,গোপালগঞ্জ","0915","BR589",NULL,NULL,NULL,NULL,NULL,0,NULL,NULL,"BR","2022-12-20 07:39:54","2022-12-21 06:44:50"
696,"Ramdia Branch,Gopalganj","রামদিয়া শাখা,গোপালগঞ্জ","0911","BR590",NULL,NULL,NULL,NULL,NULL,0,NULL,NULL,"BR","2022-12-20 07:39:54","2022-12-21 06:45:01"
697,"Ratail Bazar Branch,Gopalganj","রাতইল বাজার শাখা,গোপালগঞ্জ","0918","BR591",NULL,NULL,NULL,NULL,NULL,0,NULL,NULL,"BR","2022-12-20 07:39:54","2022-12-21 06:45:11"
698,"Tungipara Branch,Gopalganj","টুঙ্গীপাড়া শাখা,গোপালগঞ্জ","0912","BR592",NULL,NULL,NULL,NULL,NULL,0,NULL,NULL,"BR","2022-12-20 07:39:54","2022-12-21 06:45:22"
699,"Uzani Bazar Branch,Gopalganj","উজানী বাজার শাখা,গোপালগঞ্জ","0921","BR593",NULL,NULL,NULL,NULL,NULL,0,NULL,NULL,"BR","2022-12-20 07:39:54","2022-12-21 06:45:33"
700,"Bajitpur Branch,Madaripur","বাজিতপুর শাখা,মাদারীপুর","1013","BR594",NULL,NULL,NULL,NULL,NULL,0,NULL,NULL,"BR","2022-12-20 07:39:54","2022-12-21 06:56:55"
701,"Chanderchar Branch,Madaripur","চান্দেরচর শাখা,মাদারীপুর","1012","BR595",NULL,NULL,NULL,NULL,NULL,0,NULL,NULL,"BR","2022-12-20 07:39:54","2022-12-21 06:57:00"
702,"Ghatakchar Bazar Branch,Madaripur","ঘটকচর বাজার শাখা,মাদারীপুর","1014","BR596",NULL,NULL,NULL,NULL,NULL,0,NULL,NULL,"BR","2022-12-20 07:39:54","2022-12-21 06:57:08"
703,"Gopalpurhat Branch,Madaripur","গোপালপুরহাট  শাখা,মাদারীপুর","1011","BR597",NULL,NULL,NULL,NULL,NULL,0,NULL,NULL,"BR","2022-12-20 07:39:54","2022-12-21 06:57:16"
704,"Kalir Bazar Branch,Madaripur","কালির বাজার শাখা,মাদারীপুর","1010","BR598",NULL,NULL,NULL,NULL,NULL,0,NULL,NULL,"BR","2022-12-20 07:39:54","2022-12-21 06:57:23"
705,"Kalkini Branch,Madaripur","কালকিনী শাখা,মাদারীপুর","1004","BR599",NULL,NULL,NULL,NULL,NULL,0,NULL,NULL,"BR","2022-12-20 07:39:54","2022-12-21 06:57:34"
706,"Khaserhat Branch,Madaripur","খাসেরহাট শাখা,মাদারীপুর","1015","BR600",NULL,NULL,NULL,NULL,NULL,0,NULL,NULL,"BR","2022-12-20 07:39:54","2022-12-21 06:57:42"
707,"Madaripur Branch,Madaripur","মাদারীপুর শাখা,মাদারীপুর","1001","BR601",NULL,NULL,NULL,NULL,NULL,0,NULL,NULL,"BR","2022-12-20 07:39:54","2022-12-21 06:57:48"
708,"Mather Bazar Branch,Madaripur","মঠের বাজার শাখা,মাদারীপুর","1002","BR602",NULL,NULL,NULL,NULL,NULL,0,NULL,NULL,"BR","2022-12-20 07:39:54","2022-12-21 06:57:56"
709,"Pachchar Bazar Branch,Madaripur","পাঁচ্চর বাজার শাখা,মাদারীপুর","1009","BR603",NULL,NULL,NULL,NULL,NULL,0,NULL,NULL,"BR","2022-12-20 07:39:54","2022-12-21 06:58:06"
710,"Rajoir Branch,Madaripur","রাজৈর শাখা,মাদারীপুর","1003","BR604",NULL,NULL,NULL,NULL,NULL,0,NULL,NULL,"BR","2022-12-20 07:39:54","2022-12-21 06:58:13"
711,"Sahebrampur Branch,Madaripur","সাহেবরামপুর শাখা,মাদারীপুর","1005","BR605",NULL,NULL,NULL,NULL,NULL,0,NULL,NULL,"BR","2022-12-20 07:39:54","2022-12-21 06:58:22"
712,"Shibchar Branch,Madaripur","শিবচর শাখা,মাদারীপুর","1006","BR606",NULL,NULL,NULL,NULL,NULL,0,NULL,NULL,"BR","2022-12-20 07:39:54","2022-12-21 06:58:30"
713,"Tatikanda Branch,Madaripur","তাঁতীকান্দা শাখা,মাদারীপুর","1016","BR607",NULL,NULL,NULL,NULL,NULL,0,NULL,NULL,"BR","2022-12-20 07:39:54","2022-12-21 06:58:42"
714,"Utrail Branch,Madaripur","উৎরাইল শাখা,মাদারীপুর","1007","BR608",NULL,NULL,NULL,NULL,NULL,0,NULL,NULL,"BR","2022-12-20 07:39:54","2022-12-21 06:58:51"
716,"Bagdhulihat Branch,Rajbari","বাগদুলীহাট শাখা,রাজবাড়ী","1106","BR610",NULL,NULL,NULL,NULL,NULL,0,NULL,NULL,"BR","2022-12-20 07:39:54","2022-12-21 06:59:45"
717,"Bahadurpur Bazar Branch,Rajbari","বাহাদুরপুর বাজার শাখা,রাজবাড়ী","1111","BR611",NULL,NULL,NULL,NULL,NULL,0,NULL,NULL,"BR","2022-12-20 07:39:54","2022-12-21 06:59:52"
718,"Baliakandi Branch,Rajbari","বালিয়াকান্দি শাখা,রাজবাড়ী","1109","BR612",NULL,NULL,NULL,NULL,NULL,0,NULL,NULL,"BR","2022-12-20 07:39:54","2022-12-21 07:00:00"
719,"Goalunda Branch,Rajbari","গোয়ালন্দ শাখা,রাজবাড়ী","1108","BR613",NULL,NULL,NULL,NULL,NULL,0,NULL,NULL,"BR","2022-12-20 07:39:54","2022-12-21 07:00:08"
720,"Habaspur Bazar Branch,Rajbari","হাবাসপুর বাজার শাখা,রাজবাড়ী","1107","BR614",NULL,NULL,NULL,NULL,NULL,0,NULL,NULL,"BR","2022-12-20 07:39:54","2022-12-21 07:00:22"
721,"Mrigi Bazar Branch,Rajbari","মৃগী বাজার শাখা,রাজবাড়ী","1105","BR615",NULL,NULL,NULL,NULL,NULL,0,NULL,NULL,"BR","2022-12-20 07:39:54","2022-12-21 07:00:31"
722,"Mulghor Branch,Rajbari","মুলঘর শাখা,রাজবাড়ী","1113","BR616",NULL,NULL,NULL,NULL,NULL,0,NULL,NULL,"BR","2022-12-20 07:39:54","2022-12-21 07:00:43"
723,"Pachuria Bazar Branch,Rajbari","পাঁচুরিয়া বাজার শাখা,রাজবাড়ী","1102","BR617",NULL,NULL,NULL,NULL,NULL,0,NULL,NULL,"BR","2022-12-20 07:39:54","2022-12-21 07:00:50"
724,"Pangsha Branch,Rajbari","পাংশা শাখা,রাজবাড়ী","1103","BR618",NULL,NULL,NULL,NULL,NULL,0,NULL,NULL,"BR","2022-12-20 07:39:54","2022-12-21 07:00:59"
725,"Rajbari Branch,Rajbari","রাজবাড়ী শাখা,রাজবাড়ী","1101","BR619",NULL,NULL,NULL,NULL,NULL,0,NULL,NULL,"BR","2022-12-20 07:39:54","2022-12-21 07:01:06"
726,"Ratandia Branch,Rajbari","রতনদিয়া শাখা,রাজবাড়ী","1104","BR620",NULL,NULL,NULL,NULL,NULL,0,NULL,NULL,"BR","2022-12-20 07:39:54","2022-12-21 07:01:14"
727,"Sonapur Bazar Branch,Rajbari","সোনাপুর বাজার শাখা,রাজবাড়ী","1110","BR621",NULL,NULL,NULL,NULL,NULL,0,NULL,NULL,"BR","2022-12-20 07:39:54","2022-12-21 07:01:23"
728,"Sreepur Branch,Rajbari","শ্রীপুর শাখা,রাজবাড়ী","1112","BR622",NULL,NULL,NULL,NULL,NULL,0,NULL,NULL,"BR","2022-12-20 07:39:54","2022-12-21 07:01:31"
729,"Bhedorganj Branch,Shariatpur","ভেদরগঞ্জ শাখা,শরীয়তপুর","1209","BR623",NULL,NULL,NULL,NULL,NULL,0,NULL,NULL,"BR","2022-12-20 07:39:54","2022-12-21 07:02:18"
730,"Burirhat Bazar Branch,Shariatpur","বুড়িরহাট বাজার শাখা,শরীয়তপুর","1218","BR624",NULL,NULL,NULL,NULL,NULL,0,NULL,NULL,"BR","2022-12-20 07:39:54","2022-12-21 07:02:25"
731,"Chikundi Branch,Shariatpur","চিকন্দী শাখা,শরীয়তপুর","1212","BR625",NULL,NULL,NULL,NULL,NULL,0,NULL,NULL,"BR","2022-12-20 07:39:54","2022-12-21 07:02:31"
732,"Dmkhali Branch,Shariatpur","ডিএমখালী শাখা,শরীয়তপুর","1217","BR626",NULL,NULL,NULL,NULL,NULL,0,NULL,NULL,"BR","2022-12-20 07:39:54","2022-12-21 07:02:41"
748,"Batiaghata Branch, Khulna","বটিয়াঘাটা শাখা, খুলনা","1312","BR642",NULL,NULL,NULL,NULL,NULL,0,NULL,NULL,"BR","2022-12-20 07:39:54","2022-12-20 11:15:02"
749,"Biratbazar Branch, Khulna","বিরাটবাজার শাখা, খুলনা","1313","BR643",NULL,NULL,NULL,NULL,NULL,0,NULL,NULL,"BR","2022-12-20 07:39:54","2022-12-20 11:15:15"
750,"Chandkhali Branch, Khulna","চাঁদখালী শাখা, খুলনা","1321","BR644",NULL,NULL,NULL,NULL,NULL,0,NULL,NULL,"BR","2022-12-20 07:39:54","2022-12-20 11:15:26"
751,"Dacope Branch, Khulna","দাকোপ শাখা, খুলনা","1311","BR645",NULL,NULL,NULL,NULL,NULL,0,NULL,NULL,"BR","2022-12-20 07:39:54","2022-12-20 11:15:38"
752,"Daulatpur Branch, Khulna","দৌলতপুর শাখা, খুলনা","1304","BR646",NULL,NULL,NULL,NULL,NULL,0,NULL,NULL,"BR","2022-12-20 07:39:54","2022-12-20 11:15:50"
753,"Dumuria Branch, Khulna","ডুমুরিয়া শাখা, খুলনা","1308","BR647",NULL,NULL,NULL,NULL,NULL,0,NULL,NULL,"BR","2022-12-20 07:39:54","2022-12-20 11:15:58"
763,"Phultala Branch, Khulna","ফুলতলা শাখা, খুলনা","1306","BR657",NULL,NULL,NULL,NULL,NULL,0,NULL,NULL,"BR","2022-12-20 07:39:54","2022-12-20 11:16:13"
754,"Jaigirmahal Branch, Khulna","জায়গীরমহল শাখা, খুলনা","1316","BR648",NULL,NULL,NULL,NULL,NULL,0,NULL,NULL,"BR","2022-12-20 07:39:54","2022-12-20 11:16:27"
755,"Jamira Bazar Branch, Khulna","জামিরা বাজার শাখা, খুলনা","1307","BR649",NULL,NULL,NULL,NULL,NULL,0,NULL,NULL,"BR","2022-12-20 07:39:54","2022-12-20 11:16:36"
756,"Kazdia Branch, Khulna","কাজদিয়া শাখা, খুলনা","1318","BR650",NULL,NULL,NULL,NULL,NULL,0,NULL,NULL,"BR","2022-12-20 07:39:54","2022-12-20 11:16:47"
757,"KDA Bus Terminal Branch, Khulna","কেডিএ বাস টার্মিনাল শাখা, খুলনা","1319","BR651",NULL,NULL,NULL,NULL,NULL,0,NULL,NULL,"BR","2022-12-20 07:39:54","2022-12-20 11:16:58"
758,"Koyra Branch, Khulna","কয়রা শাখা, খুলনা","1317","BR652",NULL,NULL,NULL,NULL,NULL,0,NULL,NULL,"BR","2022-12-20 07:39:54","2022-12-20 11:17:26"
759,"Labonchora Branch, Khulna","লবনচরা শাখা, খুলনা","1302","BR653",NULL,NULL,NULL,NULL,NULL,0,NULL,NULL,"BR","2022-12-20 07:39:54","2022-12-20 11:17:35"
760,"Nalian Bazar Branch, Khulna","নলিয়ান বাজার শাখা, খুলনা","1322","BR654",NULL,NULL,NULL,NULL,NULL,0,NULL,NULL,"BR","2022-12-20 07:39:54","2022-12-20 11:17:48"
761,"Newmarket Branch, Khulna","নিউমার্কেট শাখা, খুলনা","1320","BR655",NULL,NULL,NULL,NULL,NULL,0,NULL,NULL,"BR","2022-12-20 07:39:54","2022-12-20 11:17:58"
762,"Paikgacha Branch, Khulna","পাইকগাছা শাখা, খুলনা","1315","BR656",NULL,NULL,NULL,NULL,NULL,0,NULL,NULL,"BR","2022-12-20 07:39:54","2022-12-20 11:18:06"
766,"Terokhada Branch, Khulna","তেরখাদা শাখা, খুলনা","1310","BR660",NULL,NULL,NULL,NULL,NULL,0,NULL,NULL,"BR","2022-12-20 07:39:54","2022-12-20 11:18:26"
764,"Rupshaghat Branch, Khulna","রূপসাঘাট শাখা, খুলনা","1303","BR658",NULL,NULL,NULL,NULL,NULL,0,NULL,NULL,"BR","2022-12-20 07:39:54","2022-12-20 11:18:38"
765,"Shahapur Branch, Khulna","শাহপুর শাখা, খুলনা","1309","BR659",NULL,NULL,NULL,NULL,NULL,0,NULL,NULL,"BR","2022-12-20 07:39:54","2022-12-20 11:18:47"
767,"Badhal Bazar Branch, Bagerhat","বাধাল বাজার শাখা, বাগেরহাট","1408","BR661",NULL,NULL,NULL,NULL,NULL,0,NULL,NULL,"BR","2022-12-20 07:39:54","2022-12-21 06:48:57"
768,"Bagerhat Branch, Bagerhat","বাগেরহাট শাখা, বাগেরহাট","1401","BR662",NULL,NULL,NULL,NULL,NULL,0,NULL,NULL,"BR","2022-12-20 07:39:54","2022-12-21 06:49:03"
769,"C&B Bazar Branch, Bagerhat","সিএন্ডবি বাজার শাখা, বাগেরহাট","1421","BR663",NULL,NULL,NULL,NULL,NULL,0,NULL,NULL,"BR","2022-12-20 07:39:54","2022-12-21 06:49:11"
770,"Chaksree Bazar Branch, Bagerhat","চাকশ্রী বাজার শাখা, বাগেরহাট","1411","BR664",NULL,NULL,NULL,NULL,NULL,0,NULL,NULL,"BR","2022-12-20 07:39:54","2022-12-21 06:49:19"
771,"Chitalmari Bazar Branch, Bagerhat","চিতলমারী বাজার শাখা, বাগেরহাট","1409","BR665",NULL,NULL,NULL,NULL,NULL,0,NULL,NULL,"BR","2022-12-20 07:39:54","2022-12-21 06:49:29"
773,"Dargah Branch, Bagerhat","দরগাহ শাখা, বাগেরহাট","1402","BR667",NULL,NULL,NULL,NULL,NULL,0,NULL,NULL,"BR","2022-12-20 07:39:54","2022-12-21 06:49:47"
774,"Fakirhat Branch, Bagerhat","ফকিরহাট শাখা, বাগেরহাট","1403","BR668",NULL,NULL,NULL,NULL,NULL,0,NULL,NULL,"BR","2022-12-20 07:39:54","2022-12-21 06:49:59"
775,"Faltita Branch, Bagerhat","ফলতিতা  শাখা, বাগেরহাট","1420","BR669",NULL,NULL,NULL,NULL,NULL,0,NULL,NULL,"BR","2022-12-20 07:39:54","2022-12-21 06:50:11"
776,"Fulhata Bazar Branch, Bagerhat","ফুলহাতা বাজার শাখা, বাগেরহাট","1414","BR670",NULL,NULL,NULL,NULL,NULL,0,NULL,NULL,"BR","2022-12-20 07:39:54","2022-12-21 06:50:21"
778,"Kachua Branch, Bagerhat","কচুয়া শাখা, বাগেরহাট","1406","BR672",NULL,NULL,NULL,NULL,NULL,0,NULL,NULL,"BR","2022-12-20 07:39:54","2022-12-21 06:50:29"
777,"Gazalia Bazar Branch, Bagerhat","গজালিয়া বাজার শাখা, বাগেরহাট","1407","BR671",NULL,NULL,NULL,NULL,NULL,0,NULL,NULL,"BR","2022-12-20 07:39:54","2022-12-21 06:51:57"
772,"Doiboggohati Branch, Bagerhat","দৈবজ্ঞহাটী শাখা, বাগেরহাট","1419","BR666",NULL,NULL,NULL,NULL,NULL,0,NULL,NULL,"BR","2022-12-20 07:39:54","2022-12-21 06:52:36"
733,"Damudda Branch,Shariatpur","ডামুড্যা শাখা,শরীয়তপুর","1210","BR627",NULL,NULL,NULL,NULL,NULL,0,NULL,NULL,"BR","2022-12-20 07:39:54","2022-12-21 07:03:19"
734,"Dogree Bazar Branch,Shariatpur","ডগ্রী বাজার শাখা,শরীয়তপুর","1216","BR628",NULL,NULL,NULL,NULL,NULL,0,NULL,NULL,"BR","2022-12-20 07:39:54","2022-12-21 07:03:25"
735,"Gharisar Bazar Branch,Shariatpur","ঘড়িসার বাজার শাখা,শরীয়তপুর","1203","BR629",NULL,NULL,NULL,NULL,NULL,0,NULL,NULL,"BR","2022-12-20 07:39:54","2022-12-21 07:03:34"
736,"Gosairhat Branch,Shariatpur","গোসাইরহাট শাখা,শরীয়তপুর","1206","BR630",NULL,NULL,NULL,NULL,NULL,0,NULL,NULL,"BR","2022-12-20 07:39:54","2022-12-21 07:03:42"
737,"Haturia Bazar Branch,Shariatpur","হাটুরিয়া বাজার শাখা,শরীয়তপুর","1214","BR631",NULL,NULL,NULL,NULL,NULL,0,NULL,NULL,"BR","2022-12-20 07:39:54","2022-12-21 07:04:39"
738,"Kaneshwar Bazar Branch,Shariatpur","কনেশ্বর বাজার শাখা,শরীয়তপুর","1211","BR632",NULL,NULL,NULL,NULL,NULL,0,NULL,NULL,"BR","2022-12-20 07:39:54","2022-12-21 07:04:53"
740,"Kodalpur Bazar Branch,Shariatpur","কোদালপুর বাজার শাখা, শরীয়তপুর","1207","BR634",NULL,NULL,NULL,NULL,NULL,0,NULL,NULL,"BR","2022-12-20 07:39:54","2022-12-21 07:05:11"
741,"Lawkhola Branch,Shariatpur","লাউখোলা শাখা,শরীয়তপুর","1205","BR635",NULL,NULL,NULL,NULL,NULL,0,NULL,NULL,"BR","2022-12-20 07:39:54","2022-12-21 07:05:19"
742,"Nagerpara Bazar Branch,Shariatpur","নাগেরপাড়া বাজার শাখা, শরীয়তপুর","1208","BR636",NULL,NULL,NULL,NULL,NULL,0,NULL,NULL,"BR","2022-12-20 07:39:54","2022-12-21 07:05:29"
743,"Naria Branch,Shariatpur","নড়িয়া শাখা,শরীয়তপুর","1202","BR637",NULL,NULL,NULL,NULL,NULL,0,NULL,NULL,"BR","2022-12-20 07:39:54","2022-12-21 07:05:36"
744,"Sakhipur Bazar Branch,Shariatpur","সখিপুর বাজার শাখা,শরীয়তপুর","1213","BR638",NULL,NULL,NULL,NULL,NULL,0,NULL,NULL,"BR","2022-12-20 07:39:54","2022-12-21 07:05:43"
745,"Shariatpur Branch,Shariatpur","শরীয়তপুর শাখা,শরীয়তপুর","1201","BR639",NULL,NULL,NULL,NULL,NULL,0,NULL,NULL,"BR","2022-12-20 07:39:54","2022-12-21 07:05:50"
746,"Zajira Branch,Shariatpur","জাজিরা শাখা,শরীয়তপুর","1204","BR640",NULL,NULL,NULL,NULL,NULL,0,NULL,NULL,"BR","2022-12-20 07:39:54","2022-12-21 07:06:38"
781,"Monglaport Branch, Bagerhat","মোংলাপোর্ট শাখা, বাগেরহাট","1416","BR675",NULL,NULL,NULL,NULL,NULL,0,NULL,NULL,"BR","2022-12-20 07:39:54","2022-12-21 06:53:06"
783,"Mukkhait Branch, Bagerhat","মুক্ষাইট  শাখা, বাগেরহাট","1418","BR677",NULL,NULL,NULL,NULL,NULL,0,NULL,NULL,"BR","2022-12-20 07:39:54","2022-12-21 06:53:25"
784,"Rampal Branch, Bagerhat","রামপাল শাখা, বাগেরহাট","1410","BR678",NULL,NULL,NULL,NULL,NULL,0,NULL,NULL,"BR","2022-12-20 07:39:54","2022-12-21 06:53:33"
785,"Rayenda Bazar Branch, Bagerhat","রায়েন্দা বাজার শাখা, বাগেরহাট","1415","BR679",NULL,NULL,NULL,NULL,NULL,0,NULL,NULL,"BR","2022-12-20 07:39:54","2022-12-21 06:53:41"
786,"Sonnashi Bazar Branch, Bagerhat","সন্ন্যাসী বাজার শাখা, বাগেরহাট","1413","BR680",NULL,NULL,NULL,NULL,NULL,0,NULL,NULL,"BR","2022-12-20 07:39:54","2022-12-21 06:53:49"
787,"Town Noapara Branch, Bagerhat","টাউন নওয়াপাড়া শাখা, বাগেরহাট","1417","BR681",NULL,NULL,NULL,NULL,NULL,0,NULL,NULL,"BR","2022-12-20 07:39:54","2022-12-21 06:53:58"
788,"Bagharpara Branch, Jashore","বাঘারপাড়া  শাখা, যশোর","1615","BR682",NULL,NULL,NULL,NULL,NULL,0,NULL,NULL,"BR","2022-12-20 07:39:54","2022-12-21 07:08:08"
789,"Chowgahcha Branch, Jashore","চৌগাছা  শাখা, যশোর","1605","BR683",NULL,NULL,NULL,NULL,NULL,0,NULL,NULL,"BR","2022-12-20 07:39:54","2022-12-21 07:08:15"
790,"Gopalpur Bazar Branch, Jashore","গোপালপুর বাজার শাখা, যশোর","1610","BR684",NULL,NULL,NULL,NULL,NULL,0,NULL,NULL,"BR","2022-12-20 07:39:54","2022-12-21 07:08:23"
791,"Hassanpur Branch, Jashore","হাসানপুর  শাখা, যশোর","1618","BR685",NULL,NULL,NULL,NULL,NULL,0,NULL,NULL,"BR","2022-12-20 07:39:54","2022-12-21 07:08:31"
792,"Jagadishpur Branch, Jashore","জগদীশপুর  শাখা, যশোর","1606","BR686",NULL,NULL,NULL,NULL,NULL,0,NULL,NULL,"BR","2022-12-20 07:39:54","2022-12-21 07:08:40"
793,"Jashore Branch, Jashore","যশোর শাখা, যশোর","1601","BR687",NULL,NULL,NULL,NULL,NULL,0,NULL,NULL,"BR","2022-12-20 07:39:54","2022-12-21 07:08:49"
794,"Jhikargacha Branch, Jashore","ঝিকরগাছা  শাখা, যশোর","1603","BR688",NULL,NULL,NULL,NULL,NULL,0,NULL,NULL,"BR","2022-12-20 07:39:54","2022-12-21 07:09:31"
795,"Kalagachi Branch, Jashore","কলাগাছি শাখা, যশোর","1622","BR689",NULL,NULL,NULL,NULL,NULL,0,NULL,NULL,"BR","2022-12-20 07:39:54","2022-12-21 07:09:39"
796,"Kayemkola Bazar Branch, Jashore","কায়েমকোলা বাজার শাখা, যশোর","1617","BR690",NULL,NULL,NULL,NULL,NULL,0,NULL,NULL,"BR","2022-12-20 07:39:54","2022-12-21 07:09:46"
797,"Keshobpur Branch, Jashore","কেশবপুর  শাখা, যশোর","1612","BR691",NULL,NULL,NULL,NULL,NULL,0,NULL,NULL,"BR","2022-12-20 07:39:54","2022-12-21 07:09:54"
798,"Khedapara Bazar Branch, Jashore","খেদাপাড়া বাজার শাখা, যশোর","1619","BR692",NULL,NULL,NULL,NULL,NULL,0,NULL,NULL,"BR","2022-12-20 07:39:54","2022-12-21 07:10:00"
799,"Kuada Bazar Branch, Jashore","কুয়াদা বাজার  শাখা, যশোর","1611","BR693",NULL,NULL,NULL,NULL,NULL,0,NULL,NULL,"BR","2022-12-20 07:39:54","2022-12-21 07:10:10"
800,"Lakshanpur Bazar Branch, Jashore","লক্ষণপুর বাজার শাখা, যশোর","1608","BR694",NULL,NULL,NULL,NULL,NULL,0,NULL,NULL,"BR","2022-12-20 07:39:54","2022-12-21 07:10:17"
801,"Monirampur Branch, Jashore","মনিরামপুর  শাখা, যশোর","1609","BR695",NULL,NULL,NULL,NULL,NULL,0,NULL,NULL,"BR","2022-12-20 07:39:54","2022-12-21 07:10:23"
803,"Narayanpur Bazar Branch, Jashore","নারায়ণপুর বাজার শাখা, যশোর","1616","BR697",NULL,NULL,NULL,NULL,NULL,0,NULL,NULL,"BR","2022-12-20 07:39:54","2022-12-21 07:10:31"
802,"Mosiahati Branch, Jashore","মশিয়াহাটি  শাখা, যশোর","1614","BR696",NULL,NULL,NULL,NULL,NULL,0,NULL,NULL,"BR","2022-12-20 07:39:54","2022-12-21 07:10:47"
804,"Navaron Branch, Jashore","নাভারন  শাখা, যশোর","1604","BR698",NULL,NULL,NULL,NULL,NULL,0,NULL,NULL,"BR","2022-12-20 07:39:54","2022-12-21 07:10:54"
805,"Noapara Branch, Jashore","নওয়াপাড়া  শাখা, যশোর","1613","BR699",NULL,NULL,NULL,NULL,NULL,0,NULL,NULL,"BR","2022-12-20 07:39:54","2022-12-21 07:11:08"
806,"Rupdia Branch, Jashore","রূপদিয়া শাখা, যশোর","1602","BR700",NULL,NULL,NULL,NULL,NULL,0,NULL,NULL,"BR","2022-12-20 07:39:54","2022-12-21 07:11:16"
807,"Sharsha Branch, Jashore","শার্শা  শাখা, যশোর","1607","BR701",NULL,NULL,NULL,NULL,NULL,0,NULL,NULL,"BR","2022-12-20 07:39:54","2022-12-21 07:11:23"
808,"Singhajully Bazar Branch, Jashore","সিংহঝুলি বাজার শাখা, যশোর","1620","BR702",NULL,NULL,NULL,NULL,NULL,0,NULL,NULL,"BR","2022-12-20 07:39:54","2022-12-21 07:11:30"
809,"Habokhali Branch, Narail","হবখালী শাখা, নড়াইল","2207","BR704",NULL,NULL,NULL,NULL,NULL,0,NULL,NULL,"BR","2022-12-20 07:39:54","2022-12-21 07:12:03"
810,"Kalia Branch, Narail","কালিয়া শাখা, নড়াইল","2205","BR705",NULL,NULL,NULL,NULL,NULL,0,NULL,NULL,"BR","2022-12-20 07:39:54","2022-12-21 07:12:10"
811,"Lahoria Bazar Branch, Narail","লাহুড়িয়া বাজার শাখা, নড়াইল","2204","BR706",NULL,NULL,NULL,NULL,NULL,0,NULL,NULL,"BR","2022-12-20 07:39:54","2022-12-21 07:12:18"
812,"Lohagora Branch, Narail","লোহাগড়া শাখা, নড়াইল","2203","BR707",NULL,NULL,NULL,NULL,NULL,0,NULL,NULL,"BR","2022-12-20 07:39:54","2022-12-21 07:12:27"
813,"Naragati Bazar Branch, Narail","নড়াগাতী বাজার শাখা, নড়াইল","2208","BR708",NULL,NULL,NULL,NULL,NULL,0,NULL,NULL,"BR","2022-12-20 07:39:54","2022-12-21 07:12:46"
814,"Narail Branch, Narail","নড়াইল শাখা, নড়াইল","2201","BR709",NULL,NULL,NULL,NULL,NULL,0,NULL,NULL,"BR","2022-12-20 07:39:54","2022-12-21 07:12:52"
815,"Sheikhati Bazar Branch, Narail","শেখহাটী বাজার শাখা, নড়াইল","2202","BR710",NULL,NULL,NULL,NULL,NULL,0,NULL,NULL,"BR","2022-12-20 07:39:54","2022-12-21 07:12:59"
816,"Ashashuni Branch, Satkhira","আশাশুনি শাখা, সাতক্ষীরা","1509","BR711",NULL,NULL,NULL,NULL,NULL,0,NULL,NULL,"BR","2022-12-20 07:39:54","2022-12-21 07:13:40"
818,"Bhomra Sthal Bandor Branch, Satkhira","ভোমরা স্থল বন্দর শাখা, সাতক্ষীরা","1518","BR713",NULL,NULL,NULL,NULL,NULL,0,NULL,NULL,"BR","2022-12-20 07:39:54","2022-12-21 07:14:06"
817,"Baliadanga Bazar Branch, Satkhira","বালিয়াডাংগা বাজার শাখা, সাতক্ষীরা","1506","BR712",NULL,NULL,NULL,NULL,NULL,0,NULL,NULL,"BR","2022-12-20 07:39:54","2022-12-21 07:13:53"
819,"Debhata Branch, Satkhira","দেবহাটা শাখা, সাতক্ষীরা","1511","BR714",NULL,NULL,NULL,NULL,NULL,0,NULL,NULL,"BR","2022-12-20 07:39:54","2022-12-21 07:14:12"
820,"Dulihar Bazar Branch, Satkhira","ধূলিহর বাজার শাখা, সাতক্ষীরা","1503","BR715",NULL,NULL,NULL,NULL,NULL,0,NULL,NULL,"BR","2022-12-20 07:39:54","2022-12-21 07:14:23"
822,"Gunakarkati Branch, Satkhira","গুনাকরকাটি শাখা, সাতক্ষীরা","1510","BR717",NULL,NULL,NULL,NULL,NULL,0,NULL,NULL,"BR","2022-12-20 07:39:54","2022-12-21 07:14:44"
821,"Ghona Branch, Satkhira","ঘোনা শাখা, সাতক্ষীরা","1502","BR716",NULL,NULL,NULL,NULL,NULL,0,NULL,NULL,"BR","2022-12-20 07:39:54","2022-12-21 07:14:34"
823,"Kalaroa Branch, Satkhira","কলারোয়া শাখা, সাতক্ষীরা","1505","BR718",NULL,NULL,NULL,NULL,NULL,0,NULL,NULL,"BR","2022-12-20 07:39:54","2022-12-21 07:14:52"
824,"Kaligonj Branch, Satkhira","কালিগঞ্জ শাখা, সাতক্ষীরা","1513","BR719",NULL,NULL,NULL,NULL,NULL,0,NULL,NULL,"BR","2022-12-20 07:39:54","2022-12-21 07:14:59"
825,"Khordu Bazar Branch, Satkhira","খোরদো বাজার শাখা, সাতক্ষীরা","1507","BR720",NULL,NULL,NULL,NULL,NULL,0,NULL,NULL,"BR","2022-12-20 07:39:54","2022-12-21 07:15:10"
826,"Krishnanagar Branch, Satkhira","কৃষ্ণনগর শাখা, সাতক্ষীরা","1514","BR721",NULL,NULL,NULL,NULL,NULL,0,NULL,NULL,"BR","2022-12-20 07:39:54","2022-12-21 07:15:16"
829,"Satkhira Branch, Satkhira","সাতক্ষীরা শাখা, সাতক্ষীরা","1501","BR724",NULL,NULL,NULL,NULL,NULL,0,NULL,NULL,"BR","2022-12-20 07:39:54","2022-12-21 07:15:34"
828,"Sakhipur Branch, Satkhira","সখিপুর শাখা, সাতক্ষীরা","1512","BR723",NULL,NULL,NULL,NULL,NULL,0,NULL,NULL,"BR","2022-12-20 07:39:54","2022-12-21 07:15:45"
830,"Shymnagar Branch, Satkhira","শ্যামনগর শাখা, সাতক্ষীরা","1515","BR725",NULL,NULL,NULL,NULL,NULL,0,NULL,NULL,"BR","2022-12-20 07:39:54","2022-12-21 07:15:53"
831,"Sonabaria Bazar Branch, Satkhira","সোনাবাড়িয়া বাজার শাখা, সাতক্ষীরা","1508","BR726",NULL,NULL,NULL,NULL,NULL,0,NULL,NULL,"BR","2022-12-20 07:39:54","2022-12-21 07:16:02"
832,"Tala Branch, Satkhira","তালা শাখা, সাতক্ষীরা","1504","BR727",NULL,NULL,NULL,NULL,NULL,0,NULL,NULL,"BR","2022-12-20 07:39:54","2022-12-21 07:16:12"
833,"Ailchara Branch, Kushtia","আইলচারা শাখা, কুষ্টিয়া","1902","BR728",NULL,NULL,NULL,NULL,NULL,0,NULL,NULL,"BR","2022-12-20 07:39:54","2022-12-21 07:43:08"
834,"Amla Branch, Kushtia","আমলা শাখা, কুষ্টিয়া","1906","BR729",NULL,NULL,NULL,NULL,NULL,0,NULL,NULL,"BR","2022-12-20 07:39:54","2022-12-21 07:43:14"
835,"Bahalbaria Branch, Kushtia","বহলবাড়িয়া শাখা, কুষ্টিয়া","1907","BR730",NULL,NULL,NULL,NULL,NULL,0,NULL,NULL,"BR","2022-12-20 07:39:54","2022-12-21 07:43:21"
836,"Bara Bazar Branch, Kushtia","বড় বাজার শাখা, কুষ্টিয়া","1917","BR731",NULL,NULL,NULL,NULL,NULL,0,NULL,NULL,"BR","2022-12-20 07:39:54","2022-12-21 07:43:30"
837,"Barakhada Branch, Kushtia","বারখাদা শাখা, কুষ্টিয়া","1904","BR732",NULL,NULL,NULL,NULL,NULL,0,NULL,NULL,"BR","2022-12-20 07:39:54","2022-12-21 07:43:41"
838,"Bheramara Branch, Kushtia","ভেড়ামারা শাখা, কুষ্টিয়া","1908","BR733",NULL,NULL,NULL,NULL,NULL,0,NULL,NULL,"BR","2022-12-20 07:39:54","2022-12-21 07:43:49"
840,"Daulatpur Branch, Kushtia","দৌলতপুর শাখা, কুষ্টিয়া","1911","BR735",NULL,NULL,NULL,NULL,NULL,0,NULL,NULL,"BR","2022-12-20 07:39:54","2022-12-21 07:44:04"
841,"Jhaudia Branch, Kushtia","ঝাউদিয়া শাখা, কুষ্টিয়া","1903","BR736",NULL,NULL,NULL,NULL,NULL,0,NULL,NULL,"BR","2022-12-20 07:39:54","2022-12-21 07:44:11"
842,"Juniadah Branch, Kushtia","জুনিয়াদহ শাখা, কুষ্টিয়া","1909","BR737",NULL,NULL,NULL,NULL,NULL,0,NULL,NULL,"BR","2022-12-20 07:39:54","2022-12-21 07:44:21"
843,"Khoksa Branch, Kushtia","খোকসা শাখা, কুষ্টিয়া","1915","BR738",NULL,NULL,NULL,NULL,NULL,0,NULL,NULL,"BR","2022-12-20 07:39:54","2022-12-21 07:44:28"
844,"Kuchiamura Bazar Branch, Kushtia","কুচিয়ামোড়া বাজার শাখা, কুষ্টিয়া","1910","BR739",NULL,NULL,NULL,NULL,NULL,0,NULL,NULL,"BR","2022-12-20 07:39:54","2022-12-21 07:44:36"
845,"Kumarkhali Branch, Kushtia","কুমারখালী শাখা, কুষ্টিয়া","1913","BR740",NULL,NULL,NULL,NULL,NULL,0,NULL,NULL,"BR","2022-12-20 07:39:54","2022-12-21 07:44:43"
846,"Kushtia Branch, Kushtia","কুষ্টিয়া শাখা, কুষ্টিয়া","1901","BR741",NULL,NULL,NULL,NULL,NULL,0,NULL,NULL,"BR","2022-12-20 07:39:54","2022-12-21 07:44:50"
847,"Mirpur Branch, Kushtia","মিরপুর শাখা, কুষ্টিয়া","1905","BR742",NULL,NULL,NULL,NULL,NULL,0,NULL,NULL,"BR","2022-12-20 07:39:54","2022-12-21 07:45:02"
848,"Modhupur Bazar Branch, Kushtia","মধুপুর বাজার শাখা, কুষ্টিয়া","1914","BR743",NULL,NULL,NULL,NULL,NULL,0,NULL,NULL,"BR","2022-12-20 07:39:54","2022-12-21 07:45:09"
849,"Alamdanga Branch, Chuadanga","আলমডাঙ্গা শাখা, চুয়াডাঙ্গা","2003","BR744",NULL,NULL,NULL,NULL,NULL,0,NULL,NULL,"BR","2022-12-20 07:39:54","2022-12-21 07:46:12"
850,"Badarganj Bazar Branch, Chuadanga","বদরগঞ্জ বাজার শাখা, চুয়াডাঙ্গা","2002","BR745",NULL,NULL,NULL,NULL,NULL,0,NULL,NULL,"BR","2022-12-20 07:39:54","2022-12-21 07:46:19"
851,"Chuadanga Branch, Chuadanga","চুয়াডাঙ্গা শাখা, চুয়াডাঙ্গা","2001","BR746",NULL,NULL,NULL,NULL,NULL,0,NULL,NULL,"BR","2022-12-20 07:39:54","2022-12-21 07:46:25"
852,"Damurhuda Branch, Chuadanga","দামুড়হুদা শাখা, চুয়াডাঙ্গা","2004","BR747",NULL,NULL,NULL,NULL,NULL,0,NULL,NULL,"BR","2022-12-20 07:39:54","2022-12-21 07:46:33"
853,"Gholdari Bazar Branch, Chuadanga","ঘোলদাড়ী বাজার শাখা, চুয়াডাঙ্গা","2011","BR748",NULL,NULL,NULL,NULL,NULL,0,NULL,NULL,"BR","2022-12-20 07:39:54","2022-12-21 07:52:38"
854,"Hizalgari Branch, Chuadanga","হিজলগাড়ী শাখা, চুয়াডাঙ্গা","2007","BR749",NULL,NULL,NULL,NULL,NULL,0,NULL,NULL,"BR","2022-12-20 07:39:54","2022-12-21 07:52:44"
855,"Jagannathpur Branch, Chuadanga","জগন্নাথপুর শাখা, চুয়াডাঙ্গা","2008","BR750",NULL,NULL,NULL,NULL,NULL,0,NULL,NULL,"BR","2022-12-20 07:39:54","2022-12-21 07:52:49"
856,"Jamjami Bazar Branch, Chuadanga","জামজামি বাজার শাখা, চুয়াডাঙ্গা","2009","BR751",NULL,NULL,NULL,NULL,NULL,0,NULL,NULL,"BR","2022-12-20 07:39:54","2022-12-21 07:52:57"
857,"Jiban Nagar Branch, Chuadanga","জীবন নগর শাখা, চুয়াডাঙ্গা","2005","BR752",NULL,NULL,NULL,NULL,NULL,0,NULL,NULL,"BR","2022-12-20 07:39:54","2022-12-21 07:53:05"
858,"Juranpur Branch, Chuadanga","জুড়ানপুর শাখা, চুয়াডাঙ্গা","2010","BR753",NULL,NULL,NULL,NULL,NULL,0,NULL,NULL,"BR","2022-12-20 07:39:54","2022-12-21 07:53:16"
859,"Uthali Branch, Chuadanga","উথলি শাখা, চুয়াডাঙ্গা","2006","BR754",NULL,NULL,NULL,NULL,NULL,0,NULL,NULL,"BR","2022-12-20 07:39:54","2022-12-21 07:53:22"
860,"Baliadanga Branch, Jhenaidah","বালিয়াডাঙ্গা শাখা, ঝিনাইদহ","1708","BR755",NULL,NULL,NULL,NULL,NULL,0,NULL,NULL,"BR","2022-12-20 07:39:54","2022-12-21 07:54:03"
861,"Bhairaba Bazar Branch, Jhenaidah","ভৈরবা বাজার শাখা, ঝিনাইদহ","1712","BR756",NULL,NULL,NULL,NULL,NULL,0,NULL,NULL,"BR","2022-12-20 07:39:54","2022-12-21 07:54:09"
862,"Bhalki Bazar Branch, Jhenaidah","ভালকী বাজার শাখা, ঝিনাইদহ","1704","BR757",NULL,NULL,NULL,NULL,NULL,0,NULL,NULL,"BR","2022-12-20 07:39:54","2022-12-21 07:54:16"
863,"Bhatoi Bazar Branch, Jhenaidah","ভাটই বাজার শাখা, ঝিনাইদহ","1706","BR758",NULL,NULL,NULL,NULL,NULL,0,NULL,NULL,"BR","2022-12-20 07:39:54","2022-12-21 07:54:25"
864,"Halidhani Branch, Jhenaidah","হলিধানী শাখা, ঝিনাইদহ","1702","BR759",NULL,NULL,NULL,NULL,NULL,0,NULL,NULL,"BR","2022-12-20 07:39:54","2022-12-21 07:54:46"
865,"Harinakunda Branch, Jhenaidah","হরিনাকুন্ডু শাখা, ঝিনাইদহ","1703","BR760",NULL,NULL,NULL,NULL,NULL,0,NULL,NULL,"BR","2022-12-20 07:39:54","2022-12-21 07:54:53"
866,"Jhenaidah Branch, Jhenaidah","ঝিনাইদহ শাখা, ঝিনাইদহ","1701","BR761",NULL,NULL,NULL,NULL,NULL,0,NULL,NULL,"BR","2022-12-20 07:39:54","2022-12-21 07:54:59"
867,"Kachua Bazar Branch, Jhenaidah","কচুয়া বাজার শাখা, ঝিনাইদহ","1715","BR762",NULL,NULL,NULL,NULL,NULL,0,NULL,NULL,"BR","2022-12-20 07:39:54","2022-12-21 07:55:40"
868,"Kaliganj Branch, Jhenaidah","কালীগঞ্জ শাখা, ঝিনাইদহ","1707","BR763",NULL,NULL,NULL,NULL,NULL,0,NULL,NULL,"BR","2022-12-20 07:39:54","2022-12-21 07:55:46"
869,"Kastosagora Bazar Branch, Jhenaidah","কাস্টসাগরা বাজার শাখা, ঝিনাইদহ","1713","BR764",NULL,NULL,NULL,NULL,NULL,0,NULL,NULL,"BR","2022-12-20 07:39:54","2022-12-21 07:55:55"
870,"Khulumbaria Branch, Jhenaidah","খুলুমবাড়ীয়া শাখা, ঝিনাইদহ","1714","BR765",NULL,NULL,NULL,NULL,NULL,0,NULL,NULL,"BR","2022-12-20 07:39:54","2022-12-21 07:56:03"
871,"Courtchandpur Branch, Jhenaidah","কোর্টচাঁদপুর শাখা, ঝিনাইদহ","1711","BR766",NULL,NULL,NULL,NULL,NULL,0,NULL,NULL,"BR","2022-12-20 07:39:54","2022-12-21 07:56:14"
873,"Shailkupa Branch, Jhenaidah","শৈলকুপা শাখা, ঝিনাইদহ","1705","BR768",NULL,NULL,NULL,NULL,NULL,0,NULL,NULL,"BR","2022-12-20 07:39:54","2022-12-21 07:57:20"
874,"Shingi Bazar Branch, Jhenaidah","সিংগী বাজার শাখা, ঝিনাইদহ","1709","BR769",NULL,NULL,NULL,NULL,NULL,0,NULL,NULL,"BR","2022-12-20 07:39:54","2022-12-21 07:57:31"
875,"Alamkhali Bazar Branch, Magura","আলমখালী বাজার শাখা, মাগুরা","1814","BR770",NULL,NULL,NULL,NULL,NULL,0,NULL,NULL,"BR","2022-12-20 07:39:54","2022-12-21 07:57:58"
876,"Alokdia Branch, Magura","আলোকদিয়া শাখা, মাগুরা","1802","BR771",NULL,NULL,NULL,NULL,NULL,0,NULL,NULL,"BR","2022-12-20 07:39:54","2022-12-21 07:58:06"
877,"Amuria Bazar Branch, Magura","আমুড়িয়া বাজার শাখা, মাগুরা","1811","BR772",NULL,NULL,NULL,NULL,NULL,0,NULL,NULL,"BR","2022-12-20 07:39:54","2022-12-21 07:58:15"
878,"Arpara Branch, Magura","আড়পাড়া শাখা, মাগুরা","1806","BR773",NULL,NULL,NULL,NULL,NULL,0,NULL,NULL,"BR","2022-12-20 07:39:54","2022-12-21 07:58:23"
879,"Binodpur Branch, Magura","বিনোদপুর শাখা, মাগুরা","1808","BR774",NULL,NULL,NULL,NULL,NULL,0,NULL,NULL,"BR","2022-12-20 07:39:54","2022-12-21 07:58:34"
880,"Bhabanhati Bazar Branch, Magura","ভাবনহাটী বাজার শাখা, মাগুরা","1810","BR775",NULL,NULL,NULL,NULL,NULL,0,NULL,NULL,"BR","2022-12-20 07:39:54","2022-12-21 07:58:45"
882,"Jagdal  Branch, Magura","জগদল  শাখা, মাগুরা","1809","BR777",NULL,NULL,NULL,NULL,NULL,0,NULL,NULL,"BR","2022-12-20 07:39:54","2022-12-21 07:58:58"
883,"Langalband Branch, Magura","লাঙ্গলবাধঁ শাখা, মাগুরা","1804","BR778",NULL,NULL,NULL,NULL,NULL,0,NULL,NULL,"BR","2022-12-20 07:39:54","2022-12-21 07:59:06"
884,"Magura Branch, Magura","মাগুরা শাখা, মাগুরা","1801","BR779",NULL,NULL,NULL,NULL,NULL,0,NULL,NULL,"BR","2022-12-20 07:39:54","2022-12-21 07:59:12"
885,"Mohammadpur Branch, Magura","মহম্মদপুর শাখা, মাগুরা","1807","BR780",NULL,NULL,NULL,NULL,NULL,0,NULL,NULL,"BR","2022-12-20 07:39:54","2022-12-21 07:59:18"
886,"Nagra Bazar Branch, Magura","নাগড়া বাজার শাখা, মাগুরা","1813","BR781",NULL,NULL,NULL,NULL,NULL,0,NULL,NULL,"BR","2022-12-20 07:39:54","2022-12-21 07:59:26"
887,"Radhanagar  Branch, Magura","রাধানগর  শাখা, মাগুরা","1812","BR782",NULL,NULL,NULL,NULL,NULL,0,NULL,NULL,"BR","2022-12-20 07:39:54","2022-12-21 07:59:34"
888,"Sachilapur Bazar Branch, Magura","সাচিলাপুর বাজার শাখা, মাগুরা","1805","BR783",NULL,NULL,NULL,NULL,NULL,0,NULL,NULL,"BR","2022-12-20 07:39:54","2022-12-21 07:59:40"
889,"Satrujitpur Branch, Magura","শত্রুজিৎপুর শাখা, মাগুরা","1815","BR784",NULL,NULL,NULL,NULL,NULL,0,NULL,NULL,"BR","2022-12-20 07:39:54","2022-12-21 07:59:48"
890,"Sreepur Branch, Magura","শ্রীপুর শাখা, মাগুরা","1803","BR785",NULL,NULL,NULL,NULL,NULL,0,NULL,NULL,"BR","2022-12-20 07:39:54","2022-12-21 07:59:57"
891,"Baradi Branch, Meherpur","বারাদী শাখা, মেহেরপুর","2102","BR786",NULL,NULL,NULL,NULL,NULL,0,NULL,NULL,"BR","2022-12-20 07:39:54","2022-12-21 08:00:30"
892,"Dariapur Branch, Meherpur","দারিয়াপুর শাখা, মেহেরপুর","2103","BR787",NULL,NULL,NULL,NULL,NULL,0,NULL,NULL,"BR","2022-12-20 07:39:54","2022-12-21 08:00:40"
893,"Gangni Branch, Meherpur","গাংনী শাখা, মেহেরপুর","2104","BR788",NULL,NULL,NULL,NULL,NULL,0,NULL,NULL,"BR","2022-12-20 07:39:54","2022-12-21 08:00:49"
894,"Kathuli Branch, Meherpur","কাথুলী শাখা, মেহেরপুর","2106","BR789",NULL,NULL,NULL,NULL,NULL,0,NULL,NULL,"BR","2022-12-20 07:39:54","2022-12-21 08:00:55"
895,"Meherpur Branch, Meherpur","মেহেরপুর শাখা, মেহেরপুর","2101","BR790",NULL,NULL,NULL,NULL,NULL,0,NULL,NULL,"BR","2022-12-20 07:39:54","2022-12-21 08:01:07"
896,"Mujibnagar Branch, Meherpur","মুজিবনগর শাখা, মেহেরপুর","2107","BR791",NULL,NULL,NULL,NULL,NULL,0,NULL,NULL,"BR","2022-12-20 07:39:54","2022-12-21 08:01:13"
897,"Uzalpur Branch, Meherpur","উজলপুর শাখা, মেহেরপুর","2105","BR792",NULL,NULL,NULL,NULL,NULL,0,NULL,NULL,"BR","2022-12-20 07:39:54","2022-12-21 08:01:20"
898,"Dhobawra Branch, Mymensingh (North)","ধোবাউড়া শাখা, ময়মনসিংহ(উঃ)","4740","BR793",NULL,NULL,NULL,NULL,NULL,0,NULL,NULL,"BR","2022-12-20 07:39:54","2022-12-21 08:04:10"
899,"Dhurail Bazar Branch, Mymensingh (North)","ধুরাইল বাজার শাখা, ময়মনসিংহ(উঃ)","5401","BR794",NULL,NULL,NULL,NULL,NULL,0,NULL,NULL,"BR","2022-12-20 07:39:54","2022-12-21 08:04:26"
910,"Nandail Branch, Mymensingh (North)","নান্দাইল শাখা, ময়মনসিংহ(উঃ)","4733","BR805",NULL,NULL,NULL,NULL,NULL,0,NULL,NULL,"BR","2022-12-20 07:39:54","2022-12-27 10:27:54"
908,"Madhupur Bazar Branch, Mymensingh (North)","মধুপুর বাজার শাখা, ময়মনসিংহ(উঃ)","4731","BR803",NULL,NULL,NULL,NULL,NULL,0,NULL,NULL,"BR","2022-12-20 07:39:54","2022-12-21 08:10:31"
900,"Dawhakhola Bazar Branch, Mymensingh (North)","ডৌহাখোলা বাজার শাখা, ময়মনসিংহ(উঃ)","4729","BR795",NULL,NULL,NULL,NULL,NULL,0,NULL,NULL,"BR","2022-12-20 07:39:54","2022-12-27 10:23:30"
911,"Fulpur Branch, Mymensingh (North)","ফুলপুর শাখা, ময়মনসিংহ(উঃ)","4725","BR806",NULL,NULL,NULL,NULL,NULL,0,NULL,NULL,"BR","2022-12-20 07:39:54","2022-12-27 10:28:10"
912,"Sohagi Bazar Branch, Mymensingh (North)","সোহাগী বাজার শাখা, ময়মনসিংহ(উঃ)","4732","BR807",NULL,NULL,NULL,NULL,NULL,0,NULL,NULL,"BR","2022-12-20 07:39:54","2022-12-27 10:28:23"
913,"Tarakanda Branch, Mymensingh (North)","তারাকান্দা শাখা, ময়মনসিংহ(উঃ)","4727","BR808",NULL,NULL,NULL,NULL,NULL,0,NULL,NULL,"BR","2022-12-20 07:39:54","2022-12-27 10:28:33"
914,"Agri.Varsity Branch, Mymensingh (South)","কৃষি বিশ্ববিদ্যালয় শাখা, ময়মনসিংহ(দঃ)","4704","BR809",NULL,NULL,NULL,NULL,NULL,0,NULL,NULL,"BR","2022-12-20 07:39:54","2022-12-27 10:28:43"
915,"Ambikaganj Bazar Branch, Mymensingh (South)","অম্বিকাগঞ্জ বাজার শাখা, ময়মনসিংহ(দঃ)","4705","BR810",NULL,NULL,NULL,NULL,NULL,0,NULL,NULL,"BR","2022-12-20 07:39:54","2022-12-27 10:28:58"
901,"Gouripur Branch, Mymensingh (North)","গৌরীপুর শাখা, ময়মনসিংহ(উঃ)","4728","BR796",NULL,NULL,NULL,NULL,NULL,0,NULL,NULL,"BR","2022-12-20 07:39:54","2022-12-27 10:29:14"
902,"Haluaghat Branch, Mymensingh (North)","হালুয়াঘাট শাখা, ময়মনসিংহ(উঃ)","4723","BR797",NULL,NULL,NULL,NULL,NULL,0,NULL,NULL,"BR","2022-12-20 07:39:54","2022-12-27 10:29:26"
903,"Ishwarganj Branch, Mymensingh (North)","ঈশ্বরগঞ্জ শাখা, ময়মনসিংহ(উঃ)","4730","BR798",NULL,NULL,NULL,NULL,NULL,0,NULL,NULL,"BR","2022-12-20 07:39:54","2022-12-27 10:29:36"
907,"Moazzempur Branch, Mymensingh (North)","মোয়াজ্জেমপুর শাখা, ময়মনসিংহ(উঃ)","4738","BR802",NULL,NULL,NULL,NULL,NULL,0,NULL,NULL,"BR","2022-12-20 07:39:54","2022-12-27 10:31:24"
905,"Maizbag Bazar Branch, Mymensingh (North)","মাই্জবাগ বাজার শাখা, ময়মনসিংহ(উঃ)","4741","BR800",NULL,NULL,NULL,NULL,NULL,0,NULL,NULL,"BR","2022-12-20 07:39:54","2022-12-27 10:32:59"
909,"Nagla Bazar Branch, Mymensingh (North)","নাগলা বাজার শাখা, ময়মনসিংহ(উঃ)","4724","BR804",NULL,NULL,NULL,NULL,NULL,0,NULL,NULL,"BR","2022-12-20 07:39:54","2022-12-27 10:33:20"
906,"Maziyali Branch, Mymensingh (North)","মাঝিয়ালী শাখা, ময়মনসিংহ(উঃ)","4739","BR801",NULL,NULL,NULL,NULL,NULL,0,NULL,NULL,"BR","2022-12-20 07:39:54","2022-12-27 10:33:52"
904,"Kashiganj (Ful) Bazar Branch, Mymensingh (North)","কাশিগঞ্জ বাজার (ফুল) শাখা, ময়মনসিংহ(উঃ)","4726","BR799",NULL,NULL,NULL,NULL,NULL,0,NULL,NULL,"BR","2022-12-20 07:39:54","2022-12-27 10:34:33"
918,"Batajor Branch, Mymensingh (South)","বাটাজোর শাখা, ময়মনসিংহ(দঃ)","4744","BR813",NULL,NULL,NULL,NULL,NULL,0,NULL,NULL,"BR","2022-12-20 07:39:54","2022-12-21 08:09:28"
923,"Dakatia Chourasta Bazar Branch, Mymensingh (South)","ডাকাতিয়া বাজার চৌরাস্তা শাখা, ময়মনসিংহ(দঃ)","4743","BR818",NULL,NULL,NULL,NULL,NULL,0,NULL,NULL,"BR","2022-12-20 07:39:54","2022-12-21 08:10:01"
936,"Shushuti Bazar Branch, Mymensingh (South)","শুশুতি বাজার শাখা, ময়মনসিংহ(দঃ)","4742","BR831",NULL,NULL,NULL,NULL,NULL,0,NULL,NULL,"BR","2022-12-20 07:39:54","2022-12-21 08:10:46"
1046,"Jaintapur Branch, Sylhet","জৈন্তাপুর শাখা, সিলেট","3606","BR941",NULL,NULL,NULL,NULL,NULL,0,NULL,NULL,"BR","2022-12-20 07:39:54","2022-12-27 09:42:06"
938,"Bahadurabad Branch, Jamalpur","বাহাদুরাবাদ শাখা, জামালপুর","5212","BR833",NULL,NULL,NULL,NULL,NULL,0,NULL,NULL,"BR","2022-12-20 07:39:54","2022-12-27 10:12:10"
939,"Baruamari Branch, Jamalpur","বারুয়ামারী শাখা, জামালপুর","5217","BR834",NULL,NULL,NULL,NULL,NULL,0,NULL,NULL,"BR","2022-12-20 07:39:54","2022-12-27 10:12:18"
940,"Baushi Bangali Branch, Jamalpur","বাউসী বাঙ্গালী শাখা, জামালপুর","5207","BR835",NULL,NULL,NULL,NULL,NULL,0,NULL,NULL,"BR","2022-12-20 07:39:54","2022-12-27 10:12:40"
941,"Bhabki Bazar Branch, Jamalpur","ভাবকী বাজার শাখা, জামালপুর","5219","BR836",NULL,NULL,NULL,NULL,NULL,0,NULL,NULL,"BR","2022-12-20 07:39:54","2022-12-27 10:12:48"
942,"Bhatara Bazar Branch, Jamalpur","ভাটারা বাজার শাখা, জামালপুর","5223","BR837",NULL,NULL,NULL,NULL,NULL,0,NULL,NULL,"BR","2022-12-20 07:39:54","2022-12-27 10:12:54"
943,"Bakshiganj Branch, Jamalpur","বকশীগঞ্জ শাখা, জামালপুর","5215","BR838",NULL,NULL,NULL,NULL,NULL,0,NULL,NULL,"BR","2022-12-20 07:39:54","2022-12-27 10:13:01"
944,"Dewanganj Branch, Jamalpur","দেওয়ানগঞ্জ শাখা, জামালপুর","5210","BR839",NULL,NULL,NULL,NULL,NULL,0,NULL,NULL,"BR","2022-12-20 07:39:54","2022-12-27 10:13:11"
945,"Guthail Bazar Branch, Jamalpur","গুঠাইল বাজার শাখা, জামালপুর","5222","BR840",NULL,NULL,NULL,NULL,NULL,0,NULL,NULL,"BR","2022-12-20 07:39:54","2022-12-27 10:13:19"
946,"Hazipur Bazar Branch, Jamalpur","হাজীপুর বাজার শাখা, জামালপুর","5203","BR841",NULL,NULL,NULL,NULL,NULL,0,NULL,NULL,"BR","2022-12-20 07:39:54","2022-12-27 10:13:27"
947,"Islampur Branch, Jamalpur","ইসলামপুর শাখা, জামালপুর","5211","BR842",NULL,NULL,NULL,NULL,NULL,0,NULL,NULL,"BR","2022-12-20 07:39:54","2022-12-27 10:13:33"
948,"Jobbarganj Bazar Branch, Jamalpur","জব্বারগঞ্জ বাজার শাখা, জামালপুর","5228","BR843",NULL,NULL,NULL,NULL,NULL,0,NULL,NULL,"BR","2022-12-20 07:39:54","2022-12-27 10:13:41"
949,"Jagannathganj Ghat Branch, Jamalpur","জগন্নাথগঞ্জ ঘাট শাখা, জামালপুর","5216","BR844",NULL,NULL,NULL,NULL,NULL,0,NULL,NULL,"BR","2022-12-20 07:39:54","2022-12-27 10:13:57"
950,"Jamalpur Branch, Jamalpur","জামালপুর শাখা, জামালপুর","5201","BR845",NULL,NULL,NULL,NULL,NULL,0,NULL,NULL,"BR","2022-12-20 07:39:54","2022-12-27 10:14:03"
951,"Mahmudpur Bazar Branch, Jamalpur","মাহমুদপুর বাজার শাখা, জামালপুর","5226","BR846",NULL,NULL,NULL,NULL,NULL,0,NULL,NULL,"BR","2022-12-20 07:39:54","2022-12-27 10:14:09"
952,"Melandah Branch, Jamalpur","মেলান্দহ শাখা, জামালপুর","5208","BR847",NULL,NULL,NULL,NULL,NULL,0,NULL,NULL,"BR","2022-12-20 07:39:54","2022-12-27 10:14:33"
953,"Milon Bazar Branch, Jamalpur","মিলন বাজার শাখা, জামালপুর","5225","BR848",NULL,NULL,NULL,NULL,NULL,0,NULL,NULL,"BR","2022-12-20 07:39:54","2022-12-27 10:14:39"
954,"Malamganj Bazar Branch, Jamalpur","মলমগঞ্জ বাজার শাখা, জামালপুর","5221","BR849",NULL,NULL,NULL,NULL,NULL,0,NULL,NULL,"BR","2022-12-20 07:39:54","2022-12-27 10:14:46"
956,"Nandina Branch, Jamalpur","নান্দিনা শাখা, জামালপুর","5202","BR851",NULL,NULL,NULL,NULL,NULL,0,NULL,NULL,"BR","2022-12-20 07:39:54","2022-12-27 10:15:04"
955,"Madarganj Branch, Jamalpur","মাদারগঞ্জ শাখা, জামালপুর","5209","BR850",NULL,NULL,NULL,NULL,NULL,0,NULL,NULL,"BR","2022-12-20 07:39:54","2022-12-27 10:15:14"
937,"Trishal Branch, Mymensingh (South)","ত্রিশাল শাখা, ময়মনসিংহ(দঃ)","4715","BR832",NULL,NULL,NULL,NULL,NULL,0,NULL,NULL,"BR","2022-12-20 07:39:54","2022-12-27 10:19:59"
935,"Seedstore Bazar Branch, Mymensingh (South)","সীডষ্টোর বাজার শাখা, ময়মনসিংহ(দঃ)","4710","BR830",NULL,NULL,NULL,NULL,NULL,0,NULL,NULL,"BR","2022-12-20 07:39:54","2022-12-27 10:20:17"
934,"Fulbaria Branch, Mymensingh (South)","ফুলবাড়ীয়া শাখা, ময়মনসিংহ(দঃ)","4711","BR829",NULL,NULL,NULL,NULL,NULL,0,NULL,NULL,"BR","2022-12-20 07:39:54","2022-12-27 10:20:36"
933,"Mymensingh Branch, Mymensingh (South)","ময়মনসিংহ শাখা, ময়মনসিংহ(দঃ)","4701","BR828",NULL,NULL,NULL,NULL,NULL,0,NULL,NULL,"BR","2022-12-20 07:39:54","2022-12-27 10:21:02"
932,"Muktagacha Branch, Mymensingh (South)","মুক্তাগাছা শাখা, ময়মনসিংহ(দঃ)","4718","BR827",NULL,NULL,NULL,NULL,NULL,0,NULL,NULL,"BR","2022-12-20 07:39:54","2022-12-27 10:21:13"
931,"Kashiganj Bazar (Trishal) Branch, Mymensingh (South)","কাশিগঞ্জ বাজার (ত্রি:) শাখা, ময়মনসিংহ(দঃ)","4726","BR826",NULL,NULL,NULL,NULL,NULL,0,NULL,NULL,"BR","2022-12-20 07:39:54","2022-12-27 10:21:22"
916,"Austadhar Bazar Branch, Mymensingh (South)","অষ্টধার বাজার শাখা, ময়মনসিংহ(দঃ)","4703","BR811",NULL,NULL,NULL,NULL,NULL,0,NULL,NULL,"BR","2022-12-20 07:39:54","2022-12-27 10:21:45"
919,"Bhaluka Branch, Mymensingh (South)","ভালুকা শাখা, ময়মনসিংহ(দঃ)","4707","BR814",NULL,NULL,NULL,NULL,NULL,0,NULL,NULL,"BR","2022-12-20 07:39:54","2022-12-27 10:22:00"
920,"Birunia Bazar Branch, Mymensingh (South)","বিরুনীয়া বাজার শাখা, ময়মনসিংহ(দঃ)","4709","BR815",NULL,NULL,NULL,NULL,NULL,0,NULL,NULL,"BR","2022-12-20 07:39:54","2022-12-27 10:22:14"
922,"Chechua Bazar Branch, Mymensingh (South)","চেচুয়া বাজার শাখা, ময়মনসিংহ(দঃ)","4719","BR817",NULL,NULL,NULL,NULL,NULL,0,NULL,NULL,"BR","2022-12-20 07:39:54","2022-12-27 10:22:25"
924,"Deokhola Bazar Branch, Mymensingh (South)","দেওখোলা বাজার শাখা, ময়মনসিংহ(দঃ)","4712","BR819",NULL,NULL,NULL,NULL,NULL,0,NULL,NULL,"BR","2022-12-20 07:39:54","2022-12-27 10:22:49"
925,"Dhalia Branch, Mymensingh (South)","ধলিয়া শাখা, ময়মনসিংহ(দঃ)","4708","BR820",NULL,NULL,NULL,NULL,NULL,0,NULL,NULL,"BR","2022-12-20 07:39:54","2022-12-27 10:25:42"
926,"Dhanikhola Branch, Mymensingh (South)","ধানীখোলা শাখা, ময়মনসিংহ(দঃ)","4716","BR821",NULL,NULL,NULL,NULL,NULL,0,NULL,NULL,"BR","2022-12-20 07:39:54","2022-12-27 10:26:27"
927,"Gaffargaon Branch, Mymensingh (South)","গফরগাঁও শাখা, ময়মনসিংহ(দঃ)","4720","BR822",NULL,NULL,NULL,NULL,NULL,0,NULL,NULL,"BR","2022-12-20 07:39:54","2022-12-27 10:26:56"
928,"Goyeshpur Bazar Branch, Mymensingh (South)","গয়েশপুর  বাজার শাখা, ময়মনসিংহ(দঃ)","4722","BR823",NULL,NULL,NULL,NULL,NULL,0,NULL,NULL,"BR","2022-12-20 07:39:54","2022-12-27 10:27:12"
929,"Jail Road Branch, Mymensingh (South)","জেল রোড শাখা, ময়মনসিংহ(দঃ)","4706","BR824",NULL,NULL,NULL,NULL,NULL,0,NULL,NULL,"BR","2022-12-20 07:39:54","2022-12-27 10:27:23"
930,"Kandipara Branch, Mymensingh (South)","কান্দিপাড়া শাখা, ময়মনসিংহ(দঃ)","4721","BR825",NULL,NULL,NULL,NULL,NULL,0,NULL,NULL,"BR","2022-12-20 07:39:54","2022-12-27 10:27:34"
997,"Duoz Branch, Netrokona","দুওজ শাখা, নেত্রকোনা","BR892","BR892",NULL,NULL,NULL,NULL,NULL,0,NULL,NULL,"BR","2022-12-20 07:39:54","2022-12-20 07:39:54"
993,"Atpara Branch, Netrokona","আটপাড়া শাখা, নেত্রকোনা","4909","BR888",NULL,NULL,NULL,NULL,NULL,0,NULL,NULL,"BR","2022-12-20 07:39:54","2022-12-27 09:57:29"
995,"Challisha Bazar Branch, Netrokona","চল্লিশা বাজার শাখা, নেত্রকোনা","4902","BR890",NULL,NULL,NULL,NULL,NULL,0,NULL,NULL,"BR","2022-12-20 07:39:54","2022-12-27 09:57:44"
996,"Adarshanagar Branch, Netrokona","আদর্শনগর শাখা, নেত্রকোনা","4924","BR891",NULL,NULL,NULL,NULL,NULL,0,NULL,NULL,"BR","2022-12-20 07:39:54","2022-12-27 09:57:53"
998,"Durgapur Branch, Netrokona","দুর্গাপুর শাখা, নেত্রকোনা","4903","BR893",NULL,NULL,NULL,NULL,NULL,0,NULL,NULL,"BR","2022-12-20 07:39:54","2022-12-27 09:58:09"
999,"Hiranpur Bazar Branch, Netrokona","হিরনপুর বাজার শাখা, নেত্রকোনা","4906","BR894",NULL,NULL,NULL,NULL,NULL,0,NULL,NULL,"BR","2022-12-20 07:39:54","2022-12-27 09:58:15"
967,"Adampur Branch, Kishoreganj","আদমপুর শাখা, কিশোরগঞ্জ","4818","BR862",NULL,NULL,NULL,NULL,NULL,0,NULL,NULL,"BR","2022-12-20 07:39:54","2022-12-27 10:04:15"
968,"Austagram Branch, Kishoreganj","অষ্টগ্রাম শাখা, কিশোরগঞ্জ","4817","BR863",NULL,NULL,NULL,NULL,NULL,0,NULL,NULL,"BR","2022-12-20 07:39:54","2022-12-27 10:04:37"
969,"Bajitpur Branch, Kishoreganj","বাজিতপুর শাখা, কিশোরগঞ্জ","4805","BR864",NULL,NULL,NULL,NULL,NULL,0,NULL,NULL,"BR","2022-12-20 07:39:54","2022-12-27 10:04:59"
970,"Bhairab Bazar Branch, Kishoreganj","ভৈরব বাজার শাখা, কিশোরগঞ্জ","4808","BR865",NULL,NULL,NULL,NULL,NULL,0,NULL,NULL,"BR","2022-12-20 07:39:54","2022-12-27 10:05:06"
971,"Chouddashoto Board Bazar Branch, Kishoreganj","চৌদ্দশত বোর্ড বাজার শাখা, কিশোরগঞ্জ","4823","BR866",NULL,NULL,NULL,NULL,NULL,0,NULL,NULL,"BR","2022-12-20 07:39:54","2022-12-27 10:05:13"
972,"Chouganga Bazar Branch, Kishoreganj","চৌগাঙ্গা বাজার শাখা, কিশোরগঞ্জ","4826","BR867",NULL,NULL,NULL,NULL,NULL,0,NULL,NULL,"BR","2022-12-20 07:39:54","2022-12-27 10:05:24"
973,"Gochihata Bazar Branch, Kishoreganj","গচিহাটা বাজার শাখা, কিশোরগঞ্জ","4825","BR868",NULL,NULL,NULL,NULL,NULL,0,NULL,NULL,"BR","2022-12-20 07:39:54","2022-12-27 10:05:40"
974,"Gosair Bazar Branch, Kishoreganj","গোসাইর বাজার শাখা, কিশোরগঞ্জ","4802","BR869",NULL,NULL,NULL,NULL,NULL,0,NULL,NULL,"BR","2022-12-20 07:39:54","2022-12-27 10:06:00"
975,"Hilochia Branch, Kishoreganj","হিলোচিয়া শাখা, কিশোরগঞ্জ","4807","BR870",NULL,NULL,NULL,NULL,NULL,0,NULL,NULL,"BR","2022-12-20 07:39:54","2022-12-27 10:06:06"
976,"Hossainpur Branch, Kishoreganj","হোসেনপুর শাখা, কিশোরগঞ্জ","4816","BR871",NULL,NULL,NULL,NULL,NULL,0,NULL,NULL,"BR","2022-12-20 07:39:54","2022-12-27 10:06:12"
977,"Itna Branch, Kishoreganj","ইটনা শাখা, কিশোরগঞ্জ","4811","BR872",NULL,NULL,NULL,NULL,NULL,0,NULL,NULL,"BR","2022-12-20 07:39:54","2022-12-27 10:06:24"
978,"Joysiddhi Branch, Kishoreganj","জয়সিদ্ধি শাখা, কিশোরগঞ্জ","4812","BR873",NULL,NULL,NULL,NULL,NULL,0,NULL,NULL,"BR","2022-12-20 07:39:54","2022-12-27 10:06:32"
979,"Karimganj Branch, Kishoreganj","করিমগঞ্জ শাখা, কিশোরগঞ্জ","4809","BR874",NULL,NULL,NULL,NULL,NULL,0,NULL,NULL,"BR","2022-12-20 07:39:54","2022-12-27 10:06:52"
980,"Katiadi Branch, Kishoreganj","কটিয়াদী শাখা, কিশোরগঞ্জ","4813","BR875",NULL,NULL,NULL,NULL,NULL,0,NULL,NULL,"BR","2022-12-20 07:39:54","2022-12-27 10:07:02"
981,"Kishoreganj Branch, Kishoreganj","কিশোরগঞ্জ শাখা, কিশোরগঞ্জ","4801","BR876",NULL,NULL,NULL,NULL,NULL,0,NULL,NULL,"BR","2022-12-20 07:39:54","2022-12-27 10:07:13"
982,"Kuliarchar Branch, Kishoreganj","কুলিয়ারচর শাখা, কিশোরগঞ্জ","4815","BR877",NULL,NULL,NULL,NULL,NULL,0,NULL,NULL,"BR","2022-12-20 07:39:54","2022-12-27 10:07:21"
983,"Latifabad Branch, Kishoreganj","লতিফাবাদ শাখা, কিশোরগঞ্জ","4803","BR878",NULL,NULL,NULL,NULL,NULL,0,NULL,NULL,"BR","2022-12-20 07:39:54","2022-12-27 10:07:29"
984,"Mithamoin Branch, Kishoreganj","মিঠামইন শাখা, কিশোরগঞ্জ","4819","BR879",NULL,NULL,NULL,NULL,NULL,0,NULL,NULL,"BR","2022-12-20 07:39:54","2022-12-27 10:07:38"
985,"Marichkhali Bazar Branch, Kishoreganj","মরিচখালী বাজার শাখা, কিশোরগঞ্জ","4822","BR880",NULL,NULL,NULL,NULL,NULL,0,NULL,NULL,"BR","2022-12-20 07:39:54","2022-12-27 10:07:44"
986,"Mosua Bazar Branch, Kishoreganj","মসুয়া বাজার শাখা, কিশোরগঞ্জ","4824","BR881",NULL,NULL,NULL,NULL,NULL,0,NULL,NULL,"BR","2022-12-20 07:39:54","2022-12-27 10:07:52"
987,"Neamatpur Branch, Kishoreganj","নিয়ামতপুর শাখা, কিশোরগঞ্জ","4810","BR882",NULL,NULL,NULL,NULL,NULL,0,NULL,NULL,"BR","2022-12-20 07:39:54","2022-12-27 10:08:01"
988,"Nikli Branch, Kishoreganj","নিকলী শাখা, কিশোরগঞ্জ","4820","BR883",NULL,NULL,NULL,NULL,NULL,0,NULL,NULL,"BR","2022-12-20 07:39:54","2022-12-27 10:08:08"
989,"Pakundia Branch, Kishoreganj","পাকুন্দিয়া শাখা, কিশোরগঞ্জ","4804","BR884",NULL,NULL,NULL,NULL,NULL,0,NULL,NULL,"BR","2022-12-20 07:39:54","2022-12-27 10:08:21"
990,"Sararchar Branch, Kishoreganj","সরারচর শাখা, কিশোরগঞ্জ","4806","BR885",NULL,NULL,NULL,NULL,NULL,0,NULL,NULL,"BR","2022-12-20 07:39:54","2022-12-27 10:08:29"
991,"Shimulkandi Bazar Branch, Kishoreganj","শিমুলকান্দি বাজার শাখা, কিশোরগঞ্জ","4821","BR886",NULL,NULL,NULL,NULL,NULL,0,NULL,NULL,"BR","2022-12-20 07:39:54","2022-12-27 10:08:39"
992,"Tarail Branch, Kishoreganj","তাড়াইল শাখা, কিশোরগঞ্জ","4814","BR887",NULL,NULL,NULL,NULL,NULL,0,NULL,NULL,"BR","2022-12-20 07:39:54","2022-12-27 10:08:47"
957,"Narundi Bazar Branch, Jamalpur","নরুন্দি বাজার শাখা, জামালপুর","5205","BR852",NULL,NULL,NULL,NULL,NULL,0,NULL,NULL,"BR","2022-12-20 07:39:54","2022-12-27 10:15:33"
958,"Natun Bazar Branch, Jamalpur","নতুন বাজার শাখা, জামালপুর","5218","BR853",NULL,NULL,NULL,NULL,NULL,0,NULL,NULL,"BR","2022-12-20 07:39:54","2022-12-27 10:15:41"
959,"Sharifpur Bazar Branch, Jamalpur","শরীফপুর বাজার শাখা, জামালপুর","5224","BR854",NULL,NULL,NULL,NULL,NULL,0,NULL,NULL,"BR","2022-12-20 07:39:54","2022-12-27 10:15:49"
960,"Sarishabari Branch, Jamalpur","সরিষাবাড়ী শাখা, জামালপুর","5206","BR855",NULL,NULL,NULL,NULL,NULL,0,NULL,NULL,"BR","2022-12-20 07:39:54","2022-12-27 10:15:58"
961,"Shyamganj Kalibari Branch, Jamalpur","শ্যামগঞ্জ কালিবাড়ী শাখা, জামালপুর","5214","BR856",NULL,NULL,NULL,NULL,NULL,0,NULL,NULL,"BR","2022-12-20 07:39:54","2022-12-27 10:16:09"
962,"Chontia Bazar Branch, Jamalpur","ছোনটিয়া বাজার শাখা, জামালপুর","5204","BR857",NULL,NULL,NULL,NULL,NULL,0,NULL,NULL,"BR","2022-12-20 07:39:54","2022-12-27 10:16:24"
963,"Tarakandi Branch, Jamalpur","তারাকান্দি শাখা, জামালপুর","5230","BR858",NULL,NULL,NULL,NULL,NULL,0,NULL,NULL,"BR","2022-12-20 07:39:54","2022-12-27 10:16:39"
964,"Tonki Bazar Branch, Jamalpur","টনকী বাজার শাখা, জামালপুর","5231","BR859",NULL,NULL,NULL,NULL,NULL,0,NULL,NULL,"BR","2022-12-20 07:39:54","2022-12-27 10:17:04"
965,"Tulshipur Bazar Branch, Jamalpur","তুলশীপুর বাজার শাখা, জামালপুর","5227","BR860",NULL,NULL,NULL,NULL,NULL,0,NULL,NULL,"BR","2022-12-20 07:39:54","2022-12-27 10:17:15"
966,"Vharuakhali Bazar Branch, Jamalpur","ভারুয়াখালী বাজার শাখা, জামালপুর","5229","BR861",NULL,NULL,NULL,NULL,NULL,0,NULL,NULL,"BR","2022-12-20 07:39:54","2022-12-27 10:17:26"
1001,"Kadamshree Branch, Netrokona","কদমশ্রী শাখা, নেত্রকোনা","BR896","BR896",NULL,NULL,NULL,NULL,NULL,0,NULL,NULL,"BR","2022-12-20 07:39:54","2022-12-20 07:39:54"
1012,"Sahitpur Branch, Netrokona","সাহিতপুর শাখা, নেত্রকোনা","BR907","BR907",NULL,NULL,NULL,NULL,NULL,0,NULL,NULL,"BR","2022-12-20 07:39:54","2022-12-20 07:39:54"
1030,"Balaganj Branch, Sylhet","বালাগঞ্জ শাখা, সিলেট","3617","BR925",NULL,NULL,NULL,NULL,NULL,0,NULL,NULL,"BR","2022-12-20 07:39:54","2022-12-27 09:42:53"
1031,"Bandar Bazar Branch, Sylhet","বন্দর বাজার শাখা, সিলেট","3603","BR926",NULL,NULL,NULL,NULL,NULL,0,NULL,NULL,"BR","2022-12-20 07:39:54","2022-12-27 09:43:10"
1032,"Beani Bazar Branch, Sylhet","বিয়ানী বাজার শাখা, সিলেট","3616","BR927",NULL,NULL,NULL,NULL,NULL,0,NULL,NULL,"BR","2022-12-20 07:39:54","2022-12-27 09:43:18"
1033,"Bhabaniganj Bazar Branch, Sylhet","ভবানীগঞ্জ বাজার শাখা, সিলেট","3623","BR928",NULL,NULL,NULL,NULL,NULL,0,NULL,NULL,"BR","2022-12-20 07:39:54","2022-12-27 09:43:29"
1034,"Bishwanath Branch, Sylhet","বিশ্বনাথ শাখা, সিলেট","3612","BR929",NULL,NULL,NULL,NULL,NULL,0,NULL,NULL,"BR","2022-12-20 07:39:54","2022-12-27 09:43:41"
1035,"Chotulbazar Branch, Sylhet","চতুলবাজার শাখা, সিলেট","3609","BR930",NULL,NULL,NULL,NULL,NULL,0,NULL,NULL,"BR","2022-12-20 07:39:54","2022-12-27 09:43:54"
1036,"Charkhai Branch, Sylhet","চারখাই শাখা, সিলেট","3615","BR931",NULL,NULL,NULL,NULL,NULL,0,NULL,NULL,"BR","2022-12-20 07:39:54","2022-12-27 09:44:11"
1037,"Companiganj Branch, Sylhet","কোম্পানীগঞ্জ শাখা, সিলেট","3607","BR932",NULL,NULL,NULL,NULL,NULL,0,NULL,NULL,"BR","2022-12-20 07:39:54","2022-12-27 09:44:18"
1039,"Dewan Bazar Branch, Sylhet","দেওয়ান বাজার শাখা, সিলেট","3618","BR934",NULL,NULL,NULL,NULL,NULL,0,NULL,NULL,"BR","2022-12-20 07:39:54","2022-12-27 09:44:28"
1038,"Darpanagar Branch, Sylhet","দর্পনগর শাখা, সিলেট","3624","BR933",NULL,NULL,NULL,NULL,NULL,0,NULL,NULL,"BR","2022-12-20 07:39:54","2022-12-27 09:44:37"
1040,"Doyar Bazar Branch, Sylhet","দয়ার বাজার শাখা, সিলেট","3625","BR935",NULL,NULL,NULL,NULL,NULL,0,NULL,NULL,"BR","2022-12-20 07:39:54","2022-12-27 09:44:47"
1041,"Dubag Bazar Branch, Sylhet","দুবাগ বাজার শাখা, সিলেট","3621","BR936",NULL,NULL,NULL,NULL,NULL,0,NULL,NULL,"BR","2022-12-20 07:39:54","2022-12-27 09:44:56"
1042,"Fenchuganj Branch, Sylhet","ফেঞ্চুগঞ্জ শাখা, সিলেট","3611","BR937",NULL,NULL,NULL,NULL,NULL,0,NULL,NULL,"BR","2022-12-20 07:39:54","2022-12-27 09:45:04"
1043,"Golapganj Branch, Sylhet","গোলাপগঞ্জ শাখা, সিলেট","3610","BR938",NULL,NULL,NULL,NULL,NULL,0,NULL,NULL,"BR","2022-12-20 07:39:54","2022-12-27 09:45:55"
1044,"Gowainghat Branch, Sylhet","গোয়াইনঘাট শাখা, সিলেট","3604","BR939",NULL,NULL,NULL,NULL,NULL,0,NULL,NULL,"BR","2022-12-20 07:39:54","2022-12-27 09:46:03"
1045,"Hadarpar Bazar Branch, Sylhet","হাদারপাড় বাজার শাখা, সিলেট","3626","BR940",NULL,NULL,NULL,NULL,NULL,0,NULL,NULL,"BR","2022-12-20 07:39:54","2022-12-27 09:46:14"
1015,"Bajitkhila Bazar Branch, Sherpur","বাজিতখিলা বাজার শাখা, শেরপুর","5102","BR910",NULL,NULL,NULL,NULL,NULL,0,NULL,NULL,"BR","2022-12-20 07:39:54","2022-12-27 09:48:55"
1016,"Bhayadanga Branch, Sherpur","ভায়াডাঙ্গা শাখা, শেরপুর","5109","BR911",NULL,NULL,NULL,NULL,NULL,0,NULL,NULL,"BR","2022-12-20 07:39:54","2022-12-27 09:49:04"
1017,"Gazir Khamar Branch, Sherpur","গাজীর খামার শাখা, শেরপুর","5111","BR912",NULL,NULL,NULL,NULL,NULL,0,NULL,NULL,"BR","2022-12-20 07:39:54","2022-12-27 09:49:13"
1018,"Jhenaigati Branch, Sherpur","ঝিনাইগাতী শাখা, শেরপুর","5105","BR913",NULL,NULL,NULL,NULL,NULL,0,NULL,NULL,"BR","2022-12-20 07:39:54","2022-12-27 09:49:26"
1019,"Kakarkandi Bazar Branch,Sherpur","কাকরকান্দি বাজার শাখা, শেরপুর","5115","BR914",NULL,NULL,NULL,NULL,NULL,0,NULL,NULL,"BR","2022-12-20 07:39:54","2022-12-27 09:49:36"
1020,"Kurua Bazar Branch, Sherpur","কুরুয়া বাজার শাখা, শেরপুর","5108","BR915",NULL,NULL,NULL,NULL,NULL,0,NULL,NULL,"BR","2022-12-20 07:39:54","2022-12-27 09:49:48"
1021,"Kushumhati Branch, Sherpur","কুসুমহাটী শাখা, শেরপুর","5110","BR916",NULL,NULL,NULL,NULL,NULL,0,NULL,NULL,"BR","2022-12-20 07:39:54","2022-12-27 09:50:03"
1022,"Nakla Branch, Sherpur","নকলা শাখা, শেরপুর","5106","BR917",NULL,NULL,NULL,NULL,NULL,0,NULL,NULL,"BR","2022-12-20 07:39:54","2022-12-27 09:50:23"
1023,"Nalitabari Branch, Sherpur","নালিতাবাড়ী শাখা, শেরপুর","5103","BR918",NULL,NULL,NULL,NULL,NULL,0,NULL,NULL,"BR","2022-12-20 07:39:54","2022-12-27 09:50:33"
1024,"Nalzora  Bazar Branch,Sherpur","নলজোড়া  বাজার শাখা, শেরপুর","5114","BR919",NULL,NULL,NULL,NULL,NULL,0,NULL,NULL,"BR","2022-12-20 07:39:54","2022-12-27 09:50:53"
1025,"Nayabil Bazar Branch,Sherpur","নয়াবিল বাজার শাখা, শেরপুর","5112","BR920",NULL,NULL,NULL,NULL,NULL,0,NULL,NULL,"BR","2022-12-20 07:39:54","2022-12-27 09:51:05"
1026,"Pathakata Branch, Sherpur","পাঠাকাটা শাখা, শেরপুর","5113","BR921",NULL,NULL,NULL,NULL,NULL,0,NULL,NULL,"BR","2022-12-20 07:39:54","2022-12-27 09:51:13"
1027,"Sherpur Branch, Sherpur","শেরপুর শাখা, শেরপুর","5101","BR922",NULL,NULL,NULL,NULL,NULL,0,NULL,NULL,"BR","2022-12-20 07:39:54","2022-12-27 09:51:22"
1028,"Sreebordi Branch, Sherpur","শ্রীবরদী শাখা, শেরপুর","5104","BR923",NULL,NULL,NULL,NULL,NULL,0,NULL,NULL,"BR","2022-12-20 07:39:54","2022-12-27 09:51:34"
1000,"Jatrabari Branch, Netrokona","যাত্রাবাড়ী শাখা, নেত্রকোনা","4922","BR895",NULL,NULL,NULL,NULL,NULL,0,NULL,NULL,"BR","2022-12-20 07:39:54","2022-12-27 09:58:26"
1002,"Kalmakanda Branch, Netrokona","কলমাকান্দা শাখা, নেত্রকোনা","4910","BR897",NULL,NULL,NULL,NULL,NULL,0,NULL,NULL,"BR","2022-12-20 07:39:54","2022-12-27 09:59:09"
1003,"Kendua Branch, Netrokona","কেন্দুয়া শাখা, নেত্রকোনা","4907","BR898",NULL,NULL,NULL,NULL,NULL,0,NULL,NULL,"BR","2022-12-20 07:39:54","2022-12-27 09:59:26"
1004,"Khaliajuri Branch, Netrokona","খালিয়াজুরী শাখা, নেত্রকোনা","4912","BR899",NULL,NULL,NULL,NULL,NULL,0,NULL,NULL,"BR","2022-12-20 07:39:54","2022-12-27 09:59:35"
1005,"Khalishaur Branch, Netrokona","খলিশাউর শাখা, নেত্রকোনা","4917","BR900",NULL,NULL,NULL,NULL,NULL,0,NULL,NULL,"BR","2022-12-20 07:39:54","2022-12-27 09:59:47"
1007,"Madan Branch, Netrokona","মদন শাখা, নেত্রকোনা","4913","BR902",NULL,NULL,NULL,NULL,NULL,0,NULL,NULL,"BR","2022-12-20 07:39:54","2022-12-27 09:59:55"
1006,"Kurpar Branch, Netrokona","কুরপাড় শাখা, নেত্রকোনা","4918","BR901",NULL,NULL,NULL,NULL,NULL,0,NULL,NULL,"BR","2022-12-20 07:39:54","2022-12-27 10:00:11"
1008,"Muhanganj Branch, Netrokona","মোহনগঞ্জ শাখা, নেত্রকোনা","4911","BR903",NULL,NULL,NULL,NULL,NULL,0,NULL,NULL,"BR","2022-12-20 07:39:54","2022-12-27 10:00:48"
1009,"Nazirpur Branch, Netrokona","নাজিরপুর শাখা, নেত্রকোনা","4915","BR904",NULL,NULL,NULL,NULL,NULL,0,NULL,NULL,"BR","2022-12-20 07:39:54","2022-12-27 10:01:06"
1010,"Netrokona Branch, Netrokona","নেত্রকোনা শাখা, নেত্রকোনা","4901","BR905",NULL,NULL,NULL,NULL,NULL,0,NULL,NULL,"BR","2022-12-20 07:39:54","2022-12-27 10:01:18"
1011,"Purbadhala Branch, Netrokona","পূর্বধলা শাখা, নেত্রকোনা","4904","BR906",NULL,NULL,NULL,NULL,NULL,0,NULL,NULL,"BR","2022-12-20 07:39:54","2022-12-27 10:01:30"
1014,"Tatirkona Branch, Netrokona","তাতিরকোনা শাখা, নেত্রকোনা","4919","BR909",NULL,NULL,NULL,NULL,NULL,0,NULL,NULL,"BR","2022-12-20 07:39:54","2022-12-27 10:01:58"
1056,"Bahubal Branch, Hobiganj","বাহুবল শাখা, হবিগঞ্জ","3904","BR952",NULL,NULL,NULL,NULL,NULL,0,NULL,NULL,"BR","2022-12-20 07:39:54","2022-12-27 09:21:30"
1057,"Baniachang Branch, Hobiganj","বানিয়াচং শাখা, হবিগঞ্জ","3908","BR953",NULL,NULL,NULL,NULL,NULL,0,NULL,NULL,"BR","2022-12-20 07:39:54","2022-12-27 09:21:37"
1058,"Chowmuhani Bazar Branch, Hobiganj","চৌমুহনী বাজার শাখা, হবিগঞ্জ","3922","BR954",NULL,NULL,NULL,NULL,NULL,0,NULL,NULL,"BR","2022-12-20 07:39:54","2022-12-27 09:21:43"
1059,"Chunarughat Branch, Hobiganj","চুনারুঘাট শাখা, হবিগঞ্জ","3911","BR955",NULL,NULL,NULL,NULL,NULL,0,NULL,NULL,"BR","2022-12-20 07:39:54","2022-12-27 09:21:52"
1060,"Dubai Hajiganj Branch, Hobiganj","দুবাই হাজীগঞ্জ শাখা, হবিগঞ্জ","3905","BR956",NULL,NULL,NULL,NULL,NULL,0,NULL,NULL,"BR","2022-12-20 07:39:54","2022-12-27 09:22:01"
1061,"Goplar Bazar Branch, Hobiganj","গোপলার বাজার শাখা, হবিগঞ্জ","3915","BR957",NULL,NULL,NULL,NULL,NULL,0,NULL,NULL,"BR","2022-12-20 07:39:54","2022-12-27 09:22:08"
1062,"Habiganj Branch, Hobiganj","হবিগঞ্জ শাখা, হবিগঞ্জ","3901","BR958",NULL,NULL,NULL,NULL,NULL,0,NULL,NULL,"BR","2022-12-20 07:39:54","2022-12-27 09:22:14"
1063,"Imambari Branch, Hobiganj","ইমামবাড়ী শাখা, হবিগঞ্জ","3914","BR959",NULL,NULL,NULL,NULL,NULL,0,NULL,NULL,"BR","2022-12-20 07:39:54","2022-12-27 09:22:22"
1064,"Kakailcheo Branch, Hobiganj","কাকাইলছেও শাখা, হবিগঞ্জ","3907","BR960",NULL,NULL,NULL,NULL,NULL,0,NULL,NULL,"BR","2022-12-20 07:39:54","2022-12-27 09:22:33"
1065,"Kalauk Branch, Hobiganj","কালাউক শাখা, হবিগঞ্জ","3916","BR961",NULL,NULL,NULL,NULL,NULL,0,NULL,NULL,"BR","2022-12-20 07:39:54","2022-12-27 09:22:40"
1066,"Kashimnagar Branch, Hobiganj","কাশিমনগর শাখা, হবিগঞ্জ","3903","BR962",NULL,NULL,NULL,NULL,NULL,0,NULL,NULL,"BR","2022-12-20 07:39:54","2022-12-27 09:22:45"
1067,"Kaziganj Bazar Branch, Hobiganj","কাজিগঞ্জ বাজার শাখা, হবিগঞ্জ","3913","BR963",NULL,NULL,NULL,NULL,NULL,0,NULL,NULL,"BR","2022-12-20 07:39:54","2022-12-27 09:22:53"
1068,"Lakhai Branch, Hobiganj","লাখাই শাখা, হবিগঞ্জ","3910","BR964",NULL,NULL,NULL,NULL,NULL,0,NULL,NULL,"BR","2022-12-20 07:39:54","2022-12-27 09:23:00"
1069,"Madhabpur Branch, Hobiganj","মাধবপুর শাখা, হবিগঞ্জ","3902","BR965",NULL,NULL,NULL,NULL,NULL,0,NULL,NULL,"BR","2022-12-20 07:39:54","2022-12-27 09:23:07"
1070,"Madna Branch, Hobiganj","মাদনা শাখা, হবিগঞ্জ","3924","BR966",NULL,NULL,NULL,NULL,NULL,0,NULL,NULL,"BR","2022-12-20 07:39:54","2022-12-27 09:23:15"
1071,"Mirpur Branch, Hobiganj","মিরপুর শাখা, হবিগঞ্জ","3928","BR967",NULL,NULL,NULL,NULL,NULL,0,NULL,NULL,"BR","2022-12-20 07:39:54","2022-12-27 09:23:31"
1072,"Morakari Branch, Hobiganj","মোড়াকরি শাখা , হবিগঞ্জ","3931","BR968",NULL,NULL,NULL,NULL,NULL,0,NULL,NULL,"BR","2022-12-20 07:39:54","2022-12-27 09:23:40"
1073,"Nabiganj Branch, Hobiganj","নবীগঞ্জ শাখা, হবিগঞ্জ","3912","BR969",NULL,NULL,NULL,NULL,NULL,0,NULL,NULL,"BR","2022-12-20 07:39:54","2022-12-27 09:23:46"
1074,"Nagura Branch, Hobiganj","নাগোড়া শাখা, হবিগঞ্জ","3909","BR970",NULL,NULL,NULL,NULL,NULL,0,NULL,NULL,"BR","2022-12-20 07:39:54","2022-12-27 09:23:55"
1075,"Nalmukh Bazar Branch, Hobiganj","নালমুখ বাজার শাখা, হবিগঞ্জ","3926","BR971",NULL,NULL,NULL,NULL,NULL,0,NULL,NULL,"BR","2022-12-20 07:39:54","2022-12-27 09:24:02"
1076,"Nandanpur Bazar Branch, Hobiganj","নন্দনপুর বাজার শাখা, হবিগঞ্জ","3927","BR972",NULL,NULL,NULL,NULL,NULL,0,NULL,NULL,"BR","2022-12-20 07:39:54","2022-12-27 09:24:08"
1077,"Paharpur Bazar Branch, Hobiganj","পাহাড়পুর বাজার শাখা, হবিগঞ্জ","3920","BR973",NULL,NULL,NULL,NULL,NULL,0,NULL,NULL,"BR","2022-12-20 07:39:54","2022-12-27 09:24:18"
1078,"Paniumda Branch, Hobiganj","পানিউমদা শাখা, হবিগঞ্জ","3919","BR974",NULL,NULL,NULL,NULL,NULL,0,NULL,NULL,"BR","2022-12-20 07:39:54","2022-12-27 09:24:26"
1079,"Poil Branch, Hobiganj","পইল শাখা, হবিগঞ্জ","3930","BR975",NULL,NULL,NULL,NULL,NULL,0,NULL,NULL,"BR","2022-12-20 07:39:54","2022-12-27 09:24:37"
1080,"Shakirmamud Branch, Hobiganj","শাকিরমামুদ শাখা, হবিগঞ্জ","3917","BR976",NULL,NULL,NULL,NULL,NULL,0,NULL,NULL,"BR","2022-12-20 07:39:54","2022-12-27 09:24:46"
1081,"Sujatpur Bazar Branch, Hobiganj","সুজাতপুর বাজার শাখা, হবিগঞ্জ","3923","BR977",NULL,NULL,NULL,NULL,NULL,0,NULL,NULL,"BR","2022-12-20 07:39:54","2022-12-27 09:24:54"
1083,"Taliapara Branch, Hobiganj","তেলিয়াপাড়া শাখা, হবিগঞ্জ","3921","BR979",NULL,NULL,NULL,NULL,NULL,0,NULL,NULL,"BR","2022-12-20 07:39:54","2022-12-27 09:25:19"
1084,"Baramchal Branch, Moulvibazar","বরমচাল শাখা, মৌলভীবাজার","3907","BR980",NULL,NULL,NULL,NULL,NULL,0,NULL,NULL,"BR","2022-12-20 07:39:54","2022-12-27 09:37:55"
1085,"Baralekha Branch, Moulvibazar","বড়লেখা শাখা, মৌলভীবাজার","3808","BR981",NULL,NULL,NULL,NULL,NULL,0,NULL,NULL,"BR","2022-12-20 07:39:54","2022-12-27 09:38:02"
1086,"Vatera Branch, Moulvibazar","ভাটেরা শাখা, মৌলভীবাজার","3814","BR982",NULL,NULL,NULL,NULL,NULL,0,NULL,NULL,"BR","2022-12-20 07:39:54","2022-12-27 09:38:11"
1087,"Dighirpar Bazar Branch, Moulvibazar","দিঘীরপাড় বাজার শাখা, মৌলভীবাজার","3802","BR983",NULL,NULL,NULL,NULL,NULL,0,NULL,NULL,"BR","2022-12-20 07:39:54","2022-12-27 09:38:18"
1088,"Juri Branch, Moulvibazar","জুরী শাখা, মৌলভীবাজার","3809","BR984",NULL,NULL,NULL,NULL,NULL,0,NULL,NULL,"BR","2022-12-20 07:39:54","2022-12-27 09:38:25"
1089,"Kagabala Branch, Moulvibazar","কাগাবালা শাখা, মৌলভীবাজার","3803","BR985",NULL,NULL,NULL,NULL,NULL,0,NULL,NULL,"BR","2022-12-20 07:39:54","2022-12-27 09:38:34"
1090,"Kamalganj Branch, Moulvibazar","কমলগঞ্জ শাখা, মৌলভীবাজার","3810","BR986",NULL,NULL,NULL,NULL,NULL,0,NULL,NULL,"BR","2022-12-20 07:39:54","2022-12-27 09:38:45"
1091,"Kulaura Branch, Moulvibazar","কুলাউড়া শাখা, মৌলভীবাজার","3806","BR987",NULL,NULL,NULL,NULL,NULL,0,NULL,NULL,"BR","2022-12-20 07:39:54","2022-12-27 09:38:56"
1092,"Mokam Bazar Branch, Moulvibazar","মোকাম বাজার শাখা, মৌলভীবাজার","3815","BR988",NULL,NULL,NULL,NULL,NULL,0,NULL,NULL,"BR","2022-12-20 07:39:54","2022-12-27 09:39:02"
1093,"Manu Branch, Moulvibazar","মনু শাখা, মৌলভীবাজার","3811","BR989",NULL,NULL,NULL,NULL,NULL,0,NULL,NULL,"BR","2022-12-20 07:39:54","2022-12-27 09:39:07"
1048,"Khajanchigaon Branch, Sylhet","খাজাঞ্চিগাঁও শাখা, সিলেট","3613","BR943",NULL,NULL,NULL,NULL,NULL,0,NULL,NULL,"BR","2022-12-20 07:39:54","2022-12-27 09:46:33"
1049,"Mogla Bazar Branch, Sylhet","মোগলা বাজার শাখা, সিলেট","3602","BR944",NULL,NULL,NULL,NULL,NULL,0,NULL,NULL,"BR","2022-12-20 07:39:54","2022-12-27 09:46:41"
1050,"Ratanganj Bazar Branch, Sylhet","রতনগঞ্জ বাজার শাখা, সিলেট","3620","BR945",NULL,NULL,NULL,NULL,NULL,0,NULL,NULL,"BR","2022-12-20 07:39:54","2022-12-27 09:46:50"
1051,"Salutikar Branch, Sylhet","শালুটিকর শাখা, সিলেট","3605","BR946",NULL,NULL,NULL,NULL,NULL,0,NULL,NULL,"BR","2022-12-20 07:39:54","2022-12-27 09:47:11"
1052,"Shiber Bazar Branch, Sylhet","শিবের বাজার শাখা, সিলেট","3622","BR947",NULL,NULL,NULL,NULL,NULL,0,NULL,NULL,"BR","2022-12-20 07:39:54","2022-12-27 09:47:19"
1053,"Tajpur Bazar Branch, Sylhet","তাজপুর বাজার শাখা, সিলেট","3627","BR948",NULL,NULL,NULL,NULL,NULL,0,NULL,NULL,"BR","2022-12-20 07:39:54","2022-12-27 09:47:30"
1054,"Zakiganj Branch, Sylhet","জকিগঞ্জ শাখা, সিলেট","3614","BR949",NULL,NULL,NULL,NULL,NULL,0,NULL,NULL,"BR","2022-12-20 07:39:54","2022-12-27 09:47:38"
1133,"Shilondia Bazar Branch, Barishal","শিলন্দীয়া বাজার শাখা, বরিশাল","0232","BR1039",NULL,NULL,NULL,NULL,NULL,0,NULL,NULL,"BR","2022-12-20 07:39:54","2022-12-20 11:37:39"
1134,"Kashipur Bazar Branch, Patuakhali","কাশীপুর বাজার শাখা, পটুয়াখালী","0727","BR1040",NULL,NULL,NULL,NULL,NULL,0,NULL,NULL,"BR","2022-12-20 07:39:54","2022-12-20 11:57:16"
1128,"Purbachal Branch, Narayanganj","পূর্বাচল শাখা, নারায়ণগঞ্জ","4613","BR1044",NULL,NULL,NULL,NULL,NULL,0,NULL,NULL,"BR","2022-12-20 07:39:54","2022-12-21 06:03:29"
1127,"Madhobdi Branch, Narsingdi","মাধবদী শাখা, নরসিংদী","4502","BR508",NULL,NULL,NULL,NULL,NULL,0,NULL,NULL,"BR","2022-12-20 07:39:54","2022-12-21 06:20:16"
1136,"Golar Bazar Branch,Shariatpur","গোলার বাজার শাখা,শরীয়তপুর","1219","BR1043",NULL,NULL,NULL,NULL,NULL,0,NULL,NULL,"BR","2022-12-20 07:39:54","2022-12-21 07:06:58"
1130,"Haludbaria Branch, Kushtia","হলুদবাড়ীয়া শাখা, কুষ্টিয়া","1918","BR1045",NULL,NULL,NULL,NULL,NULL,0,NULL,NULL,"BR","2022-12-20 07:39:54","2022-12-21 07:45:29"
1135,"Ajmiriganj Branch, Hobiganj","আজমিরীগঞ্জ শাখা, হবিগঞ্জ","3906","BR1047",NULL,NULL,NULL,NULL,NULL,0,NULL,NULL,"BR","2022-12-20 07:39:54","2022-12-27 09:21:20"
1099,"Badaghat Branch, Sunamganj","বাদাঘাট শাখা, সুনামগঞ্জ","3720","BR995",NULL,NULL,NULL,NULL,NULL,0,NULL,NULL,"BR","2022-12-20 07:39:54","2022-12-27 09:28:15"
1100,"Bangla Bazar Branch, Sunamganj","বাংলা বাজার শাখা, সুনামগঞ্জ","3724","BR996",NULL,NULL,NULL,NULL,NULL,0,NULL,NULL,"BR","2022-12-20 07:39:54","2022-12-27 09:28:22"
1101,"Bishwamvarpur Branch, Sunamganj","বিশ্বম্বরপুর শাখা, সুনামগঞ্জ","3707","BR997",NULL,NULL,NULL,NULL,NULL,0,NULL,NULL,"BR","2022-12-20 07:39:54","2022-12-27 09:28:30"
1102,"Boalia Bazar Branch, Sunamganj","বোয়ালিয়া বাজার শাখা, সুনামগঞ্জ","3727","BR998",NULL,NULL,NULL,NULL,NULL,0,NULL,NULL,"BR","2022-12-20 07:39:54","2022-12-27 09:28:38"
1103,"Chatak Branch, Sunamganj","ছাতক শাখা, সুনামগঞ্জ","3702","BR999",NULL,NULL,NULL,NULL,NULL,0,NULL,NULL,"BR","2022-12-20 07:39:54","2022-12-27 09:28:44"
1104,"Dawrai Bazar Branch, Sunamganj","দাওরাই বাজার শাখা, সুনামগঞ্জ","3729","BR1000",NULL,NULL,NULL,NULL,NULL,0,NULL,NULL,"BR","2022-12-20 07:39:54","2022-12-27 09:28:52"
1105,"Derai Branch, Sunamganj","দিরাই শাখা, সুনামগঞ্জ","3711","BR1001",NULL,NULL,NULL,NULL,NULL,0,NULL,NULL,"BR","2022-12-20 07:39:54","2022-12-27 09:29:02"
1106,"Doara Bazar Branch, Sunamganj","দোয়ারা বাজার শাখা, সুনামগঞ্জ","3706","BR1003",NULL,NULL,NULL,NULL,NULL,0,NULL,NULL,"BR","2022-12-20 07:39:54","2022-12-27 09:29:10"
1107,"Dungria Branch, Sunamganj","ডুংরিয়া শাখা, সুনামগঞ্জ","3723","BR1004",NULL,NULL,NULL,NULL,NULL,0,NULL,NULL,"BR","2022-12-20 07:39:54","2022-12-27 09:29:17"
1108,"Golakpur Bazar Branch, Sunamganj","গোলকপুর বাজার শাখা, সুনামগঞ্জ","3719","BR1006",NULL,NULL,NULL,NULL,NULL,0,NULL,NULL,"BR","2022-12-20 07:39:54","2022-12-27 09:29:31"
1109,"Jagannathpur Branch, Sunamganj","জগন্নাথপুর  শাখা, সুনামগঞ্জ","3714","BR1007",NULL,NULL,NULL,NULL,NULL,0,NULL,NULL,"BR","2022-12-20 07:39:54","2022-12-27 09:29:44"
1110,"Jaowa Bazar Branch, Sunamganj","জাউয়া বাজার শাখা, সুনামগঞ্জ","3704","BR1008",NULL,NULL,NULL,NULL,NULL,0,NULL,NULL,"BR","2022-12-20 07:39:54","2022-12-27 09:29:54"
1111,"Joynagar Bazar Branch, Sunamganj","জয়নগর বাজার শাখা, সুনামগঞ্জ","3725","BR1009",NULL,NULL,NULL,NULL,NULL,0,NULL,NULL,"BR","2022-12-20 07:39:54","2022-12-27 09:30:01"
1112,"Kolkolia Branch, Sunamganj","কলকলি শাখা, সুনামগঞ্জ","3716","BR1010",NULL,NULL,NULL,NULL,NULL,0,NULL,NULL,"BR","2022-12-20 07:39:54","2022-12-27 09:30:09"
1113,"Mina Bazar Branch, Sunamganj","মিনা বাজার শাখা, সুনামগঞ্জ","3722","BR1011",NULL,NULL,NULL,NULL,NULL,0,NULL,NULL,"BR","2022-12-20 07:39:54","2022-12-27 09:30:17"
1114,"Madhyanagar Branch, Sunamganj","মধ্যনগর শাখা, সুনামগঞ্জ","3710","BR1012",NULL,NULL,NULL,NULL,NULL,0,NULL,NULL,"BR","2022-12-20 07:39:54","2022-12-27 09:30:25"
1115,"Moinpur Bazar Branch, Sunamganj","মঈনপুর বাজার শাখা, সুনামগঞ্জ","3705","BR1013",NULL,NULL,NULL,NULL,NULL,0,NULL,NULL,"BR","2022-12-20 07:39:54","2022-12-27 09:30:35"
1116,"Mongalkata Bazar Branch, Sunamganj","মংগলকাটা বাজার শাখা, সুনামগঞ্জ","3726","BR1014",NULL,NULL,NULL,NULL,NULL,0,NULL,NULL,"BR","2022-12-20 07:39:54","2022-12-27 09:30:47"
1117,"Patharia Bazar Branch, Sunamganj","পাথারিয়া বাজার শাখা, সুনামগঞ্জ","3721","BR1015",NULL,NULL,NULL,NULL,NULL,0,NULL,NULL,"BR","2022-12-20 07:39:54","2022-12-27 09:30:58"
1118,"Rafinagar Union Branch, Sunamganj","রফিনগর ইউনিয়ন শাখা, সুনামগঞ্জ","3728","BR1016",NULL,NULL,NULL,NULL,NULL,0,NULL,NULL,"BR","2022-12-20 07:39:54","2022-12-27 09:31:06"
1119,"Rajaniganj Bazar Branch, Sunamganj","রজনীগঞ্জ বাজার শাখা, সুনামগঞ্জ","3718","BR1017",NULL,NULL,NULL,NULL,NULL,0,NULL,NULL,"BR","2022-12-20 07:39:54","2022-12-27 09:31:15"
1120,"Raniganj Bazar Branch, Sunamganj","রানীগঞ্জ বাজার শাখা, সুনামগঞ্জ","3715","BR1018",NULL,NULL,NULL,NULL,NULL,0,NULL,NULL,"BR","2022-12-20 07:39:54","2022-12-27 09:31:22"
1121,"Shyamar Char Branch, Sunamganj","শ্যামার চর শাখা, সুনামগঞ্জ","3712","BR1020",NULL,NULL,NULL,NULL,NULL,0,NULL,NULL,"BR","2022-12-20 07:39:54","2022-12-27 09:31:31"
1122,"Shalla Branch, Sunamganj","শাল্লা শাখা, সুনামগঞ্জ","3717","BR1021",NULL,NULL,NULL,NULL,NULL,0,NULL,NULL,"BR","2022-12-20 07:39:54","2022-12-27 09:32:28"
1123,"Tahirpur Branch, Sunamganj","তাহিরপুর শাখা, সুনামগঞ্জ","3708","BR1023",NULL,NULL,NULL,NULL,NULL,0,NULL,NULL,"BR","2022-12-20 07:39:54","2022-12-27 09:32:36"
1125,"Noakhali Bazar Branch, Sunamganj","নোয়াখালী বাজার শাখা, সুনামগঞ্জ","3730","BR1042",NULL,NULL,NULL,NULL,NULL,0,NULL,NULL,"BR","2022-12-20 07:39:54","2022-12-27 09:32:47"
1126,"Sunamganj Branch, Sunamganj","সুনামগঞ্জ শাখা, সুনামগঞ্জ","3701","BR1035",NULL,NULL,NULL,NULL,NULL,0,"Sunamganj",NULL,"BR","2022-12-20 07:39:54","2022-12-27 09:32:55"
1129,"Jamalganj Branch, Sunamganj","জামালগঞ্জ শাখা, সুনামগঞ্জ","3713","BR1036",NULL,NULL,NULL,NULL,NULL,0,NULL,NULL,"BR","2022-12-20 07:39:54","2022-12-27 09:33:11"
1131,"Dharampasha Branch, Sunamganj","ধরমপাশা শাখা, সুনামগঞ্জ","3709","BR950",NULL,NULL,NULL,NULL,NULL,0,NULL,NULL,"BR","2022-12-20 07:39:54","2022-12-27 09:33:23"
1124,"Khajura Bazar  Branch, Jashore","খাজুরা বাজার শাখা, যশোর","1621","BR1041",NULL,NULL,NULL,NULL,"Telidhannyapara",0,NULL,NULL,"BR","2022-12-20 07:39:54","2022-12-27 09:34:35"
1095,"Rajnagar Branch, Moulvibazar","রাজনগর শাখা, মৌলভীবাজার","3804","BR991",NULL,NULL,NULL,NULL,NULL,0,NULL,NULL,"BR","2022-12-20 07:39:54","2022-12-27 09:39:28"
1096,"Shahid Nagar Bazar Branch, Moulvibazar","শহীদ নগর বাজার শাখা, মৌলভীবাজার","3813","BR992",NULL,NULL,NULL,NULL,NULL,0,NULL,NULL,"BR","2022-12-20 07:39:54","2022-12-27 09:39:38"
1097,"Sherpur Bazar Branch, Moulvibazar","শেরপুর বাজার শাখা, মৌলভীবাজার","3812","BR993",NULL,NULL,NULL,NULL,NULL,0,NULL,NULL,"BR","2022-12-20 07:39:54","2022-12-27 09:39:48"
1098,"Sree Mangal Branch, Moulvibazar","শ্রীমঙ্গল শাখা, মৌলভীবাজার","3805","BR994",NULL,NULL,NULL,NULL,NULL,0,NULL,NULL,"BR","2022-12-20 07:39:54","2022-12-27 09:39:57"
1142,"Local Principal Office (International Trade)","স্থানীয় মুখ্য কার্যালয় (বৈদেশিক বাণিজ্য), ঢাকা","DP51","DP51",NULL,NULL,NULL,NULL,NULL,0,NULL,NULL,"BR","2022-12-20 07:39:54","2022-12-20 07:39:54"
1143,"Local Principal Office (Loan & Advances)","স্থানীয় মুখ্য কার্যালয় (ঋণ ও অগ্রিম), ঢাকা","DP52","DP52",NULL,NULL,NULL,NULL,NULL,0,NULL,NULL,"BR","2022-12-20 07:39:54","2022-12-20 07:39:54"
1137,"Mohammadpur Branch, Dhaka","মোহাম্মদপুর শাখা,  ঢাকা","4105","BR1024",NULL,NULL,NULL,NULL,NULL,0,NULL,NULL,"BR","2022-12-20 07:39:54","2022-12-21 05:47:19"
1139,"Bamundi Branch, Meherpur","বামন্দী শাখা, মেহেরপুর","2108","BR1037",NULL,NULL,NULL,NULL,NULL,0,NULL,NULL,"BR","2022-12-20 07:39:54","2022-12-21 08:01:30"
1141,"Local Principal Office","স্থানীয় মুখ্য কার্যালয়, ঢাকা","4001","DP50",NULL,NULL,NULL,NULL,NULL,0,NULL,NULL,"BR","2022-12-20 07:39:54","2022-12-27 09:13:13"
1140,"Gobindaganj Branch, Sunamganj","গোবিন্দগঞ্জ শাখা, সুনামগঞ্জ","3703","BR1005",NULL,NULL,NULL,NULL,NULL,0,NULL,NULL,"BR","2022-12-20 07:39:54","2022-12-27 09:17:04"
747,"Barakpur Bazar Branch, Khulna","বারাকপুর বাজার শাখা, খুলনা","1305","BR641",NULL,NULL,NULL,NULL,NULL,0,NULL,NULL,"BR","2022-12-20 07:39:54","2022-12-20 11:09:55"
153,"Mokamia Branch, Barguna","মোকামিয়া শাখা, বরগুনা","0605","BR43",NULL,NULL,NULL,NULL,NULL,0,NULL,NULL,"BR","2022-12-20 07:39:53","2022-12-20 11:24:45"
111,"Agoiljhara Branch, Barishal","আগৈলঝাড়া শাখা, বরিশাল","0209","BR01",NULL,NULL,NULL,NULL,NULL,0,NULL,NULL,"BR","2022-12-20 07:39:53","2022-12-20 11:25:21"
1132,"Makimabad Bazar Branch, Barishal","মকিমাবাদ বাজার শাখা, বরিশাল","0231","BR1038",NULL,NULL,NULL,NULL,NULL,0,NULL,NULL,"BR","2022-12-20 07:39:54","2022-12-20 11:37:22"
126,"Lengutia Bazar Branch, Barishal","লেংগুটিয়া বাজার শাখা, বরিশাল","0230","BR16",NULL,NULL,NULL,NULL,NULL,0,"0230",NULL,"BR","2022-12-20 07:39:53","2022-12-20 11:37:51"
154,"Patharghata Branch, Barguna","পাথরঘাটা শাখা, বরগুনা","0602","BR44",NULL,NULL,NULL,NULL,NULL,0,NULL,NULL,"BR","2022-12-20 07:39:53","2022-12-20 11:41:27"
170,"Mangal Sikdar Branch, Bhola","মঙ্গল সিকদার শাখা, ভোলা","0307","BR60",NULL,NULL,NULL,NULL,NULL,0,NULL,NULL,"BR","2022-12-20 07:39:53","2022-12-20 11:45:06"
201,"Kalapara Branch, Patuakhali","কলাপাড়া শাখা, পটুয়াখালী","0712","BR91",NULL,NULL,NULL,NULL,NULL,0,NULL,NULL,"BR","2022-12-20 07:39:53","2022-12-20 11:53:34"
211,"Pukurjana Bazar Branch, Patuakhali","পুকুরজনা বাজার শাখা, পটুয়াখালী","0722","BR101",NULL,NULL,NULL,NULL,NULL,0,NULL,NULL,"BR","2022-12-20 07:39:53","2022-12-20 11:56:36"
245,"Nanupur Bazar Branch,Chattogram (East)","নানুপুর বাজার শাখা, চট্টগ্রাম(পূর্ব)","2933","BR135",NULL,NULL,NULL,NULL,NULL,0,NULL,NULL,"BR","2022-12-20 07:39:53","2022-12-20 12:16:27"
285,"Chiringa Branch,Cox's Bazar","চিরিংগা শাখা, কক্সবাজার","3103","BR175",NULL,NULL,NULL,NULL,NULL,0,NULL,NULL,"BR","2022-12-20 07:39:53","2022-12-20 12:31:37"
295,"Kalarmar Chora Branch,Cox's Bazar","কালারমার ছড়া শাখা, কক্সবাজার","3109","BR185",NULL,NULL,NULL,NULL,NULL,0,NULL,NULL,"BR","2022-12-20 07:39:53","2022-12-20 12:34:02"
332,"Jurachari Branch, Rangamati","জুরাছড়ি শাখা, রাঙ্গামাটি","3506","BR222",NULL,NULL,NULL,NULL,NULL,0,NULL,NULL,"BR","2022-12-20 07:39:53","2022-12-20 12:43:24"
336,"Raikhali Bazar Branch, Rangamati","রাইখালী বাজার শাখা, রাঙ্গামাটি","3302","BR227",NULL,NULL,NULL,NULL,NULL,0,NULL,NULL,"BR","2022-12-20 07:39:53","2022-12-20 12:44:06"
1138,"Kawkhali Branch, Rangamati","কাউখালী শাখা, রাঙ্গামাটি","3505","BR1048",NULL,NULL,NULL,NULL,NULL,0,NULL,NULL,"BR","2022-12-20 07:39:54","2022-12-20 12:44:47"
376,"Chandura Branch, Brahmanbaria","চান্দুরা শাখা, ব্রাহ্মণবাড়িয়া","2402","BR267",NULL,NULL,NULL,NULL,NULL,0,NULL,NULL,"BR","2022-12-20 07:39:53","2022-12-20 12:57:41"
395,"Soyfullahkandi Bazar Branch, Brahmanbaria","ছয়ফুল্লাকান্দি বাজার শাখা, ব্রাহ্মণবাড়িয়া","2429","BR286",NULL,NULL,NULL,NULL,NULL,0,NULL,NULL,"BR","2022-12-20 07:39:53","2022-12-20 13:04:56"
418,"Nawri Bazar Branch, Chandpur","নাউরী বাজার শাখা, চাঁদপুর","2519","BR309",NULL,NULL,NULL,NULL,NULL,0,NULL,NULL,"BR","2022-12-20 07:39:53","2022-12-20 13:13:50"
446,"Bangadda Bazar Branch, Laksam","বাঙ্গড্ডা বাজার শাখা, লাকসাম","2316","BR337",NULL,NULL,NULL,NULL,NULL,0,NULL,NULL,"BR","2022-12-20 07:39:53","2022-12-21 04:35:28"
465,"Natherpetua Branch, Laksam","নাথেরপেটুয়া শাখা, লাকসাম","5301","BR356",NULL,NULL,NULL,NULL,NULL,0,NULL,NULL,"BR","2022-12-20 07:39:54","2022-12-21 04:38:47"
475,"Korunanagar Bazar Branch, Lakshmipur","করুনানগর বাজার শাখা, লক্ষ্মীপুর","2815","BR366",NULL,NULL,NULL,NULL,NULL,0,NULL,NULL,"BR","2022-12-20 07:39:54","2022-12-21 04:53:48"
509,"Badda Branch, Dhaka","বাড্ডা শাখা, ঢাকা","4106","BR400",NULL,NULL,NULL,NULL,NULL,0,NULL,NULL,"BR","2022-12-20 07:39:54","2022-12-21 05:43:00"
534,"Aowrakhali Bazar Branch, Gazipur","আওড়াখালী বাজার শাখা, গাজীপুর","4214","BR426",NULL,NULL,NULL,NULL,NULL,0,NULL,NULL,"BR","2022-12-20 07:39:54","2022-12-21 05:48:18"
557,"Jhitka Branch, Manikganj","ঝিটকা শাখা, মানিকগঞ্জ","4302","BR449",NULL,NULL,NULL,NULL,NULL,0,NULL,NULL,"BR","2022-12-20 07:39:54","2022-12-21 05:54:26"
577,"Sirajdikhan Branch, Munshiganj","সিরাজদিখান শাখা, মুন্সীগঞ্জ","4404","BR469",NULL,NULL,NULL,NULL,NULL,0,NULL,NULL,"BR","2022-12-20 07:39:54","2022-12-21 06:00:06"
601,"Hatirdia Branch, Narsingdi","হাতিরদিয়া শাখা, নরসিংদী","4507","BR495",NULL,NULL,NULL,NULL,NULL,0,NULL,NULL,"BR","2022-12-20 07:39:54","2022-12-21 06:17:10"
629,"Sholakuri Bazar Branch, Tangail(North)","শোলাকুড়ি বাজার শাখা, টাঙ্গাইল(উঃ)","5035","BR523",NULL,NULL,NULL,NULL,NULL,0,NULL,NULL,"BR","2022-12-20 07:39:54","2022-12-21 06:25:00"
644,"Nalua Bazar Branch, Tangail (South)","নলুয়া বাজার শাখা, টাঙ্গাইল(দঃ)","5030","BR538",NULL,NULL,NULL,NULL,NULL,0,NULL,NULL,"BR","2022-12-20 07:39:54","2022-12-21 06:34:34"
646,"Sahabatpur Bazar Branch, Tangail (South)","সহবতপুর বাজার শাখা, টাঙ্গাইল(দঃ)","5005","BR540",NULL,NULL,NULL,NULL,NULL,0,NULL,NULL,"BR","2022-12-20 07:39:54","2022-12-21 06:34:54"
688,"Kajulia Branch,Gopalganj","কাজুলিয়া শাখা,গোপালগঞ্জ","0914","BR582",NULL,NULL,NULL,NULL,NULL,0,NULL,NULL,"BR","2022-12-20 07:39:54","2022-12-21 06:43:36"
780,"Mollahat Branch, Bagerhat","মোল্লাহাট শাখা, বাগেরহাট","1404","BR674",NULL,NULL,NULL,NULL,NULL,0,NULL,NULL,"BR","2022-12-20 07:39:54","2022-12-21 06:52:58"
782,"Morelganj Branch, Bagerhat","মোড়েলগঞ্জ শাখা, বাগেরহাট","1412","BR676",NULL,NULL,NULL,NULL,NULL,0,NULL,NULL,"BR","2022-12-20 07:39:54","2022-12-21 06:53:14"
715,"Uttar Ramjanpurhat Branch,Madaripur","উত্তর রমজানপুরহাট শাখা,মাদারীপুর","1017","BR609",NULL,NULL,NULL,NULL,NULL,0,NULL,NULL,"BR","2022-12-20 07:39:54","2022-12-21 06:58:58"
739,"Kartikpur Bazar Branch,Shariatpur","কার্তিকপুর বাজার শাখা, শরীয়তপুর","1215","BR633",NULL,NULL,NULL,NULL,NULL,0,NULL,NULL,"BR","2022-12-20 07:39:54","2022-12-21 07:05:01"
827,"Rewi Bazar Branch, Satkhira","রেউই বাজার শাখা, সাতক্ষীরা","1516","BR722",NULL,NULL,NULL,NULL,NULL,0,NULL,NULL,"BR","2022-12-20 07:39:54","2022-12-21 07:15:25"
839,"Dangmorka Bazar Branch, Kushtia","ডাংমড়কা বাজার শাখা, কুষ্টিয়া","1912","BR734",NULL,NULL,NULL,NULL,NULL,0,NULL,NULL,"BR","2022-12-20 07:39:54","2022-12-21 07:43:58"
872,"Moheshpur Branch, Jhenaidah","মহেশপুর শাখা, ঝিনাইদহ","1710","BR767",NULL,NULL,NULL,NULL,NULL,0,NULL,NULL,"BR","2022-12-20 07:39:54","2022-12-21 07:57:10"
881,"Dakshin Mirzapur Branch, Magura","দক্ষিন মির্জাপুর শাখা, মাগুরা","1817","BR776",NULL,NULL,NULL,NULL,NULL,0,NULL,NULL,"BR","2022-12-20 07:39:54","2022-12-21 07:58:52"
917,"Bakta Bazar Branch, Mymensingh (South)","বাকতা বাজার শাখা, ময়মনসিংহ(দঃ)","4735","BR812",NULL,NULL,NULL,NULL,NULL,0,NULL,NULL,"BR","2022-12-20 07:39:54","2022-12-21 08:09:11"
921,"Chairbaria Bazar Branch, Mymensingh (South)","চাইরবাড়ীয়া বাজার শাখা, ময়মনসিংহ(দঃ)","4737","BR816",NULL,NULL,NULL,NULL,NULL,0,NULL,NULL,"BR","2022-12-20 07:39:54","2022-12-21 08:09:44"
1055,"Amuroad Bazar Branch, Hobiganj","আমুরোড বাজার শাখা, হবিগঞ্জ","3918","BR951",NULL,NULL,NULL,NULL,NULL,0,NULL,NULL,"BR","2022-12-20 07:39:54","2022-12-27 09:20:55"
1082,"Sundarpur Bazar Branch, Hobiganj","সুন্দরপুর বাজার শাখা, হবিগঞ্জ","3929","BR978",NULL,NULL,NULL,NULL,NULL,0,NULL,NULL,"BR","2022-12-20 07:39:54","2022-12-27 09:25:10"
1094,"Moulavibazar Branch, Moulvibazar","মৌলভীবাজার শাখা, মৌলভীবাজার","3801","BR990",NULL,NULL,NULL,NULL,NULL,0,NULL,NULL,"BR","2022-12-20 07:39:54","2022-12-27 09:39:20"
1047,"Kanaighat Branch, Sylhet","কানাইঘাট শাখা, সিলেট","3608","BR942",NULL,NULL,NULL,NULL,NULL,0,NULL,NULL,"BR","2022-12-20 07:39:54","2022-12-27 09:42:28"
1029,"Ambarkhana Branch, Sylhet","আম্বরখানা শাখা, সিলেট","3619","BR924",NULL,NULL,NULL,NULL,NULL,0,NULL,NULL,"BR","2022-12-20 07:39:54","2022-12-27 09:42:42"
994,"Barahatta Branch, Netrokona","বারহাট্টা শাখা, নেত্রকোনা","4908","BR889",NULL,NULL,NULL,NULL,NULL,0,NULL,NULL,"BR","2022-12-20 07:39:54","2022-12-27 09:57:36"
1013,"Shyamganj Branch, Netrokona","শ্যামগঞ্জ শাখা, নেত্রকোনা","4905","BR908",NULL,NULL,NULL,NULL,NULL,0,NULL,NULL,"BR","2022-12-20 07:39:54","2022-12-27 10:02:28"
